{
"type": "FeatureCollection",
"name": "amenities",
"crs": { "type": "name", "properties": { "name": "urn:ogc:def:crs:OGC:1.3:CRS84" } },
"features": [
{ "type": "Feature", "properties": { "element": "node", "id": 7127949280, "addr:district": "Rudraprayag", "addr:full": "Near By Bsnl Office, Kherakhal", "addr:postcode": "246171", "addr:state": "Uttarakhand", "addr:subdistrict": "Rudraprayag", "amenity": "hospital", "name": "Government Hospital, Kherakhal", "source": "OpenGovernmentData", "contact:phone": null, "description": null, "healthcare": null }, "geometry": { "type": "Point", "coordinates": [ 78.9158241, 30.2177833 ] } },
{ "type": "Feature", "properties": { "element": "node", "id": 7127949339, "addr:district": "Rudraprayag", "addr:full": "Behind Post Office, Bsnl Office Gali, District Hospital", "addr:postcode": "246171", "addr:state": "Uttarakhand", "addr:subdistrict": "Rudraprayag", "amenity": "hospital", "name": "District Hospital Rudraprayag", "source": "OpenGovernmentData", "contact:phone": "01364-233542", "description": "District Hospital", "healthcare": null }, "geometry": { "type": "Point", "coordinates": [ 78.9814996, 30.2864682 ] } },
{ "type": "Feature", "properties": { "element": "node", "id": 7486360455, "addr:district": "Rudraprayag", "addr:full": "Heet Nagar, Rudraprayag", "addr:postcode": "246171", "addr:state": "Uttarakhand", "addr:subdistrict": null, "amenity": "hospital", "name": "Jankalyan Hospital, Rudraprayag", "source": "Local Knowledge", "contact:phone": null, "description": null, "healthcare": null }, "geometry": { "type": "Point", "coordinates": [ 78.9831496, 30.2835311 ] } },
{ "type": "Feature", "properties": { "element": "node", "id": 8256476232, "addr:district": "Rudraprayag", "addr:full": "Pathalidhar", "addr:postcode": "246421", "addr:state": "Uttarakhand", "addr:subdistrict": null, "amenity": "hospital", "name": "Government Hospital, Pathalidhar", "source": "Local Knowledge", "contact:phone": null, "description": null, "healthcare": null }, "geometry": { "type": "Point", "coordinates": [ 79.0319136, 30.4118149 ] } },
{ "type": "Feature", "properties": { "element": "node", "id": 8256486598, "addr:district": "Rudraprayag", "addr:full": "Jakhal Bhardar", "addr:postcode": "246475", "addr:state": "Uttarakhand", "addr:subdistrict": null, "amenity": "hospital", "name": "Government Hospital, Jakhal Bhardar", "source": "Local Knowledge", "contact:phone": null, "description": null, "healthcare": null }, "geometry": { "type": "Point", "coordinates": [ 78.9271673, 30.3487485 ] } },
{ "type": "Feature", "properties": { "element": "node", "id": 8256488869, "addr:district": "Rudraprayag", "addr:full": "Basukedar", "addr:postcode": "246425", "addr:state": "Uttarakhand", "addr:subdistrict": null, "amenity": "hospital", "name": "Government Hospital, Basukedar", "source": "Local Knowledge", "contact:phone": null, "description": null, "healthcare": null }, "geometry": { "type": "Point", "coordinates": [ 79.0561296, 30.4392191 ] } },
{ "type": "Feature", "properties": { "element": "node", "id": 8256506176, "addr:district": "Rudraprayag", "addr:full": "Makku Math", "addr:postcode": "246419", "addr:state": "Uttarakhand", "addr:subdistrict": null, "amenity": "hospital", "name": "Government Hospital, Makku Math", "source": "Local Knowledge", "contact:phone": null, "description": null, "healthcare": null }, "geometry": { "type": "Point", "coordinates": [ 79.1362881, 30.4820658 ] } },
{ "type": "Feature", "properties": { "element": "node", "id": 9841478658, "addr:district": null, "addr:full": null, "addr:postcode": null, "addr:state": null, "addr:subdistrict": null, "amenity": "hospital", "name": "Swami vikenand charitable hospital", "source": null, "contact:phone": null, "description": null, "healthcare": "hospital" }, "geometry": { "type": "Point", "coordinates": [ 79.0698635, 30.7245448 ] } }
]
}
