{
"type": "FeatureCollection",
"name": "hazard_zones",
"crs": { "type": "name", "properties": { "name": "urn:ogc:def:crs:OGC:1.3:CRS84" } },
"features": [
{ "type": "Feature", "properties": { "name": "Gaurikund landslide zone", "hazard_type": "landslide", "year": 2022, "buffer_km": 1.0, "source": "2022 Gaurikund landslide (~23 dead); confirmed Rudraprayag as India's most landslide-prone district", "confidence": "historical_incident_buffer" }, "geometry": { "type": "Polygon", "coordinates": [ [ [ 79.037231196858613, 30.653557992857124 ], [ 79.037198832330745, 30.652673276797927 ], [ 79.037066322917482, 30.651795563402896 ], [ 79.036834947436432, 30.65093330534669 ], [ 79.03650693667646, 30.650094806238442 ], [ 79.036085451817442, 30.6492881406691 ], [ 79.035574553899679, 30.648521076472342 ], [ 79.03497916464039, 30.647800999946728 ], [ 79.034305018977875, 30.647134844758032 ], [ 79.033558609801773, 30.64652902520524 ], [ 79.032747125404143, 30.645989374491027 ], [ 79.031878380253531, 30.645521088589859 ], [ 79.030960739759436, 30.645128676252266 ], [ 79.030003039750298, 30.644815915625426 ], [ 79.029014501439335, 30.644585817905682 ], [ 79.028004642694427, 30.644440598372206 ], [ 79.026983186464221, 30.644381655079016 ], [ 79.025959967238322, 30.644409555409705 ], [ 79.024944836439246, 30.644524030623721 ], [ 79.023947567652968, 30.644723978446233 ], [ 79.0229777626068, 30.645007473676507 ], [ 79.022044758796142, 30.645371786713234 ], [ 79.021157539646012, 30.645813409818349 ], [ 79.02032464806922, 30.646328090868085 ], [ 79.019554104250702, 30.646910874266791 ], [ 79.018853328448003, 30.647556148631164 ], [ 79.018229069549207, 30.648257700787216 ], [ 79.017687340076421, 30.649008775561548 ], [ 79.01723335826, 30.649802140792897 ], [ 79.016871497742827, 30.650630156939577 ], [ 79.016605245400186, 30.651484850613993 ], [ 79.016437167684018, 30.652357991337677 ], [ 79.016368885818395, 30.653241170778781 ], [ 79.016401060088512, 30.654125883710023 ], [ 79.016533383378288, 30.655003609908121 ], [ 79.016764584022752, 30.655865896206379 ], [ 79.017092437951888, 30.656704437910356 ], [ 79.017513790012728, 30.657511158792168 ], [ 79.018024584268403, 30.658278288892529 ], [ 79.018619902985279, 30.658998439380209 ], [ 79.019294013936033, 30.65966467374713 ], [ 79.020040425564929, 30.660270574651559 ], [ 79.020851949485674, 30.660810305764475 ], [ 79.021720769710868, 30.661278668021762 ], [ 79.022638517945936, 30.661671149738549 ], [ 79.023596354222008, 30.66198397010147 ], [ 79.024585052089236, 30.662214115618564 ], [ 79.025595087548012, 30.662359369173803 ], [ 79.026616730858748, 30.662418331405771 ], [ 79.027640140342427, 30.66239043420304 ], [ 79.028655457264989, 30.662275946185968 ], [ 79.029652900887882, 30.662075970121411 ], [ 79.030622862764901, 30.661792432295389 ], [ 79.031555999373694, 30.661428063946182 ], [ 79.032443322185941, 30.660986374937462 ], [ 79.033276284305131, 30.660471619925666 ], [ 79.03404686283541, 30.659888757348721 ], [ 79.034747636185315, 30.659243401632732 ], [ 79.035371855560967, 30.658541769077985 ], [ 79.035913509959158, 30.65779061794753 ], [ 79.036367384034605, 30.656997183336976 ], [ 79.036729108284831, 30.656169107454232 ], [ 79.036995201071235, 30.655314365982466 ], [ 79.037163102073521, 30.654441191237005 ], [ 79.037231196858613, 30.653557992857124 ] ] ] } },
{ "type": "Feature", "properties": { "name": "Bheti-Pondar-Sem landslide zone", "hazard_type": "landslide", "year": 1998, "buffer_km": 1.3, "source": "1998 Bheti-Pondar landslide; ravaged Bheti, Pondar and Sem villages, 101 deaths in Mandakini valley that event season", "confidence": "historical_incident_buffer" }, "geometry": { "type": "Polygon", "coordinates": [ [ [ 79.058541469205025, 30.515202504869272 ], [ 79.058499108998475, 30.514052349575568 ], [ 79.058326747618196, 30.512911327264408 ], [ 79.0580260494947, 30.511790426291533 ], [ 79.057599914737295, 30.510700440859907 ], [ 79.057052451042338, 30.509651867092057 ], [ 79.056388933988487, 30.508654801986467 ], [ 79.055615756107073, 30.507718846229473 ], [ 79.054740365222628, 30.506853011796732 ], [ 79.053771192661159, 30.506065635231703 ], [ 79.052717572019915, 30.505364297433793 ], [ 79.051589649282462, 30.504755750725625 ], [ 79.050398285144141, 30.504245853899167 ], [ 79.049154950487519, 30.503839515863095 ], [ 79.047871616011591, 30.503540648431802 ], [ 79.046560637073981, 30.503352128707739 ], [ 79.045234634849933, 30.503275771417677 ], [ 79.043906374947625, 30.503312311467461 ], [ 79.042588644641654, 30.503461396881921 ], [ 79.041294129901061, 30.503721592197536 ], [ 79.040035293389082, 30.504090392274762 ], [ 79.038824254602886, 30.50456424639772 ], [ 79.037672673301742, 30.505138592429965 ], [ 79.036591637340223, 30.505807900699082 ], [ 79.035591555982322, 30.506565727189248 ], [ 79.034682059720069, 30.50740477553197 ], [ 79.033871907558876, 30.508316967200642 ], [ 79.033168902661416, 30.50929351923552 ], [ 79.032579817162414, 30.510325028753847 ], [ 79.032110326879675, 30.511401563433669 ], [ 79.031764956553118, 30.512512757103046 ], [ 79.031547036142626, 30.51364790951639 ], [ 79.031458668610739, 30.514796089359102 ], [ 79.031500709505991, 30.515946239490436 ], [ 79.031672758549703, 30.517087283412046 ], [ 79.031973163314319, 30.518208231937738 ], [ 79.032399034964143, 30.51929828903712 ], [ 79.032946275913929, 30.520346955833514 ], [ 79.033609619144926, 30.521344131753377 ], [ 79.034382678805784, 30.522280211851868 ], [ 79.03525801161507, 30.523146179374951 ], [ 79.036227188478634, 30.523933692664585 ], [ 79.037280875633826, 30.524635165567098 ], [ 79.038408924541045, 30.525243840567878 ], [ 79.039600469656293, 30.525753853944771 ], [ 79.040844033142164, 30.526160292310092 ], [ 79.042127635505892, 30.526459239993866 ], [ 79.04343891109508, 30.526647816809593 ], [ 79.044765227334295, 30.526724205836494 ], [ 79.046093806547972, 30.526687670949098 ], [ 79.047411849190524, 30.526538563924166 ], [ 79.048706657290012, 30.526278321055717 ], [ 79.049965756909586, 30.525909449310728 ], [ 79.051177018440967, 30.52543550215924 ], [ 79.052328773564923, 30.524861045312694 ], [ 79.053409927746983, 30.52419161270209 ], [ 79.054410067180001, 30.523433653121575 ], [ 79.055319559140159, 30.522594468054251 ], [ 79.056129644787362, 30.521682141280984 ], [ 79.056832523515041, 30.520705460953483 ], [ 79.057421428037102, 30.519673834884742 ], [ 79.057890689490591, 30.518597199875689 ], [ 79.058235791929363, 30.517485925953824 ], [ 79.058453415688305, 30.516350716448834 ], [ 79.058541469205025, 30.515202504869272 ] ] ] } },
{ "type": "Feature", "properties": { "name": "Okhimath (Mangoli-Chunni-Semla) landslide zone", "hazard_type": "landslide", "year": 2012, "buffer_km": 1.2, "source": "Sept 2012 Okhimath rainfall-triggered landslides/debris flow; satellite-confirmed building damage in Mangoli, Chunni, Semla villages", "confidence": "historical_incident_buffer" }, "geometry": { "type": "Polygon", "coordinates": [ [ [ 79.110901459173164, 30.524981908170275 ], [ 79.110861789037457, 30.523920219351261 ], [ 79.110702107344295, 30.522867008914158 ], [ 79.110423955746541, 30.521832419578523 ], [ 79.110030016591608, 30.520826414414788 ], [ 79.109524086950984, 30.519858680917093 ], [ 79.108911041928522, 30.518938537741565 ], [ 79.10819678760609, 30.518074845006627 ], [ 79.107388204083165, 30.517275919017553 ], [ 79.106493079162618, 30.516549452234678 ], [ 79.105520033323018, 30.515902439253502 ], [ 79.104478436701243, 30.515341109507304 ], [ 79.103378318884793, 30.514870867337844 ], [ 79.102230272381206, 30.514496240008896 ], [ 79.101045350692061, 30.514220834160902 ], [ 79.099834961969748, 30.514047301124119 ], [ 79.098610759277179, 30.513977311422419 ], [ 79.097384528502218, 30.514011538711856 ], [ 79.096168075001046, 30.51414965330769 ], [ 79.094973110056642, 30.514390325361671 ], [ 79.09381113823963, 30.514731237658772 ], [ 79.092693346751048, 30.515169107910722 ], [ 79.091630497807316, 30.515699720332304 ], [ 79.090632825098865, 30.516317966197764 ], [ 79.089709935315895, 30.517017892988349 ], [ 79.088870715686085, 30.517792761659713 ], [ 79.088123248413055, 30.518635111479899 ], [ 79.08747473283799, 30.519536831815849 ], [ 79.086931416074663, 30.520489240179614 ], [ 79.086498532786635, 30.521483165785092 ], [ 79.086180254689211, 30.522509037812828 ], [ 79.085979650265585, 30.523556977535033 ], [ 79.085898655089267, 30.524616893415438 ], [ 79.085938053043492, 30.525678578269439 ], [ 79.086097468623919, 30.526731807550039 ], [ 79.086375370404255, 30.527766437813529 ], [ 79.086769085637386, 30.528772504416647 ], [ 79.087274825857065, 30.529740317504164 ], [ 79.087887723238737, 30.530660555361376 ], [ 79.088601877374316, 30.531524354231312 ], [ 79.089410412014445, 30.53232339372995 ], [ 79.090305541234784, 30.533049977034878 ], [ 79.091278644391537, 30.53369710507268 ], [ 79.092320349145155, 30.534258543988564 ], [ 79.093420621752685, 30.534728885245407 ], [ 79.094568863758056, 30.535103597771585 ], [ 79.095754014146678, 30.535379071652553 ], [ 79.096964655977359, 30.535552652943593 ], [ 79.098189126460383, 30.535622669266438 ], [ 79.099415629416853, 30.535588445942029 ], [ 79.100632349030761, 30.535450312502704 ], [ 79.101827563792611, 30.535209599520872 ], [ 79.102989759531425, 30.534868625784377 ], [ 79.104107740440952, 30.534430675942581 ], [ 79.10517073702546, 30.533899968839297 ], [ 79.106168509920735, 30.533281616838856 ], [ 79.107091448586502, 30.5325815765387 ], [ 79.107930663916491, 30.531806591345283 ], [ 79.108678073872355, 30.530964126468465 ], [ 79.109326481315563, 30.530062296962843 ], [ 79.109869643287809, 30.529109789511693 ], [ 79.110302331074053, 30.528115778709012 ], [ 79.110620380472014, 30.527089838648298 ], [ 79.110820731787257, 30.526041850671827 ], [ 79.110901459173164, 30.524981908170275 ] ] ] } },
{ "type": "Feature", "properties": { "name": "Agastmuni-Vijaynagar cloudburst zone", "hazard_type": "cloudburst", "year": 2005, "buffer_km": 1.5, "source": "2005 cloudburst near Rudraprayag-Kedarnath NH109; affected Agastmuni and Vijaynagar villages", "confidence": "historical_incident_buffer" }, "geometry": { "type": "Polygon", "coordinates": [ [ [ 79.041604995779991, 30.392234958748638 ], [ 79.041556313537839, 30.390907839189783 ], [ 79.041357818937612, 30.389591246471706 ], [ 79.041011429541356, 30.388297859691736 ], [ 79.040520486856991, 30.387040133966558 ], [ 79.039889723943119, 30.38583018051747 ], [ 79.039125219634812, 30.384679650085232 ], [ 79.038234339838141, 30.383599620795273 ], [ 79.037225666465545, 30.382600491550381 ], [ 79.036108914700975, 30.381691881974575 ], [ 79.034894839395008, 30.380882539868416 ], [ 79.03359513149293, 30.380180257062797 ], [ 79.03222230549332, 30.379591794478358 ], [ 79.030789579018688, 30.379122817107973 ], [ 79.029310745654854, 30.378777839545037 ], [ 79.027800042278329, 30.378560182578983 ], [ 79.026272012143139, 30.378471941273133 ], [ 79.024741365038039, 30.378513964829907 ], [ 79.023222835852636, 30.378685848435985 ], [ 79.021731042905685, 30.378985937164902 ], [ 79.020280347391051, 30.379411341899239 ], [ 79.018884715286035, 30.379957967119964 ], [ 79.017557583043882, 30.380620550296189 ], [ 79.01631172835657, 30.381392712498503 ], [ 79.015159147226086, 30.382267019750579 ], [ 79.014110938523274, 30.383235054531536 ], [ 79.013177197142667, 30.38428749674403 ], [ 79.01236691678055, 30.385414213371654 ], [ 79.01168790327273, 30.386604355966561 ], [ 79.011146699328364, 30.387846465031757 ], [ 79.010748521388209, 30.389128580296756 ], [ 79.01049720922046, 30.390438355827715 ], [ 79.010395188746131, 30.391763178866373 ], [ 79.010443448458986, 30.393090291255518 ], [ 79.010641529676249, 30.394406912283447 ], [ 79.010987530721934, 30.395700361764863 ], [ 79.011478125012232, 30.396958182173506 ], [ 79.012108592877098, 30.398168258649441 ], [ 79.012872866820061, 30.399318935724072 ], [ 79.013763589787843, 30.400399129636565 ], [ 79.014772185894856, 30.401398435157809 ], [ 79.015888942926424, 30.402307225889562 ], [ 79.017103105829591, 30.403116747069546 ], [ 79.018402980292706, 30.403819199985158 ], [ 79.019776045416393, 30.404407817178527 ], [ 79.021209074388707, 30.404876927715254 ], [ 79.022688261999065, 30.40522201188444 ], [ 79.024199357757396, 30.405439744799793 ], [ 79.025727803330696, 30.405528028479349 ], [ 79.027258872965149, 30.405486012092272 ], [ 79.028777815533559, 30.405314100176334 ], [ 79.030269996831109, 30.405013948745967 ], [ 79.031721040739839, 30.404588449328145 ], [ 79.033116967893861, 30.404041701080551 ], [ 79.03444433050133, 30.403378971261915 ], [ 79.035690342017503, 30.402606644437039 ], [ 79.036843000413512, 30.401732160908615 ], [ 79.03789120384927, 30.400763944971715 ], [ 79.038824857632633, 30.399711323685413 ], [ 79.039634971433657, 30.398584436947804 ], [ 79.040313745817386, 30.397394139743987 ], [ 79.040854647264055, 30.396151897512457 ], [ 79.041252470957744, 30.394869675641239 ], [ 79.041503390743713, 30.393559824160977 ], [ 79.041604995779991, 30.392234958748638 ] ] ] } },
{ "type": "Feature", "properties": { "name": "Ukhimath cloudburst zone", "hazard_type": "cloudburst", "year": 2012, "buffer_km": 1.5, "source": "Sept 2012 Ukhimath cloudburst; 36 deaths, 26 feared trapped under debris", "confidence": "historical_incident_buffer" }, "geometry": { "type": "Polygon", "coordinates": [ [ [ 79.110925773732347, 30.518527526235442 ], [ 79.110876184140238, 30.51720041407869 ], [ 79.110676590945729, 30.515883900304019 ], [ 79.110328922323959, 30.51459066323293 ], [ 79.109836532129677, 30.513333156523125 ], [ 79.109204167382018, 30.512123489268596 ], [ 79.108437922355051, 30.51097330943562 ], [ 79.107545179723246, 30.509893691755341 ], [ 79.106534539335087, 30.508895031149855 ], [ 79.105415735305698, 30.507986942715146 ], [ 79.104199542230077, 30.507178169220435 ], [ 79.102897671421857, 30.506476497011008 ], [ 79.101522658176677, 30.505888681120744 ], [ 79.100087741143852, 30.505420380311627 ], [ 79.098606734964704, 30.505076102662059 ], [ 79.097093897398736, 30.504859162225209 ], [ 79.095563792210896, 30.504771647171431 ], [ 79.094031149133002, 30.504814399719685 ], [ 79.092510722239297, 30.504987008049497 ], [ 79.091017148091439, 30.505287810270467 ], [ 79.089564805010042, 30.50571391041105 ], [ 79.088167674819118, 30.506261206273109 ], [ 79.086839208386806, 30.506924428885455 ], [ 79.085592196249721, 30.507697193178306 ], [ 79.084438645560724, 30.50857205939354 ], [ 79.083389664540263, 30.509540604641987 ], [ 79.082455355540674, 30.510593503922646 ], [ 79.081644717751658, 30.511720619826935 ], [ 79.080965560484103, 30.512911100068113 ], [ 79.080424427869175, 30.514153481900351 ], [ 79.080026535701478, 30.515435802425596 ], [ 79.079775721039553, 30.516745713729048 ], [ 79.07967440505557, 30.518070601737186 ], [ 79.07972356949962, 30.519397707656449 ], [ 79.079922747013541, 30.520714250823964 ], [ 79.080270025396587, 30.522007551788722 ], [ 79.080762065790637, 30.523265154437588 ], [ 79.081394134619202, 30.524474945989706 ], [ 79.082160148980194, 30.525625273702104 ], [ 79.083052735063532, 30.526705057160733 ], [ 79.084063299036785, 30.527703895072701 ], [ 79.08518210972143, 30.528612165528237 ], [ 79.086398392266702, 30.529421118763199 ], [ 79.087700431920709, 30.530122961524956 ], [ 79.089075686899179, 30.530710932225386 ], [ 79.090510909263088, 30.531179366153282 ], [ 79.091992272637441, 30.531523750114491 ], [ 79.093505505535916, 30.531740765970401 ], [ 79.09503602900115, 30.531828322652334 ], [ 79.096569097227146, 30.531785576341566 ], [ 79.098089939801497, 30.531612938618903 ], [ 79.099583904188123, 30.531312072504257 ], [ 79.101036597069765, 30.530885876424581 ], [ 79.102434023179782, 30.530338456264904 ], [ 79.103762720278041, 30.529675085773139 ], [ 79.105009888963565, 30.528902155701928 ], [ 79.106163516067397, 30.528027112180212 ], [ 79.107212490432545, 30.527058384910916 ], [ 79.10814670996244, 30.526005305890028 ], [ 79.108957178905627, 30.52487801943343 ], [ 79.109636094439892, 30.523687384382107 ], [ 79.110176921723735, 30.522444869431119 ], [ 79.110574456696241, 30.521162442594214 ], [ 79.110824876025717, 30.519852455871732 ], [ 79.110925773732347, 30.518527526235442 ] ] ] } }
]
}
