{
"type": "FeatureCollection",
"name": "routes_semla",
"crs": { "type": "name", "properties": { "name": "urn:ogc:def:crs:OGC:1.3:CRS84" } },
"features": [
{ "type": "Feature", "properties": { "village": "Semla", "site": "Rudraprayag" }, "geometry": { "type": "LineString", "coordinates": [ [ 79.0851409, 30.526505 ], [ 79.08538, 30.52677 ], [ 79.0854, 30.52695 ], [ 79.08531, 30.52718 ], [ 79.08535, 30.52782 ], [ 79.08544, 30.52795 ], [ 79.08586, 30.52819 ], [ 79.08624, 30.52856 ], [ 79.08618, 30.52918 ], [ 79.08611, 30.52926 ], [ 79.08595, 30.52925 ], [ 79.08592, 30.52921 ], [ 79.08591, 30.52913 ], [ 79.08609, 30.52884 ], [ 79.08611, 30.52872 ], [ 79.08608, 30.52857 ], [ 79.08595, 30.52842 ], [ 79.0857, 30.52827 ], [ 79.0848, 30.52793 ], [ 79.08476, 30.52785 ], [ 79.08477, 30.52739 ], [ 79.08468, 30.5272 ], [ 79.08442, 30.52699 ], [ 79.08365, 30.52653 ], [ 79.08341, 30.52605 ], [ 79.0833643, 30.5260312 ], [ 79.08324, 30.52598 ], [ 79.08284, 30.526 ], [ 79.08257, 30.52592 ], [ 79.08221, 30.52551 ], [ 79.08161, 30.52497 ], [ 79.08154, 30.52472 ], [ 79.08167, 30.52417 ], [ 79.08162, 30.52383 ], [ 79.0817, 30.52323 ], [ 79.08167, 30.52314 ], [ 79.08153, 30.52312 ], [ 79.0815281, 30.522882 ], [ 79.0815624, 30.5228107 ], [ 79.0815927, 30.5227099 ], [ 79.0815907, 30.5225499 ], [ 79.0815907, 30.5224612 ], [ 79.0815806, 30.5222456 ], [ 79.0816129, 30.5221534 ], [ 79.0816896, 30.5220734 ], [ 79.0817885, 30.5219987 ], [ 79.0819337, 30.521896 ], [ 79.0819775, 30.5218236 ], [ 79.0820085, 30.5217257 ], [ 79.0821034, 30.5214961 ], [ 79.0821095, 30.521397 ], [ 79.0820973, 30.5212944 ], [ 79.082057, 30.5211571 ], [ 79.0820287, 30.5210649 ], [ 79.0819076, 30.5208528 ], [ 79.0818208, 30.5206476 ], [ 79.0817966, 30.5205102 ], [ 79.0817764, 30.5203954 ], [ 79.0817744, 30.5201781 ], [ 79.0818228, 30.5201259 ], [ 79.0818915, 30.5200964 ], [ 79.0819944, 30.5200529 ], [ 79.0821801, 30.519959 ], [ 79.0822326, 30.5198633 ], [ 79.0822851, 30.5197329 ], [ 79.082273, 30.5196112 ], [ 79.0822487, 30.5195417 ], [ 79.0821983, 30.5194721 ], [ 79.0820953, 30.5193712 ], [ 79.0819237, 30.5191226 ], [ 79.0818592, 30.518907 ], [ 79.0817885, 30.5187783 ], [ 79.0816916, 30.5185818 ], [ 79.0815564, 30.5182462 ], [ 79.0815443, 30.5181558 ], [ 79.0815322, 30.518001 ], [ 79.0815079, 30.5178288 ], [ 79.0814494, 30.5177419 ], [ 79.0814151, 30.5176897 ], [ 79.0811365, 30.5173576 ], [ 79.0810093, 30.5171889 ], [ 79.0809548, 30.517128 ], [ 79.0805431, 30.5166498 ], [ 79.0804805, 30.5165577 ], [ 79.0804502, 30.5164568 ], [ 79.080422, 30.5163542 ], [ 79.0804341, 30.5162708 ], [ 79.0804684, 30.5161525 ], [ 79.0807066, 30.5157995 ], [ 79.0806783, 30.5156378 ], [ 79.0806339, 30.51557 ], [ 79.0805108, 30.5154691 ], [ 79.0804098, 30.5153821 ], [ 79.0803331, 30.5153074 ], [ 79.0802847, 30.5152587 ], [ 79.0800081, 30.5150483 ], [ 79.0798911, 30.5149161 ], [ 79.0797821, 30.5148535 ], [ 79.0795923, 30.51477 ], [ 79.079453, 30.5146761 ], [ 79.0793663, 30.5146153 ], [ 79.0792774, 30.5145179 ], [ 79.0792048, 30.5144414 ], [ 79.079124, 30.514384 ], [ 79.0790271, 30.5143249 ], [ 79.0789323, 30.5142675 ], [ 79.078686, 30.5142205 ], [ 79.0785225, 30.5140553 ], [ 79.0784862, 30.5139614 ], [ 79.0784337, 30.5138745 ], [ 79.0784074, 30.5138066 ], [ 79.0784074, 30.5136606 ], [ 79.0784296, 30.5135893 ], [ 79.0784256, 30.5134762 ], [ 79.0783731, 30.513078 ], [ 79.078357, 30.5129389 ], [ 79.0783206, 30.5128484 ], [ 79.0782722, 30.512725 ], [ 79.0782278, 30.5126137 ], [ 79.0782258, 30.5125093 ], [ 79.0782056, 30.5121911 ], [ 79.0782076, 30.5120902 ], [ 79.0781713, 30.5119911 ], [ 79.0781188, 30.5119146 ], [ 79.0780522, 30.5118781 ], [ 79.0779936, 30.5118659 ], [ 79.0779089, 30.5118763 ], [ 79.0778402, 30.5119163 ], [ 79.0777555, 30.5119546 ], [ 79.0775455, 30.5119772 ], [ 79.0773558, 30.5119824 ], [ 79.0769056, 30.5119963 ], [ 79.0766856, 30.5118902 ], [ 79.0765383, 30.5117981 ], [ 79.0763909, 30.5117876 ], [ 79.0762799, 30.5117685 ], [ 79.0762072, 30.5117998 ], [ 79.0761487, 30.5118433 ], [ 79.076076, 30.5119285 ], [ 79.0758499, 30.5120068 ], [ 79.0757672, 30.5120207 ], [ 79.075531, 30.5119842 ], [ 79.075313, 30.5119546 ], [ 79.0751313, 30.5118955 ], [ 79.074982, 30.5118329 ], [ 79.0748205, 30.5117668 ], [ 79.0747579, 30.5118172 ], [ 79.0747236, 30.5118363 ], [ 79.0746348, 30.5118937 ], [ 79.0744773, 30.5119076 ], [ 79.0743058, 30.5118937 ], [ 79.074225, 30.5118624 ], [ 79.0741443, 30.5118137 ], [ 79.0740676, 30.5117598 ], [ 79.0738496, 30.5115894 ], [ 79.0737264, 30.511539 ], [ 79.0736154, 30.5115564 ], [ 79.073569, 30.5115772 ], [ 79.0735226, 30.5116763 ], [ 79.0735044, 30.5119129 ], [ 79.073351, 30.5121302 ], [ 79.0732662, 30.5122259 ], [ 79.0729755, 30.5125754 ], [ 79.0727575, 30.5126711 ], [ 79.0721701, 30.5130154 ], [ 79.0720934, 30.5130902 ], [ 79.0720087, 30.5131423 ], [ 79.0718371, 30.5133145 ], [ 79.0716231, 30.5134814 ], [ 79.0715, 30.5135232 ], [ 79.0713284, 30.5136136 ], [ 79.0712921, 30.5136675 ], [ 79.071173, 30.5138518 ], [ 79.0710943, 30.5139614 ], [ 79.070957, 30.5140397 ], [ 79.070737, 30.514137 ], [ 79.0706138, 30.5141266 ], [ 79.0704241, 30.5141301 ], [ 79.0703252, 30.514144 ], [ 79.0701254, 30.5141875 ], [ 79.0698791, 30.5141823 ], [ 79.0695985, 30.5141996 ], [ 79.069538, 30.5142153 ], [ 79.0694007, 30.5142814 ], [ 79.0693603, 30.5143735 ], [ 79.0693159, 30.5144135 ], [ 79.0691867, 30.5144935 ], [ 79.0691141, 30.5145283 ], [ 79.0689829, 30.5146361 ], [ 79.0689203, 30.5147979 ], [ 79.0688839, 30.5149978 ], [ 79.0688597, 30.515083 ], [ 79.0687891, 30.5151804 ], [ 79.0687225, 30.5152135 ], [ 79.0686276, 30.5152726 ], [ 79.0685004, 30.5153178 ], [ 79.0683087, 30.5154274 ], [ 79.0681553, 30.5153248 ], [ 79.0680886, 30.5152969 ], [ 79.0679756, 30.5152813 ], [ 79.0678787, 30.5153039 ], [ 79.0677576, 30.5153404 ], [ 79.0673418, 30.5153821 ], [ 79.0671763, 30.5154395 ], [ 79.0670673, 30.5155039 ], [ 79.0661441, 30.5156189 ], [ 79.0657727, 30.5157094 ], [ 79.0655224, 30.5157094 ], [ 79.0651651, 30.5157606 ], [ 79.0650954, 30.5155763 ], [ 79.065146, 30.5153867 ], [ 79.0654901, 30.5151181 ], [ 79.0657242, 30.5150207 ], [ 79.0660956, 30.5148816 ], [ 79.0664186, 30.5145756 ], [ 79.0666689, 30.5144364 ], [ 79.0668142, 30.5142139 ], [ 79.0668751, 30.5138896 ], [ 79.0668468, 30.5137678 ], [ 79.0667378, 30.5136322 ], [ 79.0665642, 30.5135661 ], [ 79.0663624, 30.513507 ], [ 79.0660354, 30.5134444 ], [ 79.0656842, 30.5134166 ], [ 79.0655025, 30.5134096 ], [ 79.0652562, 30.5134096 ], [ 79.0650786, 30.5134061 ], [ 79.0648444, 30.5133818 ], [ 79.0642712, 30.5132287 ], [ 79.0640693, 30.5132287 ], [ 79.0638876, 30.5131592 ], [ 79.0637302, 30.5129957 ], [ 79.0636656, 30.5128079 ], [ 79.0635566, 30.5126618 ], [ 79.0634557, 30.5124949 ], [ 79.0633588, 30.5123975 ], [ 79.0632377, 30.5123418 ], [ 79.063056, 30.5122723 ], [ 79.0628294, 30.5122079 ], [ 79.0626363, 30.5119803 ], [ 79.0622486, 30.5118897 ], [ 79.0620588, 30.5118097 ], [ 79.0619095, 30.5117401 ], [ 79.0617924, 30.5116984 ], [ 79.0616551, 30.5117228 ], [ 79.0615542, 30.5117054 ], [ 79.0613035, 30.5115848 ], [ 79.0609777, 30.5113435 ], [ 79.0607508, 30.511128 ], [ 79.0601776, 30.510655 ], [ 79.0598465, 30.510575 ], [ 79.0597052, 30.5105924 ], [ 79.0595962, 30.5106028 ], [ 79.0594105, 30.5106202 ], [ 79.0592692, 30.5105646 ], [ 79.0591562, 30.5105089 ], [ 79.059027, 30.5104289 ], [ 79.058918, 30.5103767 ], [ 79.0587605, 30.5103211 ], [ 79.058486, 30.5102759 ], [ 79.0582882, 30.5102411 ], [ 79.0581429, 30.5101994 ], [ 79.057945, 30.5101715 ], [ 79.0577513, 30.5101646 ], [ 79.0575938, 30.5101368 ], [ 79.0574243, 30.5101194 ], [ 79.0570811, 30.5100533 ], [ 79.0568954, 30.5099768 ], [ 79.0566047, 30.5098237 ], [ 79.0563988, 30.5097333 ], [ 79.0560032, 30.5096046 ], [ 79.0558902, 30.5095559 ], [ 79.0557327, 30.5095385 ], [ 79.0555349, 30.5095524 ], [ 79.0554945, 30.5096289 ], [ 79.0554744, 30.5097715 ], [ 79.0554138, 30.5098794 ], [ 79.0552079, 30.5101089 ], [ 79.0551433, 30.5103559 ], [ 79.0551756, 30.5104776 ], [ 79.0551473, 30.5105785 ], [ 79.0550706, 30.5106828 ], [ 79.0548728, 30.5109506 ], [ 79.0547113, 30.5110411 ], [ 79.05457, 30.5110515 ], [ 79.0544449, 30.5109924 ], [ 79.0543319, 30.5109298 ], [ 79.0542148, 30.5108185 ], [ 79.0541906, 30.510728 ], [ 79.0541986, 30.5105785 ], [ 79.0542067, 30.5104393 ], [ 79.0542107, 30.5099663 ], [ 79.0542551, 30.5097959 ], [ 79.0542955, 30.5095837 ], [ 79.0543803, 30.5094516 ], [ 79.0545983, 30.509142 ], [ 79.054671, 30.5090377 ], [ 79.0548325, 30.5088985 ], [ 79.0549415, 30.508822 ], [ 79.0550706, 30.5086446 ], [ 79.0553169, 30.508342 ], [ 79.0554905, 30.5083142 ], [ 79.055761, 30.5082829 ], [ 79.0559305, 30.5082725 ], [ 79.0561243, 30.5082829 ], [ 79.0562333, 30.508269 ], [ 79.0563625, 30.5082412 ], [ 79.0565644, 30.5082377 ], [ 79.0566653, 30.5082829 ], [ 79.0567783, 30.5083455 ], [ 79.0568712, 30.5083872 ], [ 79.0570246, 30.5083386 ], [ 79.0572063, 30.5082377 ], [ 79.0572749, 30.5081855 ], [ 79.0573435, 30.5080916 ], [ 79.0575454, 30.5075907 ], [ 79.0576423, 30.5074516 ], [ 79.0577432, 30.5073194 ], [ 79.057945, 30.5072012 ], [ 79.0580944, 30.5071699 ], [ 79.0581711, 30.5071838 ], [ 79.0582761, 30.5072012 ], [ 79.0583972, 30.5072151 ], [ 79.0585587, 30.5071907 ], [ 79.058704, 30.5071386 ], [ 79.058809, 30.5071107 ], [ 79.0591077, 30.5069681 ], [ 79.0592934, 30.5069403 ], [ 79.0594388, 30.5069055 ], [ 79.0594913, 30.5068742 ], [ 79.059568, 30.5067212 ], [ 79.0597214, 30.5065438 ], [ 79.0598465, 30.506436 ], [ 79.0599676, 30.5062621 ], [ 79.0601049, 30.5060603 ], [ 79.0602058, 30.5059734 ], [ 79.0604117, 30.5059073 ], [ 79.0606176, 30.5058655 ], [ 79.0607428, 30.5058064 ], [ 79.0608962, 30.5057229 ], [ 79.0610819, 30.5056081 ], [ 79.0611222, 30.5055386 ], [ 79.0612312, 30.5053994 ], [ 79.0613241, 30.5052986 ], [ 79.0613927, 30.5052116 ], [ 79.0615825, 30.5051942 ], [ 79.0617762, 30.5052394 ], [ 79.0619579, 30.5052221 ], [ 79.0621961, 30.5051525 ], [ 79.0623899, 30.5051073 ], [ 79.0624868, 30.5050864 ], [ 79.0628017, 30.5049368 ], [ 79.0629753, 30.5049021 ], [ 79.0633225, 30.5048951 ], [ 79.0635162, 30.5048881 ], [ 79.0636979, 30.5048603 ], [ 79.0638473, 30.5047734 ], [ 79.0639845, 30.504749 ], [ 79.0641541, 30.5047664 ], [ 79.064364, 30.5047873 ], [ 79.0645295, 30.5047768 ], [ 79.0647274, 30.5047316 ], [ 79.0649131, 30.504669 ], [ 79.0650624, 30.5045716 ], [ 79.0651755, 30.5044116 ], [ 79.0652603, 30.5042481 ], [ 79.0653047, 30.5041333 ], [ 79.0654298, 30.5035664 ], [ 79.0655065, 30.5034655 ], [ 79.0655671, 30.5033751 ], [ 79.0656599, 30.5032881 ], [ 79.0657407, 30.5031559 ], [ 79.0657326, 30.5030411 ], [ 79.0657205, 30.5029159 ], [ 79.0656801, 30.5027211 ], [ 79.0656801, 30.502575 ], [ 79.0657366, 30.5025229 ], [ 79.0660677, 30.5021785 ], [ 79.0661525, 30.5021855 ], [ 79.0663341, 30.5022029 ], [ 79.0665319, 30.502335 ], [ 79.0666167, 30.5024046 ], [ 79.0668145, 30.5023768 ], [ 79.0670043, 30.5023524 ], [ 79.0671294, 30.5023489 ], [ 79.0672667, 30.5023594 ], [ 79.0674443, 30.5023837 ], [ 79.0675856, 30.5023663 ], [ 79.0677633, 30.5022098 ], [ 79.0679368, 30.5020115 ], [ 79.0680777, 30.5019094 ], [ 79.0682652, 30.5017613 ], [ 79.0685586, 30.5010306 ], [ 79.0686716, 30.5008776 ], [ 79.0688654, 30.5007489 ], [ 79.0690309, 30.5006654 ], [ 79.0692206, 30.5005784 ], [ 79.0694225, 30.5004428 ], [ 79.0695073, 30.5005123 ], [ 79.0697576, 30.500655 ], [ 79.0698989, 30.5006967 ], [ 79.0700644, 30.5005958 ], [ 79.0703026, 30.5004323 ], [ 79.07046, 30.5002758 ], [ 79.0706215, 30.5002341 ], [ 79.070779, 30.5002375 ], [ 79.0709768, 30.5002619 ], [ 79.0711584, 30.500241 ], [ 79.0712513, 30.500161 ], [ 79.0716025, 30.5000601 ], [ 79.0717075, 30.4999836 ], [ 79.0717196, 30.4998688 ], [ 79.0717156, 30.4997123 ], [ 79.071869, 30.4995766 ], [ 79.0719982, 30.4994966 ], [ 79.072087, 30.4994097 ], [ 79.0722565, 30.4994271 ], [ 79.0724261, 30.4994723 ], [ 79.072523, 30.4993992 ], [ 79.0726481, 30.499194 ], [ 79.0727612, 30.499107 ], [ 79.0730397, 30.4990305 ], [ 79.073173, 30.4989331 ], [ 79.073286, 30.4988392 ], [ 79.0734434, 30.4986896 ], [ 79.073613, 30.4985539 ], [ 79.0737301, 30.4984566 ], [ 79.0738148, 30.4982652 ], [ 79.0739481, 30.4980252 ], [ 79.0741741, 30.4978061 ], [ 79.0744769, 30.4972947 ], [ 79.07459, 30.4971034 ], [ 79.074699, 30.4970164 ], [ 79.0753138, 30.4969205 ], [ 79.0755137, 30.4969254 ], [ 79.0758248, 30.4969352 ], [ 79.0762325, 30.4972251 ], [ 79.0764809, 30.4974022 ], [ 79.0766807, 30.4975227 ], [ 79.0768463, 30.4975719 ], [ 79.0770404, 30.4975055 ], [ 79.0771632, 30.497444 ], [ 79.0773059, 30.4973972 ], [ 79.0773944, 30.4973653 ], [ 79.0775, 30.4973628 ], [ 79.0777427, 30.497412 ], [ 79.0779311, 30.4974907 ], [ 79.0780567, 30.4975055 ], [ 79.0782536, 30.4975497 ], [ 79.0784335, 30.4976555 ], [ 79.0785277, 30.4977883 ], [ 79.0787561, 30.4980146 ], [ 79.078856, 30.4981302 ], [ 79.0789473, 30.4982089 ], [ 79.0790558, 30.498327 ], [ 79.0791586, 30.4983983 ], [ 79.0792556, 30.4984082 ], [ 79.079367, 30.4983762 ], [ 79.0794212, 30.498327 ], [ 79.0794326, 30.4982729 ], [ 79.079444, 30.4982163 ], [ 79.0794098, 30.4981204 ], [ 79.0793184, 30.4980171 ], [ 79.0792242, 30.4978892 ], [ 79.0792214, 30.4977514 ], [ 79.0792442, 30.4976457 ], [ 79.0792728, 30.4975301 ], [ 79.079267, 30.4974563 ], [ 79.0792185, 30.4974145 ], [ 79.07911, 30.4973628 ], [ 79.0789473, 30.4972915 ], [ 79.0787418, 30.4971808 ], [ 79.0784849, 30.497043 ], [ 79.0783222, 30.4969545 ], [ 79.0780253, 30.4967946 ], [ 79.077717, 30.4965289 ], [ 79.07752, 30.4964478 ], [ 79.0773259, 30.4963518 ], [ 79.0772203, 30.496251 ], [ 79.0771632, 30.4959952 ], [ 79.0771203, 30.4958599 ], [ 79.0770547, 30.4957615 ], [ 79.0769862, 30.4956853 ], [ 79.0768748, 30.4954221 ], [ 79.0768977, 30.4952769 ], [ 79.0770005, 30.4951416 ], [ 79.0771289, 30.4950457 ], [ 79.0772688, 30.4948907 ], [ 79.0774344, 30.494785 ], [ 79.0775485, 30.4945734 ], [ 79.0775543, 30.4944775 ], [ 79.0775371, 30.4942709 ], [ 79.0775086, 30.4941971 ], [ 79.0774372, 30.4939978 ], [ 79.0774686, 30.4938478 ], [ 79.0775171, 30.4936609 ], [ 79.0775229, 30.4935059 ], [ 79.0774772, 30.4933583 ], [ 79.0773773, 30.4932894 ], [ 79.0772374, 30.4932107 ], [ 79.0771175, 30.4931074 ], [ 79.0770661, 30.4930336 ], [ 79.0767607, 30.4927581 ], [ 79.0764952, 30.4925711 ], [ 79.0762554, 30.4924186 ], [ 79.0761355, 30.4922956 ], [ 79.0760813, 30.4922046 ], [ 79.0757901, 30.4918086 ], [ 79.075693, 30.4916389 ], [ 79.0755674, 30.4914937 ], [ 79.0754418, 30.4913486 ], [ 79.0750279, 30.4911026 ], [ 79.0750222, 30.4910485 ], [ 79.0748709, 30.4908074 ], [ 79.0747767, 30.4906377 ], [ 79.0746625, 30.4905147 ], [ 79.0745055, 30.49034 ], [ 79.0743856, 30.490222 ], [ 79.0741544, 30.4896119 ], [ 79.0741487, 30.4893339 ], [ 79.0741287, 30.4891322 ], [ 79.0740744, 30.48896 ], [ 79.0740716, 30.4888469 ], [ 79.0741315, 30.4887091 ], [ 79.0741287, 30.4884164 ], [ 79.0740916, 30.4883352 ], [ 79.0740202, 30.4882122 ], [ 79.0739089, 30.4880966 ], [ 79.0737347, 30.4878801 ], [ 79.0734949, 30.4876735 ], [ 79.0733179, 30.4875456 ], [ 79.0731609, 30.4874422 ], [ 79.0729782, 30.4873168 ], [ 79.0728355, 30.4872135 ], [ 79.0726557, 30.4870339 ], [ 79.0725529, 30.4869207 ], [ 79.0724895, 30.4868536 ], [ 79.072453, 30.486815 ], [ 79.0724045, 30.4867436 ], [ 79.0722303, 30.4864312 ], [ 79.0721161, 30.4863525 ], [ 79.0718992, 30.4862492 ], [ 79.0717536, 30.486195 ], [ 79.0716052, 30.4861729 ], [ 79.0713711, 30.4861606 ], [ 79.0711541, 30.4861508 ], [ 79.0709657, 30.4861704 ], [ 79.0707345, 30.4861114 ], [ 79.0706146, 30.4860327 ], [ 79.0705375, 30.4858679 ], [ 79.0704176, 30.4858088 ], [ 79.0703263, 30.4857522 ], [ 79.070272, 30.4856784 ], [ 79.0702349, 30.4855751 ], [ 79.0702007, 30.485489 ], [ 79.0701407, 30.485366 ], [ 79.0700123, 30.4852479 ], [ 79.0698867, 30.4850806 ], [ 79.069821, 30.4847928 ], [ 79.0696897, 30.4846378 ], [ 79.069527, 30.4844878 ], [ 79.0693785, 30.4843599 ], [ 79.0692529, 30.4843033 ], [ 79.0691416, 30.4842787 ], [ 79.0689931, 30.4842984 ], [ 79.068819, 30.4843279 ], [ 79.0687562, 30.4843402 ], [ 79.068525, 30.4842836 ], [ 79.0684051, 30.4842393 ], [ 79.0682424, 30.4842565 ], [ 79.0679341, 30.4842295 ], [ 79.06772, 30.484136 ], [ 79.0675687, 30.4840499 ], [ 79.0673774, 30.4839712 ], [ 79.0672718, 30.4839244 ], [ 79.0671319, 30.4838506 ], [ 79.0670691, 30.4837842 ], [ 79.066915, 30.483612 ], [ 79.0669007, 30.4834964 ], [ 79.066855, 30.4833389 ], [ 79.0668493, 30.4832159 ], [ 79.066718, 30.4830093 ], [ 79.0666352, 30.4829109 ], [ 79.0665952, 30.4828961 ], [ 79.0664183, 30.4828641 ], [ 79.066227, 30.4828469 ], [ 79.0660357, 30.4827854 ], [ 79.0659587, 30.4826501 ], [ 79.0659073, 30.4825468 ], [ 79.0658787, 30.4824189 ], [ 79.0657446, 30.4821212 ], [ 79.0656732, 30.4820203 ], [ 79.0655048, 30.4818555 ], [ 79.0653877, 30.4817448 ], [ 79.0653649, 30.4816513 ], [ 79.0653392, 30.4815381 ], [ 79.0653449, 30.4813831 ], [ 79.0653763, 30.4811962 ], [ 79.0653906, 30.4810978 ], [ 79.0654791, 30.4809575 ], [ 79.0655875, 30.4808444 ], [ 79.065696, 30.4807435 ], [ 79.0658216, 30.4805418 ], [ 79.0659843, 30.4802736 ], [ 79.0660157, 30.4801236 ], [ 79.0660443, 30.479912 ], [ 79.0659815, 30.4797299 ], [ 79.0659587, 30.4796094 ], [ 79.0659529, 30.4795036 ], [ 79.0659872, 30.4792502 ], [ 79.0659672, 30.4791543 ], [ 79.0658445, 30.478987 ], [ 79.0656932, 30.4788197 ], [ 79.0655504, 30.4786647 ], [ 79.0654448, 30.4785392 ], [ 79.0652593, 30.4784039 ], [ 79.0651765, 30.4783941 ], [ 79.0649995, 30.478426 ], [ 79.064851, 30.4784629 ], [ 79.0647654, 30.478426 ], [ 79.0647336, 30.4784129 ], [ 79.0646466, 30.478377 ], [ 79.0646513, 30.4783543 ], [ 79.06472, 30.4782786 ], [ 79.064794, 30.4782022 ], [ 79.0650663, 30.4779531 ], [ 79.0651828, 30.477698 ], [ 79.0652742, 30.4775996 ], [ 79.0653969, 30.4774323 ], [ 79.0654426, 30.4773437 ], [ 79.0654198, 30.477201 ], [ 79.0653627, 30.477142 ], [ 79.0652399, 30.4770854 ], [ 79.0651172, 30.4769968 ], [ 79.0650087, 30.4768763 ], [ 79.0649545, 30.4767188 ], [ 79.0649516, 30.4765884 ], [ 79.0649345, 30.476399 ], [ 79.0648431, 30.4762637 ], [ 79.0647404, 30.4761997 ], [ 79.0647432, 30.475998 ], [ 79.0647346, 30.47587 ], [ 79.0648289, 30.475592 ], [ 79.0647489, 30.4754395 ], [ 79.0646576, 30.475314 ], [ 79.0643635, 30.474854 ], [ 79.0643379, 30.4747359 ], [ 79.0643493, 30.4746055 ], [ 79.0645462, 30.4741651 ], [ 79.0646404, 30.4740174 ], [ 79.0647689, 30.4739092 ], [ 79.0649088, 30.4738009 ], [ 79.0649402, 30.4736484 ], [ 79.0648146, 30.4734688 ], [ 79.0647803, 30.4733605 ], [ 79.0647175, 30.47324 ], [ 79.0647232, 30.4730973 ], [ 79.064689, 30.4728636 ], [ 79.0646633, 30.4726052 ], [ 79.0646205, 30.4725093 ], [ 79.0644235, 30.4723789 ], [ 79.0642408, 30.472214 ], [ 79.0641038, 30.471936 ], [ 79.0640638, 30.4718327 ], [ 79.0638811, 30.4715719 ], [ 79.0637098, 30.4714587 ], [ 79.063627, 30.4713996 ], [ 79.0635443, 30.4712717 ], [ 79.0634757, 30.4711364 ], [ 79.0634044, 30.4710084 ], [ 79.0633416, 30.4709223 ], [ 79.0631931, 30.4708928 ], [ 79.0631218, 30.4708977 ], [ 79.0630504, 30.4709174 ], [ 79.0629676, 30.470942 ], [ 79.0627849, 30.4710552 ], [ 79.0622796, 30.471348 ], [ 79.0620199, 30.4714046 ], [ 79.0616716, 30.4714661 ], [ 79.0614575, 30.4715571 ], [ 79.0614118, 30.4716063 ], [ 79.0613262, 30.4716727 ], [ 79.0611692, 30.4716826 ], [ 79.0609551, 30.4716457 ], [ 79.060721, 30.4716014 ], [ 79.0604156, 30.4715891 ], [ 79.0601672, 30.4714685 ], [ 79.0596448, 30.4713357 ], [ 79.0595677, 30.4713111 ], [ 79.0594221, 30.4712053 ], [ 79.0593308, 30.4710823 ], [ 79.0592509, 30.4710158 ], [ 79.059111, 30.4709642 ], [ 79.0590339, 30.470974 ], [ 79.058797, 30.4709986 ], [ 79.0586257, 30.4709715 ], [ 79.0584887, 30.4709494 ], [ 79.0582831, 30.4708977 ], [ 79.0582089, 30.4708928 ], [ 79.0581575, 30.4709223 ], [ 79.0580519, 30.4709543 ], [ 79.0579206, 30.4709789 ], [ 79.0577436, 30.4709642 ], [ 79.0574638, 30.4710306 ], [ 79.0572926, 30.4709789 ], [ 79.0571384, 30.4709026 ], [ 79.0570214, 30.4708485 ], [ 79.0569414, 30.4708411 ], [ 79.0567245, 30.4708879 ], [ 79.0562991, 30.4709838 ], [ 79.0562478, 30.4709814 ], [ 79.0560736, 30.4709568 ], [ 79.0559138, 30.4709396 ], [ 79.0557197, 30.4708953 ], [ 79.055457, 30.4708239 ], [ 79.0552115, 30.4707526 ], [ 79.0550402, 30.4707058 ], [ 79.0546549, 30.4705705 ], [ 79.0545064, 30.4705311 ], [ 79.0540554, 30.4704401 ], [ 79.0538784, 30.470381 ], [ 79.0536614, 30.4703441 ], [ 79.0535501, 30.4703515 ], [ 79.0531533, 30.4703515 ], [ 79.0528679, 30.4703269 ], [ 79.0527993, 30.4703589 ], [ 79.0526252, 30.4704229 ], [ 79.0524339, 30.4705607 ], [ 79.0522855, 30.4707157 ], [ 79.0521827, 30.4708534 ], [ 79.0521085, 30.4710527 ], [ 79.0519801, 30.4712988 ], [ 79.0518916, 30.4713923 ], [ 79.0517631, 30.4714858 ], [ 79.0516689, 30.4716186 ], [ 79.051589, 30.4719951 ], [ 79.0516147, 30.4721205 ], [ 79.0515804, 30.4722042 ], [ 79.0514776, 30.4723026 ], [ 79.0511779, 30.4724256 ], [ 79.0509495, 30.4724945 ], [ 79.0507526, 30.4725609 ], [ 79.0506355, 30.4725978 ], [ 79.0505841, 30.4726347 ], [ 79.0505556, 30.472684 ], [ 79.0504443, 30.4729447 ], [ 79.050233, 30.4730112 ], [ 79.0499675, 30.4730013 ], [ 79.0496107, 30.4730333 ], [ 79.0493138, 30.4730505 ], [ 79.0488257, 30.4729817 ], [ 79.0487286, 30.4729571 ], [ 79.0484317, 30.4729005 ], [ 79.0482462, 30.4729226 ], [ 79.0479179, 30.4731244 ], [ 79.0478066, 30.4731391 ], [ 79.047661, 30.4731859 ], [ 79.0475496, 30.4732597 ], [ 79.0474164, 30.4733456 ], [ 79.0475012, 30.4735996 ], [ 79.0476062, 30.4736727 ], [ 79.0477555, 30.4737075 ], [ 79.0478766, 30.4737597 ], [ 79.0479453, 30.4738432 ], [ 79.0479049, 30.4739197 ], [ 79.0478443, 30.4739337 ], [ 79.0476586, 30.4739267 ], [ 79.0474326, 30.4739093 ], [ 79.0472186, 30.473871 ], [ 79.0471177, 30.473965 ], [ 79.0469602, 30.474038 ], [ 79.0466695, 30.4740172 ], [ 79.0464475, 30.4739893 ], [ 79.046282, 30.4740937 ], [ 79.0460801, 30.4741842 ], [ 79.0457289, 30.4742259 ], [ 79.0454746, 30.4742712 ], [ 79.0452445, 30.4743303 ], [ 79.0451879, 30.4744208 ], [ 79.0452445, 30.4746295 ], [ 79.0451839, 30.4747444 ], [ 79.0450547, 30.4747548 ], [ 79.0448892, 30.4746469 ], [ 79.044764, 30.4745391 ], [ 79.0446752, 30.4743999 ], [ 79.0445541, 30.4742224 ], [ 79.0444734, 30.4741424 ], [ 79.0442352, 30.4741041 ], [ 79.0439808, 30.4740485 ], [ 79.0436215, 30.473965 ], [ 79.0433268, 30.4738815 ], [ 79.0431573, 30.4738397 ], [ 79.0429998, 30.4738049 ], [ 79.042911, 30.4738084 ], [ 79.0428141, 30.4739476 ], [ 79.042798, 30.4740624 ], [ 79.0427818, 30.4741946 ], [ 79.0426971, 30.4742712 ], [ 79.0425558, 30.4742538 ], [ 79.0424064, 30.4741633 ], [ 79.0421884, 30.4740032 ], [ 79.0420794, 30.473958 ], [ 79.0419542, 30.4739476 ], [ 79.0413164, 30.4740694 ], [ 79.0411549, 30.4740485 ], [ 79.0410015, 30.4739337 ], [ 79.0407996, 30.4738815 ], [ 79.0405937, 30.4738502 ], [ 79.0404726, 30.4738571 ], [ 79.0403313, 30.473871 ], [ 79.0402587, 30.4739163 ], [ 79.0401416, 30.4740137 ], [ 79.0400245, 30.4741389 ], [ 79.0397258, 30.4741563 ], [ 79.0395279, 30.4741946 ], [ 79.0393705, 30.4741598 ], [ 79.0392292, 30.474132 ], [ 79.0390354, 30.4741598 ], [ 79.0388457, 30.4742503 ], [ 79.0387165, 30.4743964 ], [ 79.0384541, 30.4744243 ], [ 79.0382684, 30.4744173 ], [ 79.038119, 30.4744938 ], [ 79.0380302, 30.474553 ], [ 79.0378324, 30.4745878 ], [ 79.0375982, 30.4746087 ], [ 79.0372793, 30.4746887 ], [ 79.0371461, 30.4747896 ], [ 79.0370815, 30.4748905 ], [ 79.0369805, 30.4750749 ], [ 79.0369283, 30.4752929 ], [ 79.0368056, 30.4754184 ], [ 79.0369854, 30.4755463 ], [ 79.0370996, 30.4756472 ], [ 79.037131, 30.4757579 ], [ 79.0371053, 30.4758169 ], [ 79.0370796, 30.4758612 ], [ 79.0369768, 30.4761466 ], [ 79.0368284, 30.4761761 ], [ 79.0365658, 30.4761122 ], [ 79.0364116, 30.4760384 ], [ 79.0361176, 30.4758612 ], [ 79.0360462, 30.4757677 ], [ 79.0359463, 30.4756693 ], [ 79.0358236, 30.4755881 ], [ 79.0357436, 30.4755611 ], [ 79.0356687, 30.4755029 ] ] } },
{ "type": "Feature", "properties": { "village": "Semla", "site": "Ukhimath" }, "geometry": { "type": "LineString", "coordinates": [ [ 79.0851409, 30.526505 ], [ 79.08501, 30.52636 ], [ 79.08459, 30.5262 ], [ 79.0845, 30.52611 ], [ 79.0844541, 30.5256888 ], [ 79.08444, 30.52556 ], [ 79.08402, 30.52508 ], [ 79.08383, 30.52476 ], [ 79.08371, 30.52432 ], [ 79.0835, 30.52409 ], [ 79.08319, 30.52387 ], [ 79.08316, 30.5233 ], [ 79.08304, 30.52301 ], [ 79.08321, 30.52277 ], [ 79.08344, 30.52257 ], [ 79.08363, 30.52213 ], [ 79.08358, 30.52175 ], [ 79.08362, 30.52156 ], [ 79.08399, 30.52106 ], [ 79.0841, 30.52072 ], [ 79.08436, 30.52045 ], [ 79.08439, 30.52024 ], [ 79.08416, 30.51945 ], [ 79.08415, 30.51894 ], [ 79.08394, 30.51874 ], [ 79.08381, 30.51851 ], [ 79.08329, 30.51815 ], [ 79.0831, 30.51809 ], [ 79.08302, 30.5179 ], [ 79.08275, 30.5177 ], [ 79.08267, 30.51756 ], [ 79.08271, 30.51735 ], [ 79.08302, 30.51694 ], [ 79.08307, 30.51664 ], [ 79.08288, 30.51641 ], [ 79.08256, 30.51622 ], [ 79.08249, 30.51612 ], [ 79.08196, 30.51469 ], [ 79.08173, 30.51426 ], [ 79.08173, 30.51352 ], [ 79.08154, 30.51315 ], [ 79.08149, 30.51243 ], [ 79.08123, 30.51193 ], [ 79.08116, 30.51153 ], [ 79.08123, 30.51137 ], [ 79.08177, 30.51094 ], [ 79.08212, 30.51081 ], [ 79.08217, 30.51073 ], [ 79.08214, 30.5104 ], [ 79.08204, 30.51027 ], [ 79.08163, 30.51024 ], [ 79.08077, 30.50982 ], [ 79.08073, 30.50967 ], [ 79.08087, 30.50964 ], [ 79.08107, 30.50982 ], [ 79.08153, 30.51002 ], [ 79.08183, 30.51004 ], [ 79.0822, 30.50998 ], [ 79.08245, 30.51007 ], [ 79.08273, 30.51056 ], [ 79.08305, 30.51068 ], [ 79.08313, 30.51075 ], [ 79.08317, 30.51104 ], [ 79.08268, 30.51132 ], [ 79.08259, 30.51149 ], [ 79.08291, 30.51186 ], [ 79.08318, 30.51231 ], [ 79.08365, 30.51276 ], [ 79.08384, 30.51318 ], [ 79.08415, 30.51351 ], [ 79.08422, 30.51365 ], [ 79.08424, 30.51402 ], [ 79.08412, 30.51445 ], [ 79.08406, 30.51501 ], [ 79.08402, 30.51516 ], [ 79.08381, 30.5154 ], [ 79.08381, 30.51559 ], [ 79.08388, 30.51619 ], [ 79.08402, 30.51653 ], [ 79.08415, 30.51673 ], [ 79.08442, 30.51699 ], [ 79.08457, 30.51703 ], [ 79.08463, 30.51699 ], [ 79.08465, 30.51689 ], [ 79.08444, 30.51653 ], [ 79.08437, 30.51589 ], [ 79.08442, 30.51578 ], [ 79.08462, 30.51564 ], [ 79.08467, 30.51552 ], [ 79.08478, 30.51473 ], [ 79.08498, 30.51437 ], [ 79.08503, 30.51397 ], [ 79.08523, 30.51359 ], [ 79.08514, 30.51308 ], [ 79.08546, 30.51264 ], [ 79.08553, 30.51226 ], [ 79.08544, 30.51197 ], [ 79.08543, 30.51142 ], [ 79.08533, 30.51082 ], [ 79.085, 30.51053 ], [ 79.08478, 30.51021 ], [ 79.08456, 30.51006 ], [ 79.08431, 30.50998 ], [ 79.08386, 30.51005 ], [ 79.08376, 30.51 ], [ 79.08372, 30.50985 ], [ 79.08376, 30.50975 ], [ 79.0839533, 30.5094002 ], [ 79.0840169, 30.5093367 ], [ 79.0841815, 30.5091667 ], [ 79.08428, 30.50844 ], [ 79.08436, 30.50825 ], [ 79.08531, 30.50704 ], [ 79.08588, 30.5068 ], [ 79.0862, 30.50647 ], [ 79.08728, 30.50584 ], [ 79.08763, 30.50548 ], [ 79.08772, 30.5053 ], [ 79.08777, 30.50493 ], [ 79.08739, 30.50413 ], [ 79.08735, 30.50395 ], [ 79.0874624, 30.5038782 ], [ 79.0878596, 30.5036242 ], [ 79.08796, 30.50356 ], [ 79.0881173, 30.5028756 ], [ 79.0884749, 30.5033144 ], [ 79.0888891, 30.503975 ], [ 79.0890185, 30.5043027 ], [ 79.0890718, 30.5046565 ], [ 79.0889187, 30.5055646 ], [ 79.0887478, 30.5058528 ], [ 79.088779, 30.5064825 ], [ 79.0885747, 30.5067504 ], [ 79.0877905, 30.5070523 ], [ 79.0874099, 30.5072863 ], [ 79.0871567, 30.5075301 ], [ 79.0866495, 30.5080932 ], [ 79.0865359, 30.5083528 ], [ 79.0859755, 30.5092016 ], [ 79.0859659, 30.5094322 ], [ 79.0861978, 30.5098011 ], [ 79.0865363, 30.5100045 ], [ 79.0869265, 30.5101071 ], [ 79.0874786, 30.5103552 ], [ 79.0878198, 30.5106943 ], [ 79.0879525, 30.510921 ], [ 79.0878846, 30.511053 ], [ 79.0877531, 30.5111095 ], [ 79.0876244, 30.5113031 ], [ 79.0877145, 30.5116814 ], [ 79.0876726, 30.5120148 ], [ 79.087741, 30.5121287 ], [ 79.0878893, 30.5122249 ], [ 79.0879647, 30.5124157 ], [ 79.0877934, 30.5140055 ], [ 79.0879974, 30.5145043 ], [ 79.0880638, 30.5149034 ], [ 79.0880206, 30.5151756 ], [ 79.0881148, 30.5153632 ], [ 79.0881122, 30.5155546 ], [ 79.0880199, 30.5158253 ], [ 79.0875754, 30.5164653 ], [ 79.0875554, 30.5165695 ], [ 79.0877677, 30.5167708 ], [ 79.0877614, 30.516962 ], [ 79.0879991, 30.5173297 ], [ 79.0880824, 30.517562 ], [ 79.0881158, 30.5182376 ], [ 79.0883621, 30.5187711 ], [ 79.0883837, 30.5190611 ], [ 79.0884543, 30.5192437 ], [ 79.0885863, 30.5194457 ], [ 79.0890143, 30.5196791 ], [ 79.0898938, 30.5199076 ], [ 79.0900261, 30.5200623 ], [ 79.0901499, 30.5203118 ], [ 79.0903177, 30.5206079 ], [ 79.0903804, 30.5206728 ], [ 79.0905827, 30.5209557 ], [ 79.0905834, 30.5210016 ], [ 79.0904542, 30.5210494 ], [ 79.0902404, 30.5214637 ], [ 79.090248, 30.5217569 ], [ 79.0904217, 30.5219769 ], [ 79.0903855, 30.5225774 ], [ 79.090717, 30.5228928 ], [ 79.0914485, 30.5232334 ], [ 79.0917147, 30.5237311 ], [ 79.0914225, 30.52402 ], [ 79.0913545, 30.5243199 ], [ 79.0913832, 30.5246339 ], [ 79.0914022, 30.5247196 ], [ 79.0914846, 30.5248971 ], [ 79.0916973, 30.5250954 ], [ 79.0920741, 30.5252991 ], [ 79.0924986, 30.5255169 ], [ 79.0926978, 30.5257163 ], [ 79.0928379, 30.5260223 ], [ 79.0928661, 30.5263965 ], [ 79.0928009, 30.5271605 ], [ 79.0929137, 30.5274946 ], [ 79.0932515, 30.5280022 ], [ 79.0933819, 30.5283318 ], [ 79.0933737, 30.5292136 ], [ 79.0937234, 30.5295102 ], [ 79.0940597, 30.5295685 ], [ 79.0945652, 30.5298054 ], [ 79.0946576, 30.529817 ], [ 79.0947267, 30.5298255 ], [ 79.0947843, 30.5298 ], [ 79.0947982, 30.5297807 ], [ 79.094827, 30.5297405 ], [ 79.0948214, 30.5296937 ], [ 79.0947744, 30.5296385 ], [ 79.0946494, 30.529579 ], [ 79.0944685, 30.5295549 ], [ 79.0942872, 30.5294589 ], [ 79.0937782, 30.5292531 ], [ 79.0937419, 30.5289847 ], [ 79.0938804, 30.5283558 ], [ 79.0938258, 30.5280941 ], [ 79.0936779, 30.5279076 ], [ 79.0934173, 30.527136 ], [ 79.0934887, 30.5264488 ], [ 79.0935759, 30.5261328 ], [ 79.093657, 30.5260556 ], [ 79.0938975, 30.52602 ], [ 79.0939187, 30.5259604 ], [ 79.0939172, 30.5258129 ], [ 79.0935633, 30.5245984 ], [ 79.0935355, 30.52387 ], [ 79.0935541, 30.5237671 ], [ 79.0939401, 30.5232034 ], [ 79.0939047, 30.5231025 ], [ 79.0937981, 30.5230188 ], [ 79.0936481, 30.522985 ], [ 79.0931966, 30.5230544 ], [ 79.0930945, 30.5230175 ], [ 79.0923967, 30.5220129 ], [ 79.0921391, 30.5217615 ], [ 79.0921481, 30.5216278 ], [ 79.0922099, 30.5214887 ], [ 79.0923798, 30.5213694 ], [ 79.0926453, 30.5206543 ], [ 79.0929374, 30.520512 ], [ 79.0934851, 30.5204327 ], [ 79.0938103, 30.5204849 ], [ 79.0938856, 30.5204589 ], [ 79.094093, 30.5201646 ], [ 79.0950184, 30.5196592 ], [ 79.0950204, 30.5195943 ], [ 79.0949468, 30.5194454 ], [ 79.0949047, 30.5193933 ], [ 79.0948363, 30.5193615 ], [ 79.0942231, 30.5193457 ], [ 79.0938664, 30.5192371 ], [ 79.0937962, 30.5189933 ], [ 79.0940035, 30.5186946 ], [ 79.0939623, 30.5186626 ], [ 79.0938925, 30.5186084 ], [ 79.0938433, 30.5185701 ], [ 79.0935925, 30.5184999 ], [ 79.0933633, 30.5184024 ], [ 79.0928378, 30.5180965 ], [ 79.0916533, 30.5175752 ], [ 79.0908183, 30.5175257 ], [ 79.0906745, 30.517391 ], [ 79.0905506, 30.5172762 ], [ 79.0904928, 30.5170438 ], [ 79.0905528, 30.5168285 ], [ 79.0906711, 30.5166346 ], [ 79.090956, 30.5164378 ], [ 79.0910409, 30.5161225 ], [ 79.0909585, 30.5156727 ], [ 79.090756, 30.5151703 ], [ 79.0907386, 30.5148891 ], [ 79.0910023, 30.5143923 ], [ 79.0911121, 30.5139907 ], [ 79.091297, 30.513831 ], [ 79.0915283, 30.513453 ], [ 79.0917032, 30.5125474 ], [ 79.0915376, 30.5120775 ], [ 79.0918778, 30.5113376 ], [ 79.0921026, 30.5110264 ], [ 79.0924166, 30.510814 ], [ 79.0931108, 30.5106356 ], [ 79.0935177, 30.5103783 ], [ 79.0936529, 30.510335 ], [ 79.0938632, 30.5103754 ], [ 79.0940133, 30.5102774 ], [ 79.0940843, 30.5099256 ], [ 79.0940096, 30.5097762 ], [ 79.0938908, 30.5096327 ], [ 79.0935527, 30.5093852 ], [ 79.0935079, 30.5092962 ], [ 79.0936747, 30.5089578 ], [ 79.0937491, 30.5086148 ], [ 79.0935756, 30.5084887 ], [ 79.09327, 30.5083957 ], [ 79.0931171, 30.5082743 ], [ 79.0931937, 30.5082384 ], [ 79.0933653, 30.5082106 ], [ 79.0934941, 30.5083493 ], [ 79.0936872, 30.5084232 ], [ 79.0940198, 30.5086543 ], [ 79.0939018, 30.5089686 ], [ 79.0943309, 30.5093753 ], [ 79.0945884, 30.5097635 ], [ 79.0946313, 30.5099576 ], [ 79.0947708, 30.5103736 ], [ 79.0947708, 30.5106139 ], [ 79.094803, 30.5107248 ], [ 79.094288, 30.5107988 ], [ 79.0939983, 30.5110576 ], [ 79.093419, 30.5113903 ], [ 79.0929791, 30.5117139 ], [ 79.093022, 30.511908 ], [ 79.0934512, 30.5120651 ], [ 79.0937301, 30.5122222 ], [ 79.0939018, 30.5123609 ], [ 79.0941378, 30.5127491 ], [ 79.0943309, 30.5128692 ], [ 79.0945777, 30.51286 ], [ 79.0948137, 30.5127861 ], [ 79.0949854, 30.5128138 ], [ 79.0951249, 30.5129894 ], [ 79.0952, 30.513239 ], [ 79.0952858, 30.5133961 ], [ 79.0954253, 30.5135347 ], [ 79.0954145, 30.5138952 ], [ 79.0954896, 30.5142095 ], [ 79.0958437, 30.5144498 ], [ 79.0960046, 30.5146069 ], [ 79.0959724, 30.514875 ], [ 79.0960711, 30.5150834 ], [ 79.0962728, 30.5153833 ], [ 79.0964338, 30.5155312 ], [ 79.0967556, 30.515522 ], [ 79.0970131, 30.5156051 ], [ 79.0974745, 30.5158639 ], [ 79.0978393, 30.5156421 ], [ 79.0980967, 30.515753 ], [ 79.0984186, 30.5154573 ], [ 79.0986225, 30.5153094 ], [ 79.098601, 30.5156791 ], [ 79.0985259, 30.5160488 ], [ 79.0985688, 30.5162429 ], [ 79.0985435, 30.5163739 ], [ 79.0984937, 30.5166311 ], [ 79.098837, 30.5172226 ], [ 79.0990409, 30.5175738 ], [ 79.0996389, 30.5175561 ], [ 79.0997223, 30.5176582 ], [ 79.0997304, 30.5177002 ], [ 79.0996535, 30.5178543 ], [ 79.0996953, 30.5181839 ], [ 79.0998455, 30.5183872 ], [ 79.0998563, 30.5184889 ], [ 79.099749, 30.5185998 ], [ 79.0996202, 30.5188493 ], [ 79.0997383, 30.5191636 ], [ 79.0997597, 30.5194963 ], [ 79.0998026, 30.519829 ], [ 79.0997839, 30.5200282 ], [ 79.0996209, 30.5201059 ], [ 79.0997919, 30.5204298 ], [ 79.0997275, 30.5205314 ], [ 79.099631, 30.5207995 ], [ 79.0996632, 30.5209011 ], [ 79.099867, 30.5212338 ], [ 79.099892, 30.5213716 ], [ 79.0999528, 30.5216682 ], [ 79.0998563, 30.5218161 ], [ 79.0998026, 30.5227865 ], [ 79.0998885, 30.5229252 ], [ 79.1002103, 30.5232394 ], [ 79.100264, 30.5234889 ], [ 79.1007575, 30.5242653 ], [ 79.1006717, 30.5245887 ], [ 79.1006824, 30.524829 ], [ 79.1007253, 30.5251802 ], [ 79.100382, 30.5259196 ], [ 79.0998241, 30.5265665 ], [ 79.0995881, 30.5272504 ], [ 79.0998563, 30.5275831 ], [ 79.0997704, 30.5279435 ], [ 79.0990409, 30.5285812 ], [ 79.0985366, 30.5296347 ], [ 79.0998241, 30.5305681 ], [ 79.1007897, 30.5305126 ], [ 79.1010364, 30.5303463 ], [ 79.1011437, 30.5304387 ], [ 79.1012618, 30.5307899 ], [ 79.1014012, 30.5309193 ], [ 79.1011008, 30.5315569 ], [ 79.1008004, 30.5321021 ], [ 79.1011741, 30.5322755 ], [ 79.1015648, 30.5319871 ], [ 79.1022166, 30.5319173 ], [ 79.1024741, 30.5319266 ], [ 79.1029569, 30.5320929 ], [ 79.1031178, 30.5319266 ], [ 79.1032147, 30.531825 ], [ 79.1035795, 30.5307762 ], [ 79.103668, 30.5305497 ], [ 79.1037431, 30.5305128 ], [ 79.1040114, 30.5306121 ], [ 79.1042549, 30.5310972 ], [ 79.1043624, 30.531215 ], [ 79.1044697, 30.531483 ], [ 79.1046199, 30.5315199 ], [ 79.1047808, 30.5314922 ], [ 79.1050812, 30.5312335 ], [ 79.1058644, 30.5313259 ], [ 79.106197, 30.5312981 ], [ 79.1066905, 30.5312889 ], [ 79.1068729, 30.5314737 ], [ 79.1071304, 30.5314922 ], [ 79.1074523, 30.531409 ], [ 79.1076776, 30.5314275 ], [ 79.1076132, 30.5318711 ], [ 79.1079029, 30.5319912 ], [ 79.1080316, 30.5323054 ], [ 79.1080531, 30.5327213 ], [ 79.1085144, 30.5330725 ], [ 79.1084715, 30.5332942 ], [ 79.1078814, 30.5334698 ], [ 79.1075596, 30.5336639 ], [ 79.107624, 30.5339042 ], [ 79.1079244, 30.5339411 ], [ 79.1083213, 30.5338302 ], [ 79.1084179, 30.5339966 ], [ 79.1085252, 30.5341259 ], [ 79.1088578, 30.5341629 ], [ 79.1090723, 30.5341999 ], [ 79.1093204, 30.5344674 ], [ 79.1095015, 30.5348283 ], [ 79.109759, 30.5350685 ], [ 79.1102203, 30.5350408 ], [ 79.1107568, 30.5351517 ], [ 79.1109606, 30.535087 ], [ 79.1113618, 30.5348203 ], [ 79.1118189, 30.535087 ], [ 79.1122481, 30.5349391 ], [ 79.1124519, 30.5349484 ], [ 79.1128167, 30.5351609 ], [ 79.1132351, 30.535355 ], [ 79.1135892, 30.5353365 ], [ 79.1138359, 30.5353735 ], [ 79.1143831, 30.5360388 ], [ 79.1148337, 30.5364177 ], [ 79.1151234, 30.5368982 ], [ 79.1156277, 30.5374157 ], [ 79.1157242, 30.5376837 ], [ 79.115735, 30.5382474 ], [ 79.115448, 30.5386498 ], [ 79.1155633, 30.5394301 ], [ 79.1155204, 30.5401601 ], [ 79.1155418, 30.5403912 ], [ 79.1162929, 30.5406407 ], [ 79.1164109, 30.5408717 ], [ 79.1163572, 30.5411858 ], [ 79.1162285, 30.5414538 ], [ 79.1156384, 30.5418604 ], [ 79.1154882, 30.5420544 ], [ 79.1159281, 30.541962 ], [ 79.1161239, 30.5420318 ], [ 79.1156599, 30.5424887 ], [ 79.1151154, 30.5426601 ], [ 79.1146299, 30.5432372 ], [ 79.1148552, 30.5438655 ], [ 79.1150912, 30.5442536 ], [ 79.1151449, 30.5447433 ], [ 79.1149625, 30.5451314 ], [ 79.1149839, 30.5454548 ], [ 79.115102, 30.5456488 ], [ 79.1154453, 30.5455379 ], [ 79.1158852, 30.5453901 ], [ 79.116207, 30.5453439 ], [ 79.1167435, 30.5454086 ], [ 79.1168293, 30.5456488 ], [ 79.1168722, 30.5458983 ], [ 79.1168186, 30.5464897 ], [ 79.1172155, 30.5469886 ], [ 79.1173014, 30.5472196 ], [ 79.1170117, 30.5475245 ], [ 79.1168829, 30.5479033 ], [ 79.1170868, 30.5481528 ], [ 79.1174301, 30.5483469 ], [ 79.1180202, 30.5483746 ], [ 79.1186639, 30.548236 ], [ 79.119254, 30.5484854 ], [ 79.1197797, 30.5484762 ], [ 79.1203591, 30.5479495 ], [ 79.1205844, 30.5475153 ], [ 79.120799, 30.5474876 ], [ 79.1213032, 30.5478017 ], [ 79.1219148, 30.5480512 ], [ 79.1225156, 30.548199 ], [ 79.1227409, 30.5482267 ], [ 79.1230842, 30.5482083 ], [ 79.1232344, 30.5485316 ], [ 79.1233953, 30.5485778 ], [ 79.1237413, 30.548278 ], [ 79.1239345, 30.5479731 ], [ 79.1242107, 30.5476354 ], [ 79.124436, 30.5474783 ], [ 79.1246506, 30.5475338 ], [ 79.1251441, 30.5477093 ], [ 79.1254445, 30.5480235 ], [ 79.1256699, 30.5483191 ], [ 79.1259059, 30.5484023 ], [ 79.1261634, 30.5484485 ], [ 79.1264423, 30.5486333 ], [ 79.1266569, 30.5487719 ], [ 79.1270217, 30.5491415 ], [ 79.1272577, 30.5492061 ], [ 79.1275152, 30.5494926 ], [ 79.1275689, 30.5496496 ], [ 79.1276184, 30.5497481 ], [ 79.1277083, 30.5499268 ], [ 79.1278371, 30.5501024 ], [ 79.127998, 30.5502687 ], [ 79.1280087, 30.5505643 ], [ 79.1280946, 30.5507861 ], [ 79.1282448, 30.5510356 ], [ 79.1284379, 30.5512019 ], [ 79.128749, 30.5512203 ], [ 79.1288885, 30.5511834 ], [ 79.1288456, 30.5509986 ], [ 79.1287088, 30.5503939 ], [ 79.1286552, 30.5501629 ], [ 79.1288349, 30.5498899 ], [ 79.1287839, 30.5497564 ], [ 79.1289314, 30.5492154 ], [ 79.1290924, 30.5490029 ], [ 79.1291058, 30.5487123 ], [ 79.1291889, 30.5485778 ], [ 79.1294249, 30.548236 ], [ 79.1295644, 30.5483099 ], [ 79.1297146, 30.5483653 ], [ 79.1300794, 30.5482729 ], [ 79.130125, 30.5479454 ], [ 79.1302618, 30.5476354 ], [ 79.1309699, 30.5471549 ], [ 79.1315922, 30.5475984 ], [ 79.1321823, 30.5479033 ], [ 79.1324612, 30.5478664 ], [ 79.1325256, 30.5479957 ], [ 79.1322895, 30.5480881 ], [ 79.1320562, 30.5480101 ], [ 79.1316887, 30.5478571 ], [ 79.1313883, 30.5476446 ], [ 79.1311416, 30.5474506 ], [ 79.1309592, 30.5474044 ], [ 79.1309163, 30.5476169 ], [ 79.1310235, 30.547737 ], [ 79.1310235, 30.5479773 ], [ 79.131045, 30.5481343 ], [ 79.1311523, 30.5481528 ], [ 79.1312515, 30.5479454 ], [ 79.131163, 30.5477186 ], [ 79.1312167, 30.5476262 ], [ 79.1314017, 30.5478437 ], [ 79.1316995, 30.5480142 ], [ 79.1317853, 30.5482083 ], [ 79.1319784, 30.5483561 ], [ 79.1322064, 30.5483981 ], [ 79.1324827, 30.5482545 ], [ 79.1327831, 30.5481066 ], [ 79.1330835, 30.5480235 ], [ 79.1333195, 30.5479403 ], [ 79.1336414, 30.5478941 ], [ 79.1338667, 30.5478664 ], [ 79.1339552, 30.5477606 ], [ 79.1340491, 30.5475892 ], [ 79.13421, 30.5475707 ], [ 79.1343388, 30.5476446 ], [ 79.1343817, 30.5479311 ], [ 79.1345506, 30.5480193 ], [ 79.1345374, 30.5481362 ], [ 79.1340023, 30.5484338 ], [ 79.1339096, 30.5485132 ], [ 79.1336521, 30.5486887 ], [ 79.1336521, 30.5489197 ], [ 79.1337701, 30.5490768 ], [ 79.1337272, 30.5495942 ], [ 79.133223, 30.5497975 ], [ 79.1331157, 30.5500192 ], [ 79.131957, 30.550472 ], [ 79.1318926, 30.5507029 ], [ 79.1320106, 30.5508785 ], [ 79.1322037, 30.5509894 ], [ 79.1322359, 30.5513312 ], [ 79.1318067, 30.5516638 ], [ 79.1317531, 30.5517932 ], [ 79.1318604, 30.5518579 ], [ 79.1321072, 30.5521905 ], [ 79.1319999, 30.5529758 ], [ 79.1320857, 30.5532438 ], [ 79.1315814, 30.5537981 ], [ 79.1309377, 30.55414 ], [ 79.1306588, 30.5540938 ], [ 79.1303905, 30.5542323 ], [ 79.1303476, 30.5544356 ], [ 79.13053, 30.5549438 ], [ 79.1302511, 30.5558399 ], [ 79.1303396, 30.5561037 ], [ 79.1297575, 30.5568562 ], [ 79.1287919, 30.5572258 ], [ 79.1286739, 30.5575861 ], [ 79.1288241, 30.5578633 ], [ 79.1285345, 30.5581866 ], [ 79.128234, 30.5593137 ], [ 79.128513, 30.5596833 ], [ 79.1286847, 30.5601637 ], [ 79.1287061, 30.5604131 ], [ 79.1291353, 30.5606903 ], [ 79.1294249, 30.5606718 ], [ 79.1295752, 30.5607827 ], [ 79.1296181, 30.5610598 ], [ 79.1304442, 30.5613924 ], [ 79.130809, 30.5615864 ], [ 79.1312703, 30.5616326 ], [ 79.1313776, 30.5618728 ], [ 79.131678, 30.5622516 ], [ 79.1323003, 30.5623901 ], [ 79.132708, 30.5626211 ], [ 79.1326651, 30.5627412 ], [ 79.1323968, 30.5632493 ], [ 79.1322788, 30.5634618 ], [ 79.1325685, 30.5636743 ], [ 79.1327723, 30.5638313 ], [ 79.1329655, 30.5642008 ], [ 79.1329011, 30.5643856 ], [ 79.1326543, 30.5646443 ], [ 79.1325363, 30.5646905 ], [ 79.1324612, 30.5645981 ], [ 79.1326141, 30.5644646 ], [ 79.1328045, 30.5642101 ], [ 79.1326221, 30.5639237 ], [ 79.132142, 30.5636054 ], [ 79.1320562, 30.5633006 ], [ 79.1322279, 30.5630327 ], [ 79.1321742, 30.562811 ], [ 79.1317102, 30.5626581 ], [ 79.1313561, 30.5623901 ], [ 79.1309914, 30.5623717 ], [ 79.1305434, 30.5625246 ], [ 79.130294, 30.5627966 ], [ 79.1301438, 30.5634248 ], [ 79.1300901, 30.5635819 ], [ 79.1302403, 30.5636096 ], [ 79.1304549, 30.5630091 ], [ 79.1305837, 30.5628613 ], [ 79.1308412, 30.5628705 ], [ 79.1311523, 30.5628798 ], [ 79.1311952, 30.5629629 ], [ 79.1311201, 30.5630184 ], [ 79.1307553, 30.5630553 ], [ 79.1306051, 30.5630645 ], [ 79.1304898, 30.5636054 ], [ 79.130235, 30.5638267 ], [ 79.1302278, 30.5638688 ], [ 79.1300659, 30.5648117 ], [ 79.1300184, 30.5648763 ], [ 79.1299996, 30.5649051 ], [ 79.1299761, 30.564915 ], [ 79.1299406, 30.5649178 ], [ 79.1297776, 30.5649306 ], [ 79.1295885, 30.5649571 ], [ 79.1294692, 30.5649617 ], [ 79.1293693, 30.564945 ], [ 79.1293123, 30.5649132 ], [ 79.1292459, 30.5648676 ], [ 79.1291406, 30.5647493 ], [ 79.129044, 30.5646886 ], [ 79.1289166, 30.5646471 ], [ 79.1288087, 30.5646038 ], [ 79.1287349, 30.5645495 ], [ 79.128696, 30.5644785 ], [ 79.128627, 30.5643434 ], [ 79.1285626, 30.5642914 ], [ 79.1284989, 30.5642718 ], [ 79.1284312, 30.5642637 ], [ 79.1282669, 30.5642775 ], [ 79.1281784, 30.564266 ], [ 79.1281073, 30.5642406 ], [ 79.1280637, 30.5642094 ], [ 79.127949, 30.5640599 ], [ 79.1278344, 30.5639577 ], [ 79.12777, 30.563863 ], [ 79.1276971, 30.56372 ], [ 79.1276648, 30.5635896 ], [ 79.127642, 30.5635376 ], [ 79.1275964, 30.5634926 ], [ 79.1275428, 30.5634937 ], [ 79.1275146, 30.5635157 ], [ 79.1275012, 30.5635723 ], [ 79.1275119, 30.5636369 ], [ 79.1279586, 30.5642763 ], [ 79.1279812, 30.5643087 ], [ 79.1280221, 30.5643364 ], [ 79.1281173, 30.5643607 ], [ 79.1282354, 30.5643607 ], [ 79.1283198, 30.5643503 ], [ 79.1284191, 30.5643884 ], [ 79.1284506, 30.5644727 ], [ 79.1284526, 30.5646182 ], [ 79.1284808, 30.5646667 ], [ 79.1285445, 30.5647256 ], [ 79.1286974, 30.5647781 ], [ 79.1287939, 30.5648243 ], [ 79.1288583, 30.564889 ], [ 79.1289522, 30.5650443 ], [ 79.129032, 30.5651084 ], [ 79.1292921, 30.5652071 ], [ 79.1293317, 30.5652319 ], [ 79.1293612, 30.5652706 ], [ 79.1293719, 30.565352 ], [ 79.1293525, 30.5654231 ], [ 79.1292828, 30.5655732 ], [ 79.1292559, 30.565695 ], [ 79.1291044, 30.5659687 ], [ 79.1288953, 30.5662829 ], [ 79.1286305, 30.5666227 ], [ 79.1282445, 30.5670156 ], [ 79.1283166, 30.567366 ], [ 79.1282127, 30.567669 ], [ 79.1273537, 30.5681912 ], [ 79.126989, 30.5685053 ], [ 79.1280189, 30.5693182 ], [ 79.1288786, 30.5697113 ], [ 79.1295116, 30.5698958 ], [ 79.1302024, 30.5703493 ], [ 79.1298884, 30.5704036 ], [ 79.1285982, 30.5709476 ], [ 79.128401, 30.5711598 ], [ 79.1280436, 30.5712181 ], [ 79.1278033, 30.5713508 ], [ 79.1270268, 30.57125 ], [ 79.126805, 30.5714781 ], [ 79.1262073, 30.5714887 ], [ 79.1259053, 30.5716267 ], [ 79.1254925, 30.5714728 ], [ 79.1248824, 30.5714887 ], [ 79.1244819, 30.5715471 ], [ 79.1243481, 30.5713999 ], [ 79.1244648, 30.5709857 ], [ 79.1245162, 30.5705092 ], [ 79.1245419, 30.5703705 ], [ 79.124229, 30.570274 ], [ 79.1240422, 30.5702278 ], [ 79.123832, 30.570087 ], [ 79.1236803, 30.5700106 ], [ 79.1233884, 30.56988 ], [ 79.1231992, 30.5696427 ], [ 79.1232943, 30.5693789 ], [ 79.1237171, 30.5692529 ], [ 79.1240911, 30.5689623 ], [ 79.1246911, 30.5685741 ], [ 79.1247457, 30.5685388 ], [ 79.1247375, 30.5683148 ], [ 79.12464, 30.5680662 ], [ 79.124392, 30.5678807 ], [ 79.1241562, 30.5671946 ], [ 79.1238919, 30.5669041 ], [ 79.1239244, 30.566701 ], [ 79.1242253, 30.566603 ], [ 79.1247375, 30.5662005 ], [ 79.1250302, 30.5657839 ], [ 79.1252294, 30.5654618 ], [ 79.12514, 30.5653078 ], [ 79.1249205, 30.5652483 ], [ 79.1245139, 30.5651783 ], [ 79.1243106, 30.5652378 ], [ 79.1239854, 30.5649648 ], [ 79.1236927, 30.5648912 ], [ 79.1235097, 30.5650103 ], [ 79.123339, 30.5653078 ], [ 79.1231723, 30.5653848 ], [ 79.1231723, 30.5654618 ], [ 79.1233105, 30.5654863 ], [ 79.1234325, 30.5653358 ], [ 79.1235341, 30.5651293 ], [ 79.1236764, 30.5650383 ], [ 79.1238391, 30.5650768 ], [ 79.1240627, 30.5653568 ], [ 79.12427, 30.5653813 ], [ 79.1242985, 30.5655003 ], [ 79.1239895, 30.5657839 ], [ 79.1228877, 30.566309 ], [ 79.1227129, 30.5664805 ], [ 79.1227277, 30.5666337 ], [ 79.1227292, 30.5666485 ], [ 79.1230788, 30.5672296 ], [ 79.1231317, 30.5676532 ], [ 79.123026, 30.5681012 ], [ 79.122965, 30.5681887 ], [ 79.1226682, 30.5682657 ], [ 79.1222047, 30.5681782 ], [ 79.1219852, 30.5682797 ], [ 79.1216884, 30.5682517 ], [ 79.1210908, 30.5684478 ], [ 79.121599, 30.5694524 ], [ 79.1217535, 30.5697254 ], [ 79.1218348, 30.570002 ], [ 79.1219811, 30.570191 ], [ 79.1216551, 30.5707365 ], [ 79.1212203, 30.5707956 ], [ 79.1211946, 30.5710697 ], [ 79.1204596, 30.5714777 ], [ 79.1198064, 30.5720539 ], [ 79.1199952, 30.5721809 ], [ 79.1204015, 30.5721449 ], [ 79.1208306, 30.5724035 ], [ 79.1216889, 30.573124 ], [ 79.122912, 30.5732534 ], [ 79.1232982, 30.5736783 ], [ 79.1243068, 30.5738446 ], [ 79.1245857, 30.5735305 ], [ 79.125444, 30.5734566 ], [ 79.1271392, 30.5744357 ], [ 79.1284695, 30.5749161 ], [ 79.1297141, 30.574953 ], [ 79.130508, 30.5753964 ], [ 79.1295853, 30.5772808 ], [ 79.1299072, 30.5778904 ], [ 79.1296851, 30.578016 ], [ 79.1290628, 30.5779421 ], [ 79.1281691, 30.5783892 ], [ 79.1275254, 30.5786848 ], [ 79.1273323, 30.5790912 ], [ 79.1283678, 30.5792838 ], [ 79.1291299, 30.5794483 ], [ 79.1296207, 30.579771 ], [ 79.1294336, 30.5800436 ], [ 79.128086, 30.5816075 ], [ 79.1272839, 30.5817674 ], [ 79.1266451, 30.5824244 ], [ 79.1265325, 30.5828994 ], [ 79.1266289, 30.5832197 ], [ 79.1267951, 30.5832557 ], [ 79.1270081, 30.5833018 ], [ 79.1271409, 30.5831485 ], [ 79.1278169, 30.5832606 ], [ 79.1292579, 30.5824796 ], [ 79.1300952, 30.5823936 ], [ 79.1296645, 30.5834522 ], [ 79.1296466, 30.5840629 ], [ 79.1306828, 30.5837022 ], [ 79.1307431, 30.5834397 ], [ 79.1315623, 30.5832574 ], [ 79.1320335, 30.5826118 ], [ 79.134597, 30.5816689 ], [ 79.1348203, 30.581853 ], [ 79.1365021, 30.5815932 ], [ 79.1374436, 30.5819573 ], [ 79.1384692, 30.5820906 ], [ 79.1387501, 30.58228 ], [ 79.138963, 30.5821208 ], [ 79.1403772, 30.5830374 ], [ 79.141151, 30.5845183 ], [ 79.140912, 30.5851988 ], [ 79.1414267, 30.585452 ], [ 79.1417024, 30.5860059 ], [ 79.1419372, 30.5865495 ], [ 79.1424863, 30.5874476 ], [ 79.1425721, 30.587996 ], [ 79.1420347, 30.5886175 ] ] } }
]
}
