{
"type": "FeatureCollection",
"name": "site_boundaries",
"crs": { "type": "name", "properties": { "name": "urn:ogc:def:crs:OGC:1.3:CRS84" } },
"features": [
{ "type": "Feature", "properties": { "name": "Rudraprayag", "boundary_source": "estimated_buffer", "building_count": 0 }, "geometry": { "type": "Polygon", "coordinates": [ [ [ 79.039210181127686, 30.491622693078998 ], [ 79.039202077647104, 30.491401509402216 ], [ 79.039168979357271, 30.491182078637976 ], [ 79.039111205178969, 30.490966514013039 ], [ 79.039029311665175, 30.490756891507313 ], [ 79.038924087635138, 30.490555229862007 ], [ 79.0387965465723, 30.490363471139563 ], [ 79.038647916859304, 30.490183462022351 ], [ 79.038479629944462, 30.490016936030454 ], [ 79.038293306553697, 30.489865496829413 ], [ 79.038090741080865, 30.489730602788779 ], [ 79.037873884306904, 30.489613552940032 ], [ 79.03764482461402, 30.489515474468927 ], [ 79.037405767876081, 30.489437311862744 ], [ 79.037159016218482, 30.489379817816697 ], [ 79.036906945852166, 30.489343545987154 ], [ 79.036651984194776, 30.489328845661248 ], [ 79.036396586499492, 30.489335858394199 ], [ 79.03614321221589, 30.489364516646805 ], [ 79.035894301310734, 30.489414544435828 ], [ 79.035652250776025, 30.489485459991592 ], [ 79.035419391550789, 30.489576580396584 ], [ 79.03519796607813, 30.489687028160937 ], [ 79.034990106713863, 30.489815739671247 ], [ 79.034797815194366, 30.489961475431411 ], [ 79.034622943361114, 30.49012283199718 ], [ 79.034467175327634, 30.490298255489385 ], [ 79.034332011260545, 30.490486056555746 ], [ 79.034218752930727, 30.490684426637639 ], [ 79.034128491174002, 30.490891455384752 ], [ 79.034062095382069, 30.491105149050497 ], [ 79.034020205125117, 30.491323449690828 ], [ 79.034003223987, 30.491544254981658 ], [ 79.034011315672345, 30.49176543846427 ], [ 79.034044402423675, 30.491984870023646 ], [ 79.034102165763613, 30.492200436402459 ], [ 79.034184049555719, 30.492410061553421 ], [ 79.034289265354317, 30.492611726633619 ], [ 79.034416799992314, 30.492803489448647 ], [ 79.034565425333938, 30.492983503158847 ], [ 79.034733710098905, 30.493150034067632 ], [ 79.034920033643886, 30.493301478320511 ], [ 79.035122601569114, 30.493436377353799 ], [ 79.035339462999403, 30.49355343194415 ], [ 79.035568529373592, 30.493651514723567 ], [ 79.035807594561078, 30.493729681039248 ], [ 79.036054356111734, 30.493787178053378 ], [ 79.036306437434448, 30.49382345199556 ], [ 79.03656141069051, 30.493838153497464 ], [ 79.036816820181031, 30.493831140958662 ], [ 79.037070206003136, 30.493802481910922 ], [ 79.037319127746656, 30.493752452368014 ], [ 79.037561188003053, 30.493681534167042 ], [ 79.037794055459742, 30.493590410327148 ], [ 79.038015487357256, 30.4934799584702 ], [ 79.038223351092867, 30.493351242366909 ], [ 79.038415644762253, 30.49320550168985 ], [ 79.038590516441289, 30.493044140072225 ], [ 79.038746282022359, 30.492868711587374 ], [ 79.038881441433119, 30.49268090577943 ], [ 79.038994693081634, 30.492482531389211 ], [ 79.039084946388812, 30.492275498932614 ], [ 79.039151332287702, 30.49206180229876 ], [ 79.039193211588241, 30.491843499545816 ], [ 79.039210181127686, 30.491622693078998 ] ] ] } },
{ "type": "Feature", "properties": { "name": "Guptkashi", "boundary_source": "estimated_buffer", "building_count": 2 }, "geometry": { "type": "Polygon", "coordinates": [ [ [ 79.084380229990131, 30.528362632621462 ], [ 79.084372025722118, 30.528141448416545 ], [ 79.084338817516269, 30.52792202541611 ], [ 79.084280925352161, 30.527706476771876 ], [ 79.084198906919156, 30.527496878309616 ], [ 79.084093552239608, 30.527295248538746 ], [ 79.083965876055174, 30.527103529214497 ], [ 79.083817108049629, 30.526923566639599 ], [ 79.083648681002956, 30.526757093885749 ], [ 79.083462216990313, 30.526605714105624 ], [ 79.083259511759493, 30.526470885096419 ], [ 79.083042517436951, 30.526353905263292 ], [ 79.082813323729184, 30.526255901117715 ], [ 79.082574137800179, 30.526177816431211 ], [ 79.082327263019124, 30.526120403148695 ], [ 79.082075076782189, 30.526084214148867 ], [ 79.081820007622596, 30.526069597921349 ], [ 79.081564511828404, 30.526076695211682 ], [ 79.081311049793669, 30.526105437666534 ], [ 79.081062062329991, 30.526155548492028 ], [ 79.080819947166574, 30.526226545119012 ], [ 79.080587035864767, 30.526317743849511 ], [ 79.080365571369256, 30.526428266439552 ], [ 79.080157686411766, 30.526557048555322 ], [ 79.079965382975374, 30.526702850020932 ], [ 79.07979051301659, 30.526864266759496 ], [ 79.079634760631251, 30.527039744312425 ], [ 79.079499625835652, 30.52722759280687 ], [ 79.079386410119227, 30.527426003227426 ], [ 79.079296203907845, 30.527633064835278 ], [ 79.079229876058719, 30.527846783567263 ], [ 79.079188065488182, 30.528065101237747 ], [ 79.07917117501303, 30.528285915358499 ], [ 79.079179367465173, 30.528507099385557 ], [ 79.079212564116929, 30.52872652319838 ], [ 79.079270445432783, 30.528942073614058 ], [ 79.079352454140263, 30.529151674738713 ], [ 79.079457800590717, 30.529353307960637 ], [ 79.079585470358808, 30.529545031391972 ], [ 79.079734234007248, 30.529724998572132 ], [ 79.079902658923558, 30.529891476252477 ], [ 79.080089123114419, 30.530042861090994 ], [ 79.080291830825217, 30.530177695096093 ], [ 79.080508829834145, 30.530294679670632 ], [ 79.080738030254679, 30.530392688120919 ], [ 79.080977224664792, 30.530470776510025 ], [ 79.08122410936943, 30.530528192750733 ], [ 79.081476306591014, 30.530564383850642 ], [ 79.081731387374234, 30.530579001239452 ], [ 79.081986894984311, 30.530571904126976 ], [ 79.082240368573125, 30.530543160859747 ], [ 79.082489366885056, 30.530493048262816 ], [ 79.082731491774013, 30.530422048973417 ], [ 79.082964411304886, 30.53033084679188 ], [ 79.083185882216782, 30.530220320094752 ], [ 79.083393771531348, 30.53009153337371 ], [ 79.083586077098104, 30.529945726981612 ], [ 79.08376094687867, 30.529784305184656 ], [ 79.083916696784044, 30.529608822635822 ], [ 79.08405182689323, 30.529420969399975 ], [ 79.084165035896902, 30.529222554674689 ], [ 79.084255233627175, 30.529015489364255 ], [ 79.084321551552719, 30.5288017676741 ], [ 79.084363351138606, 30.528583447903515 ], [ 79.084380229990131, 30.528362632621462 ] ] ] } },
{ "type": "Feature", "properties": { "name": "Ukhimath", "boundary_source": "estimated_buffer", "building_count": 0 }, "geometry": { "type": "Polygon", "coordinates": [ [ [ 79.13137750175305, 30.584549255009087 ], [ 79.131369193021641, 30.58432807092721 ], [ 79.131335866223608, 30.584108656500891 ], [ 79.131277842480998, 30.58389312479898 ], [ 79.131195680750622, 30.583683551483801 ], [ 79.131090172435094, 30.583481954822282 ], [ 79.13096233375569, 30.583290276250537 ], [ 79.130813395961098, 30.583110361678571 ], [ 79.130644793466232, 30.582943943715517 ], [ 79.130458150035693, 30.582792624986222 ], [ 79.13025526314479, 30.582657862699769 ], [ 79.130038086669003, 30.58254095461864 ], [ 79.129808712068552, 30.582443026563265 ], [ 79.129569348248978, 30.582365021572368 ], [ 79.129322300292031, 30.582307690823416 ], [ 79.129069947261101, 30.582271586400424 ], [ 79.128814719295121, 30.582257055978641 ], [ 79.128559074211054, 30.582264239477475 ], [ 79.128305473840243, 30.582293067713579 ], [ 79.128056360326127, 30.582343263067273 ], [ 79.127814132611576, 30.582414342155616 ], [ 79.12758112334167, 30.582505620486749 ], [ 79.127359576404515, 30.582616219050429 ], [ 79.127151625325894, 30.582745072781396 ], [ 79.126959272725756, 30.582890940814323 ], [ 79.12678437103439, 30.583052418431453 ], [ 79.126628604653604, 30.583227950588025 ], [ 79.126493473734939, 30.583415846885433 ], [ 79.126380279730995, 30.583614297847962 ], [ 79.126290112859081, 30.583821392346319 ], [ 79.126223841598161, 30.584035136000526 ], [ 79.126182104320179, 30.584253470384819 ], [ 79.126165303136645, 30.584474292849844 ], [ 79.126173600020053, 30.584695476771032 ], [ 79.126206915237489, 30.58491489202866 ], [ 79.126264928111951, 30.585130425521875 ], [ 79.126347080104253, 30.585340001519555 ], [ 79.126452580186054, 30.585541601651624 ], [ 79.126580412452469, 30.58573328434866 ], [ 79.126729345901254, 30.585913203542106 ], [ 79.126897946284515, 30.586079626445215 ], [ 79.127084589918795, 30.586230950243301 ], [ 79.12728747932097, 30.586365717532491 ], [ 79.127504660518994, 30.586482630358063 ], [ 79.127734041871264, 30.586580562717245 ], [ 79.127973414212704, 30.586658571405938 ], [ 79.128220472134117, 30.586715905104541 ], [ 79.128472836189133, 30.586752011615722 ], [ 79.128728075815204, 30.586766543183948 ], [ 79.128983732747272, 30.586759359845782 ], [ 79.129237344698694, 30.586730530778379 ], [ 79.129486469080973, 30.586680333633389 ], [ 79.129728706533584, 30.586609251862559 ], [ 79.129961724037216, 30.586517970060864 ], [ 79.13018327738736, 30.58640736737188 ], [ 79.130391232811789, 30.586278509019447 ], [ 79.130583587523532, 30.586132636046464 ], [ 79.130758489011143, 30.585971153360543 ], [ 79.130914252880658, 30.585795616201217 ], [ 79.131049379077055, 30.585607715159369 ], [ 79.131162566329209, 30.585409259893041 ], [ 79.131252724679257, 30.585202161696891 ], [ 79.131318985975724, 30.584988415093029 ], [ 79.131360712229622, 30.584770078620537 ], [ 79.13137750175305, 30.584549255009087 ] ] ] } }
]
}
