{
"type": "FeatureCollection",
"name": "villages",
"crs": { "type": "name", "properties": { "name": "urn:ogc:def:crs:OGC:1.3:CRS84" } },
"features": [
{ "type": "Feature", "properties": { "name": "Gaurikund", "full_query": "Gaurikund, Rudraprayag, Uttarakhand, India", "lat": 30.6534016, "lon": 79.0268198, "coord_source": "osm_geocoded", "population": 223, "households": 43, "population_source": "census_2011_verified", "zone": "Red Zone", "vulnerability_score": 62.0, "vulnerability_reason": "Red Zone (62.0/100). Hazard: Inside landslide buffer zone 'Gaurikund landslide zone' (2022, 4yr ago): 2022 Gaurikund landslide (~23 dead); confirmed Rudraprayag as India's most landslide-prone district Population: 223 (census_2011_verified), est. 29 children under 6. Nearest hospital/clinic 8.9km away." }, "geometry": { "type": "Point", "coordinates": [ 79.0268198, 30.6534016 ] } },
{ "type": "Feature", "properties": { "name": "Mangoli", "full_query": "Mangoli, Rudraprayag, Uttarakhand, India", "lat": 30.5247719, "lon": 79.0983683, "coord_source": "osm_geocoded", "population": 310, "households": 58, "population_source": "estimated_tehsil_average", "zone": "Warning", "vulnerability_score": 49.0, "vulnerability_reason": "Warning (49.0/100). Hazard: Inside landslide buffer zone 'Okhimath (Mangoli-Chunni-Semla) landslide zone' (2012, 14yr ago): Sept 2012 Okhimath rainfall-triggered landslides/debris flow; satellite-confirmed building damage in Mangoli, Chunni, Semla villages Population: 310 (estimated_tehsil_average), est. 40 children under 6. Nearest hospital/clinic 6.0km away." }, "geometry": { "type": "Point", "coordinates": [ 79.0983683, 30.5247719 ] } },
{ "type": "Feature", "properties": { "name": "Agastmuni", "full_query": "Agastmuni, Rudraprayag, Uttarakhand, India", "lat": 30.3919603, "lon": 79.0260363, "coord_source": "osm_geocoded", "population": 850, "households": 160, "population_source": "estimated_block_average", "zone": "Watch", "vulnerability_score": 45.8, "vulnerability_reason": "Watch (45.8/100). Hazard: Inside cloudburst buffer zone 'Agastmuni-Vijaynagar cloudburst zone' (2005, 21yr ago): 2005 cloudburst near Rudraprayag-Kedarnath NH109; affected Agastmuni and Vijaynagar villages Population: 850 (estimated_block_average), est. 110 children under 6. Nearest hospital/clinic 2.3km away." }, "geometry": { "type": "Point", "coordinates": [ 79.0260363, 30.3919603 ] } },
{ "type": "Feature", "properties": { "name": "Pondar", "full_query": "manual", "lat": 30.515, "lon": 79.045, "coord_source": "manual_estimate", "population": 180, "households": 34, "population_source": "estimated_tehsil_average", "zone": "Watch", "vulnerability_score": 40.7, "vulnerability_reason": "Watch (40.7/100). Hazard: Inside landslide buffer zone 'Bheti-Pondar-Sem landslide zone' (1998, 28yr ago): 1998 Bheti-Pondar landslide; ravaged Bheti, Pondar and Sem villages, 101 deaths in Mandakini valley that event season Population: 180 (estimated_tehsil_average), est. 23 children under 6. Nearest hospital/clinic 8.5km away." }, "geometry": { "type": "Point", "coordinates": [ 79.045, 30.515 ] } },
{ "type": "Feature", "properties": { "name": "Semla", "full_query": "manual", "lat": 30.525, "lon": 79.09, "coord_source": "manual_estimate", "population": 165, "households": 31, "population_source": "estimated_tehsil_average", "zone": "Watch", "vulnerability_score": 46.4, "vulnerability_reason": "Watch (46.4/100). Hazard: Inside landslide buffer zone 'Okhimath (Mangoli-Chunni-Semla) landslide zone' (2012, 14yr ago): Sept 2012 Okhimath rainfall-triggered landslides/debris flow; satellite-confirmed building damage in Mangoli, Chunni, Semla villages Population: 165 (estimated_tehsil_average), est. 21 children under 6. Nearest hospital/clinic 6.5km away." }, "geometry": { "type": "Point", "coordinates": [ 79.09, 30.525 ] } }
]
}
