{
"type": "FeatureCollection",
"name": "village_boundaries",
"crs": { "type": "name", "properties": { "name": "urn:ogc:def:crs:OGC:1.3:CRS84" } },
"features": [
{ "type": "Feature", "properties": { "name": "Gaurikund", "boundary_source": "osm_buildings_hull", "building_count": 105 }, "geometry": { "type": "Polygon", "coordinates": [ [ [ 79.026479794448974, 30.651324221667448 ], [ 79.026449373330323, 30.651326135936834 ], [ 79.026419303483692, 30.651331127250334 ], [ 79.026389895333097, 30.65133914408046 ], [ 79.026361452471562, 30.651350103666008 ], [ 79.024855968507467, 30.651960477165268 ], [ 79.024827800319571, 30.651971914286801 ], [ 79.024800934300359, 30.651986143537332 ], [ 79.024775646350307, 30.652003018789646 ], [ 79.022557973190217, 30.653556447582559 ], [ 79.022535622435896, 30.653574823615369 ], [ 79.02251514594856, 30.653595267398455 ], [ 79.022496734212936, 30.653617588751292 ], [ 79.022480558506246, 30.653641580027074 ], [ 79.022457158506242, 30.653680180027074 ], [ 79.022380643779087, 30.653808808827641 ], [ 79.022344943779089, 30.653873708827643 ], [ 79.022332145788226, 30.653899916067278 ], [ 79.022321953060384, 30.653927242177115 ], [ 79.022314461929071, 30.653955428892626 ], [ 79.022278234323906, 30.654120800373583 ], [ 79.022273678447505, 30.654149080752639 ], [ 79.02227184056467, 30.654177666728856 ], [ 79.022272737431507, 30.654206297682023 ], [ 79.022276360871217, 30.654234712581886 ], [ 79.022282677848665, 30.654262652367951 ], [ 79.022291630771562, 30.654289862311373 ], [ 79.022303138015531, 30.654316094337332 ], [ 79.022317094668253, 30.654341109286744 ], [ 79.022333373486049, 30.654364679096684 ], [ 79.022351826053878, 30.654386588879664 ], [ 79.022372284138456, 30.654406638882772 ], [ 79.022394561222114, 30.654424646308826 ], [ 79.022443861222115, 30.654460746308828 ], [ 79.022469321861792, 30.654477472867136 ], [ 79.0224963475397, 30.654491531126617 ], [ 79.022524659584477, 30.654502776127568 ], [ 79.029162947098186, 30.656967654352879 ], [ 79.0291918908366, 30.656976789721792 ], [ 79.029221609496119, 30.65698295383039 ], [ 79.029251798891423, 30.656986083585945 ], [ 79.029282150018958, 30.656986146953844 ], [ 79.02931235221979, 30.656983143285487 ], [ 79.029520011455816, 30.656961754896944 ], [ 79.02960651145581, 30.656951354896943 ], [ 79.029636291288313, 30.6569462418366 ], [ 79.029665405746897, 30.656938159132128 ], [ 79.029693559487427, 30.656927188776439 ], [ 79.029720466911542, 30.656913442055473 ], [ 79.029745855063823, 30.656897058419307 ], [ 79.02976946640068, 30.656878204067514 ], [ 79.029791061403003, 30.656857070263204 ], [ 79.029810421005863, 30.656833871392813 ], [ 79.029827348820746, 30.656808842791303 ], [ 79.029841673127777, 30.656782238354875 ], [ 79.029853248617755, 30.656754327965377 ], [ 79.029861957866075, 30.656725394752563 ], [ 79.029867712524023, 30.656695732221959 ], [ 79.029870454214944, 30.65666564127746 ], [ 79.029870155126474, 30.656635427168897 ], [ 79.029866818292632, 30.656605396395516 ], [ 79.029859118292634, 30.656557996395517 ], [ 79.02985317534575, 30.656529953636227 ], [ 79.028520643922647, 30.652023049847454 ], [ 79.028510543098591, 30.651994744861224 ], [ 79.028497660992997, 30.651967592508704 ], [ 79.028482126884768, 30.651941865278506 ], [ 79.028464096667136, 30.651917821357358 ], [ 79.028443751283135, 30.651895702039074 ], [ 79.02842129490972, 30.651875729303026 ], [ 79.028396952908821, 30.65185810358647 ], [ 79.028370969565628, 30.651843001773045 ], [ 79.02828356956563, 30.651797901773048 ], [ 79.028257421712041, 30.651785958796431 ], [ 79.028230250827718, 30.651776573276631 ], [ 79.026570026258241, 30.651336979019948 ], [ 79.026540433916651, 30.651329671338658 ], [ 79.026510252789279, 30.651325404203998 ], [ 79.026479794448974, 30.651324221667448 ] ] ] } },
{ "type": "Feature", "properties": { "name": "Mangoli", "boundary_source": "estimated_buffer", "building_count": 0 }, "geometry": { "type": "Polygon", "coordinates": [ [ [ 79.100972760465908, 30.524809896966513 ], [ 79.10096451837002, 30.52458871211806 ], [ 79.100931273370776, 30.524369291712734 ], [ 79.100873345802, 30.524153748877179 ], [ 79.100791293693931, 30.523944159381152 ], [ 79.100685907393199, 30.523742541647657 ], [ 79.100558201945788, 30.523550837315963 ], [ 79.100409407317258, 30.523370892544367 ], [ 79.1002409565438, 30.523204440233087 ], [ 79.100054471928971, 30.523053083337938 ], [ 79.09985174941886, 30.522918279435739 ], [ 79.099634741306218, 30.522801326689859 ], [ 79.099405537430229, 30.522703351350977 ], [ 79.099166345052751, 30.52262529691323 ], [ 79.098919467605, 30.522567915030304 ], [ 79.098667282508814, 30.522531758278578 ], [ 79.098412218286356, 30.522517174837184 ], [ 79.098156731178221, 30.522524305136027 ], [ 79.097903281494808, 30.522553080503901 ], [ 79.097654309928842, 30.522603223830107 ], [ 79.097412214056504, 30.522674252232544 ], [ 79.097179325253435, 30.522765481707253 ], [ 79.09695788624775, 30.522876033714276 ], [ 79.096750029525865, 30.523004843636478 ], [ 79.096557756799001, 30.523150671030244 ], [ 79.096382919728072, 30.52331211156897 ], [ 79.096227202092308, 30.523487610564828 ], [ 79.096092103573454, 30.523675477938447 ], [ 79.095978925311684, 30.523873904492579 ], [ 79.095888757372222, 30.524080979332915 ], [ 79.095822468243782, 30.524294708268847 ], [ 79.095780696469788, 30.524513033016383 ], [ 79.09576384449349, 30.524733851019047 ], [ 79.095772074775965, 30.524955035695388 ], [ 79.095805308225181, 30.52517445691856 ], [ 79.095863224951202, 30.525390001530475 ], [ 79.095945267340426, 30.52559959369313 ], [ 79.096050645419794, 30.525801214881039 ], [ 79.096178344459162, 30.525992923322175 ], [ 79.096327134739298, 30.526172872700315 ], [ 79.096495583391089, 30.526339329938217 ], [ 79.096682068192536, 30.526490691890746 ], [ 79.096884793190355, 30.526625500786714 ], [ 79.097101805996189, 30.526742458270867 ], [ 79.097331016590516, 30.526840437910419 ], [ 79.097570217453296, 30.526918496045965 ], [ 79.097817104827229, 30.526975880881711 ], [ 79.098069300908989, 30.527012039727815 ], [ 79.098324376754263, 30.527026624324641 ], [ 79.098579875675824, 30.527019494197923 ], [ 79.098833336909252, 30.526990718012183 ], [ 79.099082319317986, 30.52694057290962 ], [ 79.099324424909142, 30.526869541840551 ], [ 79.099557321933617, 30.526778308911428 ], [ 79.099778767347317, 30.526667752794978 ], [ 79.099986628417611, 30.526538938266217 ], [ 79.100178903266126, 30.526393105945832 ], [ 79.100353740150453, 30.526231660349751 ], [ 79.100509455298507, 30.526056156360102 ], [ 79.100644549124155, 30.525868284248215 ], [ 79.100757720667588, 30.525669853393421 ], [ 79.100847880121762, 30.525462774855267 ], [ 79.100914159324034, 30.525249042966522 ], [ 79.10095592011244, 30.525030716124604 ], [ 79.100972760465908, 30.524809896966513 ] ] ] } },
{ "type": "Feature", "properties": { "name": "Agastmuni", "boundary_source": "estimated_buffer", "building_count": 2 }, "geometry": { "type": "Polygon", "coordinates": [ [ [ 79.030197612633899, 30.392023136539269 ], [ 79.030184671881003, 30.391669238675185 ], [ 79.030131780283213, 30.391318144512052 ], [ 79.030039447638771, 30.39097323524954 ], [ 79.029908563559133, 30.390637832488157 ], [ 79.029740388886154, 30.390315166242871 ], [ 79.029536543535926, 30.390008343840009 ], [ 79.02929899088636, 30.389720319996872 ], [ 79.029030018859828, 30.389453868371973 ], [ 79.028732217883004, 30.389211554859649 ], [ 79.028408455936628, 30.38899571288604 ], [ 79.028061850935501, 30.38880842094402 ], [ 79.027695740704672, 30.388651482583235 ], [ 79.027313650840995, 30.388526409047643 ], [ 79.026919260769006, 30.388434404727448 ], [ 79.026516368318042, 30.388376355565423 ], [ 79.026108853160949, 30.388352820528983 ], [ 79.025700639466152, 30.38836402623004 ], [ 79.025295658122189, 30.388409864744194 ], [ 79.024897808897535, 30.388489894650483 ], [ 79.024510922900177, 30.388603345281325 ], [ 79.024138725697085, 30.388749124142031 ], [ 79.02378480144867, 30.38892582742843 ], [ 79.023452558403065, 30.389131753541339 ], [ 79.023145196081799, 30.389364919468267 ], [ 79.022865674472868, 30.389623079874323 ], [ 79.02261668552751, 30.389903748719128 ], [ 79.022400627234944, 30.390204223191631 ], [ 79.022219580525118, 30.39052160973257 ], [ 79.022075289221547, 30.390852851894397 ], [ 79.021969143238024, 30.391194759770393 ], [ 79.021902165181075, 30.391544040709984 ], [ 79.021875000487697, 30.391897331024637 ], [ 79.021887911194142, 30.392251228378914 ], [ 79.021940773395869, 30.392602324555206 ], [ 79.022033078424343, 30.39294723827652 ], [ 79.022163937729374, 30.393282647770953 ], [ 79.022332091421163, 30.393605322764831 ], [ 79.022535920389927, 30.393912155595601 ], [ 79.022773461887283, 30.39420019114522 ], [ 79.02304242841943, 30.394466655305298 ], [ 79.023340229770852, 30.394708981699807 ], [ 79.023663997946386, 30.39492483640753 ], [ 79.024010614791862, 30.39511214044623 ], [ 79.024376742027073, 30.395269089801388 ], [ 79.024758853401693, 30.395394172806544 ], [ 79.025153268664525, 30.395486184707597 ], [ 79.025556189018161, 30.395544239270425 ], [ 79.025963733717461, 30.395567777320061 ], [ 79.026371977458709, 30.395556572128829 ], [ 79.026776988198748, 30.39551073160149 ], [ 79.027174865039356, 30.395430697236421 ], [ 79.027561775811321, 30.395317239872515 ], [ 79.027933993995617, 30.395171452263217 ], [ 79.028287934625482, 30.394994738548938 ], [ 79.028620188823311, 30.39478880072954 ], [ 79.028927556638948, 30.394555622267415 ], [ 79.029207077873295, 30.394297448979184 ], [ 79.029456060589496, 30.394016767400259 ], [ 79.029672107037698, 30.393716280831086 ], [ 79.029853136743142, 30.39339888329576 ], [ 79.02999740653577, 30.393067631664362 ], [ 79.03010352732845, 30.392725716207522 ], [ 79.030170477482756, 30.392376429867127 ], [ 79.030197612633899, 30.392023136539269 ] ] ] } },
{ "type": "Feature", "properties": { "name": "Pondar", "boundary_source": "estimated_buffer", "building_count": 0 }, "geometry": { "type": "Polygon", "coordinates": [ [ [ 79.046562470200541, 30.515023437691681 ], [ 79.046557598780211, 30.514890727725309 ], [ 79.046537726866987, 30.514759070198441 ], [ 79.046503045898092, 30.514629733040891 ], [ 79.046453889926497, 30.514503961831061 ], [ 79.046390732401477, 30.514382967800739 ], [ 79.046314181607229, 30.514267916170709 ], [ 79.046224974803096, 30.514159914929849 ], [ 79.046123971121972, 30.51406000416528 ], [ 79.046012143295712, 30.513969146046794 ], [ 79.045890568286538, 30.513888215561522 ], [ 79.045760416915513, 30.513817992088377 ], [ 79.045622942587286, 30.513759151893218 ], [ 79.045479469220126, 30.513712261616931 ], [ 79.045331378497096, 30.513677772819275 ], [ 79.045180096561467, 30.513656017630858 ], [ 79.0450270802841, 30.513647205555074 ], [ 79.044873803235234, 30.513651421450984 ], [ 79.044721741495408, 30.513668624716157 ], [ 79.044572359442412, 30.513698649677938 ], [ 79.044427095650875, 30.513741207188634 ], [ 79.044287349040061, 30.513795887409859 ], [ 79.044154465403537, 30.513862163759079 ], [ 79.044029724450041, 30.51393939798001 ], [ 79.043914327480451, 30.51402684628874 ], [ 79.043809385819571, 30.51412366653577 ], [ 79.043715910113761, 30.514228926315386 ], [ 79.043634800597914, 30.514341611944293 ], [ 79.043566838425193, 30.514460638222857 ], [ 79.043512678143159, 30.5145848588853 ], [ 79.043472841388819, 30.514713077637971 ], [ 79.043447711863209, 30.514844059679589 ], [ 79.043437531634297, 30.514976543592415 ], [ 79.043442398803435, 30.515109253490056 ], [ 79.04346226655835, 30.515240911304652 ], [ 79.043496943621562, 30.515370249095294 ], [ 79.043546096090267, 30.515496021259278 ], [ 79.043609250649737, 30.515617016528161 ], [ 79.043685799129761, 30.515732069633522 ], [ 79.043775004359972, 30.515840072529812 ], [ 79.043876007267883, 30.515939985066296 ], [ 79.043987835151427, 30.516030845005073 ], [ 79.044109411046136, 30.516111777289073 ], [ 79.044239564096941, 30.516182002470249 ], [ 79.044377040834618, 30.51624084421713 ], [ 79.04452051724833, 30.516287735829167 ], [ 79.044668611537915, 30.516322225695273 ], [ 79.044819897423054, 30.516343981643779 ], [ 79.044972917881083, 30.516352794142094 ], [ 79.045126199181141, 30.516348578314926 ], [ 79.04527826507929, 30.516331374762022 ], [ 79.04542765103794, 30.516301349167154 ], [ 79.045572918332397, 30.516258790702302 ], [ 79.045712667908759, 30.516204109242523 ], [ 79.045845553859493, 30.516137831417975 ], [ 79.04597029638694, 30.516060595541603 ], [ 79.046085694129715, 30.515973145460961 ], [ 79.046190635733325, 30.515876323393634 ], [ 79.046284110553586, 30.515771061815276 ], [ 79.046365218389653, 30.515658374478352 ], [ 79.046433178152924, 30.51553934664808 ], [ 79.046487335388406, 30.515415124649891 ], [ 79.046527168576205, 30.51528690482877 ], [ 79.046552294152306, 30.515155922027038 ], [ 79.046562470200541, 30.515023437691681 ] ] ] } },
{ "type": "Feature", "properties": { "name": "Semla", "boundary_source": "estimated_buffer", "building_count": 0 }, "geometry": { "type": "Polygon", "coordinates": [ [ [ 79.091562671716005, 30.525022904933042 ], [ 79.091557739281257, 30.524890194211494 ], [ 79.091537805001124, 30.524758541067445 ], [ 79.091503060913496, 30.524629213388433 ], [ 79.09145384167914, 30.524503456661488 ], [ 79.091390621356581, 30.524382481978837 ], [ 79.091314008834715, 30.524267454374886 ], [ 79.091224741967224, 30.524159481607075 ], [ 79.091123680465429, 30.52405960348829 ], [ 79.091011797617824, 30.523968781873879 ], [ 79.090890170916467, 30.523887891399433 ], [ 79.0907599716801, 30.523817711058538 ], [ 79.090622453774202, 30.523758916701695 ], [ 79.090478941536617, 30.52371207452838 ], [ 79.09033081702465, 30.523677635635153 ], [ 79.090179506706889, 30.523655931672074 ], [ 79.090026467727483, 30.523647171649305 ], [ 79.089873173875205, 30.523651439924624 ], [ 79.089721101392442, 30.523668695391333 ], [ 79.089571714760424, 30.523698771874066 ], [ 79.089426452597891, 30.523741379729024 ], [ 79.089286713808477, 30.523796108633107 ], [ 79.089153844110498, 30.523862431534951 ], [ 79.089029123078532, 30.523939709730016 ], [ 79.088913751821707, 30.524027199010945 ], [ 79.088808841417304, 30.524124056833649 ], [ 79.088715402210809, 30.524229350430559 ], [ 79.088634334085697, 30.524342065792691 ], [ 79.088566417796685, 30.524461117434026 ], [ 79.088512307449506, 30.524585358844522 ], [ 79.088472524200384, 30.52471359353062 ], [ 79.088447451235197, 30.524844586537547 ], [ 79.088437330077241, 30.524977076341909 ], [ 79.08844225825905, 30.525109787000428 ], [ 79.088462188380745, 30.525241440437878 ], [ 79.088496928564282, 30.525370768755444 ], [ 79.088546144298917, 30.525496526441543 ], [ 79.088609361660602, 30.525617502367087 ], [ 79.088685971874256, 30.525732531449897 ], [ 79.088775237174829, 30.525840505875738 ], [ 79.088876297911312, 30.525940385767964 ], [ 79.088988180824558, 30.526031209203097 ], [ 79.089109808420005, 30.526112101475583 ], [ 79.089240009344564, 30.526182283522726 ], [ 79.089377529667829, 30.526241079428448 ], [ 79.089521044959127, 30.526287922933776 ], [ 79.08966917304376, 30.526322362890934 ], [ 79.089820487315833, 30.526344067608989 ], [ 79.089973530479284, 30.526352828048761 ], [ 79.090126828584516, 30.526348559836453 ], [ 79.090278905225702, 30.526331304076344 ], [ 79.090428295761811, 30.52630122695507 ], [ 79.090573561424065, 30.52625861814095 ], [ 79.090713303174354, 30.526203887993972 ], [ 79.090846175180559, 30.526137563613265 ], [ 79.090970897779428, 30.526060283760181 ], [ 79.091086269801565, 30.525972792705804 ], [ 79.091191180140328, 30.525875933062384 ], [ 79.091284618452747, 30.525770637667424 ], [ 79.091365684889666, 30.525657920599052 ], [ 79.091433598761299, 30.52553886740883 ], [ 79.091487706054778, 30.525414624666325 ], [ 79.09152748573122, 30.525286388916296 ], [ 79.09155255474208, 30.525155395154389 ], [ 79.091562671716005, 30.525022904933042 ] ] ] } }
]
}
