{
"type": "FeatureCollection",
"name": "district_boundary",
"crs": { "type": "name", "properties": { "name": "urn:ogc:def:crs:OGC:1.3:CRS84" } },
"features": [
{ "type": "Feature", "properties": { "bbox_west": 85.1360177, "bbox_south": 19.467535, "bbox_east": 86.3717008, "bbox_north": 20.2018564, "place_id": 249694755, "osm_type": "relation", "osm_id": 9511283, "lat": 19.8343066, "lon": 85.6853295, "class": "boundary", "type": "administrative", "place_rank": 10, "importance": 0.49074134914630863, "addresstype": "state_district", "name": "Puri", "display_name": "Puri, Odisha, India" }, "geometry": { "type": "Polygon", "coordinates": [ [ [ 85.1360177, 19.5206811 ], [ 85.1464033, 19.5011837 ], [ 85.1486723, 19.4966695 ], [ 85.1508665, 19.4923039 ], [ 85.1617884, 19.4808141 ], [ 85.1722637, 19.467535 ], [ 85.1750526, 19.4694446 ], [ 85.1758397, 19.4700196 ], [ 85.1774016, 19.4710667 ], [ 85.1785898, 19.4718725 ], [ 85.1792765, 19.4723276 ], [ 85.181551, 19.4738803 ], [ 85.184378, 19.4757718 ], [ 85.1858448, 19.4769015 ], [ 85.1870227, 19.4776583 ], [ 85.1884228, 19.4785939 ], [ 85.1899892, 19.4796559 ], [ 85.1910138, 19.4804348 ], [ 85.1927894, 19.481608 ], [ 85.1936102, 19.4821846 ], [ 85.1954341, 19.4834084 ], [ 85.196287, 19.4839597 ], [ 85.1971775, 19.4845463 ], [ 85.198465, 19.4854566 ], [ 85.203985, 19.4894113 ], [ 85.2053475, 19.4903822 ], [ 85.2059805, 19.4908171 ], [ 85.2068067, 19.491424 ], [ 85.2073324, 19.4917476 ], [ 85.207783, 19.4920308 ], [ 85.2088827, 19.4927944 ], [ 85.2105242, 19.4939727 ], [ 85.2113664, 19.4945643 ], [ 85.2120745, 19.4949992 ], [ 85.2154702, 19.4973608 ], [ 85.2180558, 19.4992318 ], [ 85.2207434, 19.5011179 ], [ 85.221945, 19.5019169 ], [ 85.2225941, 19.502377 ], [ 85.2236348, 19.5031254 ], [ 85.2244502, 19.5037474 ], [ 85.2248096, 19.5040204 ], [ 85.2255231, 19.5045463 ], [ 85.2262741, 19.505052 ], [ 85.2272397, 19.505679 ], [ 85.2315795, 19.508809 ], [ 85.2351791, 19.5113271 ], [ 85.2361929, 19.5120097 ], [ 85.236944, 19.5125355 ], [ 85.2377325, 19.5131069 ], [ 85.2398944, 19.5146895 ], [ 85.2403021, 19.515003 ], [ 85.2408868, 19.5154075 ], [ 85.2424854, 19.5164642 ], [ 85.2439874, 19.5174401 ], [ 85.2453634, 19.5184235 ], [ 85.2469701, 19.5195308 ], [ 85.2486089, 19.5206887 ], [ 85.250304, 19.5218338 ], [ 85.2517015, 19.5227389 ], [ 85.2556229, 19.5255146 ], [ 85.256508, 19.5261921 ], [ 85.2571893, 19.5266825 ], [ 85.2583694, 19.5275319 ], [ 85.2597052, 19.5285077 ], [ 85.2602899, 19.5289122 ], [ 85.2615559, 19.5298677 ], [ 85.2623123, 19.5303986 ], [ 85.2633315, 19.5312833 ], [ 85.2638465, 19.5316322 ], [ 85.2641684, 19.5318142 ], [ 85.2645385, 19.5319962 ], [ 85.2665019, 19.5334977 ], [ 85.2669686, 19.5337606 ], [ 85.2682024, 19.5347819 ], [ 85.2686316, 19.535161 ], [ 85.2701873, 19.5364199 ], [ 85.2708846, 19.5368698 ], [ 85.2717215, 19.5374158 ], [ 85.2730465, 19.5382601 ], [ 85.2735293, 19.5385988 ], [ 85.2740228, 19.539069 ], [ 85.274452, 19.5394077 ], [ 85.2755195, 19.540166 ], [ 85.276233, 19.5405907 ], [ 85.2768016, 19.5409698 ], [ 85.2780515, 19.5417838 ], [ 85.2784485, 19.5421528 ], [ 85.2788937, 19.5424763 ], [ 85.2796984, 19.5429971 ], [ 85.2802348, 19.5432802 ], [ 85.2808088, 19.5436189 ], [ 85.2817047, 19.5443064 ], [ 85.2820963, 19.5445844 ], [ 85.2834642, 19.5455753 ], [ 85.2839631, 19.5459241 ], [ 85.2844673, 19.5462577 ], [ 85.2849984, 19.5466015 ], [ 85.2858567, 19.5471727 ], [ 85.286597, 19.5477086 ], [ 85.2876109, 19.5484214 ], [ 85.2883297, 19.5488763 ], [ 85.2903306, 19.5501401 ], [ 85.2924871, 19.5515606 ], [ 85.2938336, 19.5525009 ], [ 85.2946275, 19.5530013 ], [ 85.2962744, 19.5540578 ], [ 85.2981895, 19.5551725 ], [ 85.3020465, 19.5576469 ], [ 85.3046107, 19.5592139 ], [ 85.3067833, 19.5606394 ], [ 85.3072178, 19.5608972 ], [ 85.3077865, 19.5612712 ], [ 85.3098839, 19.5626006 ], [ 85.3129739, 19.5645568 ], [ 85.3152806, 19.5659519 ], [ 85.316745, 19.5667758 ], [ 85.3179735, 19.5675542 ], [ 85.3189284, 19.5681405 ], [ 85.3198081, 19.5687269 ], [ 85.3206503, 19.5693081 ], [ 85.3217608, 19.5700259 ], [ 85.3235203, 19.5711985 ], [ 85.3245288, 19.5718253 ], [ 85.3256875, 19.5725026 ], [ 85.3264493, 19.5730181 ], [ 85.3284824, 19.5742767 ], [ 85.3303599, 19.5754038 ], [ 85.3314811, 19.5760609 ], [ 85.332672, 19.5767735 ], [ 85.3333747, 19.5772284 ], [ 85.3344637, 19.5778703 ], [ 85.3360516, 19.5787953 ], [ 85.3368348, 19.5792653 ], [ 85.3380257, 19.579892 ], [ 85.3424406, 19.582409 ], [ 85.3432667, 19.5828285 ], [ 85.3457022, 19.5842993 ], [ 85.3472096, 19.5851938 ], [ 85.3499025, 19.5867201 ], [ 85.3508359, 19.5872811 ], [ 85.3517908, 19.5877512 ], [ 85.3534698, 19.5887316 ], [ 85.3551811, 19.589702 ], [ 85.3571498, 19.5907582 ], [ 85.3579706, 19.5911524 ], [ 85.3586519, 19.5916275 ], [ 85.3593546, 19.5920065 ], [ 85.3607279, 19.5927848 ], [ 85.3624338, 19.5936895 ], [ 85.3629863, 19.5940533 ], [ 85.3638393, 19.5944627 ], [ 85.3655076, 19.5953623 ], [ 85.3660816, 19.5956453 ], [ 85.3672779, 19.5962618 ], [ 85.368281, 19.5967824 ], [ 85.3715318, 19.598541 ], [ 85.3739405, 19.5998348 ], [ 85.3766549, 19.6012599 ], [ 85.3777438, 19.6018158 ], [ 85.3785646, 19.60222 ], [ 85.3797394, 19.6028113 ], [ 85.3805011, 19.6032459 ], [ 85.3813648, 19.6036502 ], [ 85.3824216, 19.6041201 ], [ 85.3841811, 19.6051056 ], [ 85.3863537, 19.6062527 ], [ 85.3873032, 19.6067934 ], [ 85.3885263, 19.6073948 ], [ 85.3895563, 19.6079405 ], [ 85.391355, 19.6088499 ], [ 85.3922921, 19.6092847 ], [ 85.3932309, 19.6098001 ], [ 85.3953338, 19.6108765 ], [ 85.3973454, 19.611877 ], [ 85.4002476, 19.6134081 ], [ 85.401358, 19.6139084 ], [ 85.4024041, 19.6144642 ], [ 85.4041368, 19.6154041 ], [ 85.407452, 19.6171121 ], [ 85.4089701, 19.61787 ], [ 85.4114217, 19.6190929 ], [ 85.412398, 19.6195628 ], [ 85.4136586, 19.6201489 ], [ 85.4165447, 19.6215284 ], [ 85.4199564, 19.6232363 ], [ 85.4227888, 19.62455 ], [ 85.4246449, 19.6254191 ], [ 85.4277563, 19.6268743 ], [ 85.4297894, 19.6278191 ], [ 85.4306316, 19.6282587 ], [ 85.4319298, 19.6287943 ], [ 85.4330242, 19.6292592 ], [ 85.4347117, 19.6299885 ], [ 85.4352597, 19.6302253 ], [ 85.4353677, 19.630272 ], [ 85.4354246, 19.6302966 ], [ 85.4354778, 19.6303196 ], [ 85.4355524, 19.6303518 ], [ 85.435627, 19.6303841 ], [ 85.4357208, 19.6304246 ], [ 85.4358077, 19.6304622 ], [ 85.4359023, 19.630503 ], [ 85.4360207, 19.6305542 ], [ 85.4360964, 19.6305869 ], [ 85.4361913, 19.6306279 ], [ 85.4363178, 19.6306826 ], [ 85.4364145, 19.6307244 ], [ 85.4364883, 19.6307592 ], [ 85.4365902, 19.6308071 ], [ 85.4366756, 19.6308474 ], [ 85.4367892, 19.6309008 ], [ 85.4369027, 19.6309543 ], [ 85.4370025, 19.6310013 ], [ 85.4373908, 19.6311842 ], [ 85.4377985, 19.6313889 ], [ 85.4382062, 19.6315935 ], [ 85.4389036, 19.6318865 ], [ 85.4397224, 19.6322423 ], [ 85.4405835, 19.6326165 ], [ 85.4415153, 19.6330214 ], [ 85.4423205, 19.6333713 ], [ 85.4434079, 19.6338439 ], [ 85.4439032, 19.6340591 ], [ 85.4445404, 19.6343074 ], [ 85.4451775, 19.6345557 ], [ 85.4462945, 19.63504 ], [ 85.4469214, 19.6353118 ], [ 85.4474115, 19.6355243 ], [ 85.4478049, 19.6356999 ], [ 85.4495627, 19.6364843 ], [ 85.4524004, 19.6376666 ], [ 85.4529315, 19.637899 ], [ 85.4535591, 19.6381314 ], [ 85.4540634, 19.6383638 ], [ 85.4544282, 19.6385356 ], [ 85.4553723, 19.6389246 ], [ 85.4568473, 19.639528 ], [ 85.459907, 19.6408629 ], [ 85.4617136, 19.6416194 ], [ 85.4640842, 19.6426482 ], [ 85.4649264, 19.6430069 ], [ 85.4666644, 19.6436889 ], [ 85.4700065, 19.6451136 ], [ 85.4707467, 19.645437 ], [ 85.472399, 19.6460534 ], [ 85.4732466, 19.6464272 ], [ 85.4743945, 19.6469425 ], [ 85.476197, 19.6476599 ], [ 85.4773557, 19.648155 ], [ 85.4791689, 19.6488825 ], [ 85.4810786, 19.6497161 ], [ 85.4817653, 19.6500041 ], [ 85.4828864, 19.6504133 ], [ 85.4835409, 19.650681 ], [ 85.4860192, 19.6517369 ], [ 85.4872262, 19.6522067 ], [ 85.4911852, 19.6538284 ], [ 85.4919362, 19.6541315 ], [ 85.4929447, 19.6545306 ], [ 85.4947096, 19.6553086 ], [ 85.4956269, 19.6556774 ], [ 85.4967427, 19.6560967 ], [ 85.4985774, 19.6568242 ], [ 85.5002296, 19.6575213 ], [ 85.5011684, 19.6579305 ], [ 85.502724, 19.6585897 ], [ 85.50675, 19.6601608 ], [ 85.5077935, 19.6607267 ], [ 85.5092982, 19.6613656 ], [ 85.5108586, 19.6620376 ], [ 85.5117534, 19.6623998 ], [ 85.5128121, 19.6627994 ], [ 85.5139573, 19.6632864 ], [ 85.5147646, 19.663589 ], [ 85.5153547, 19.6638723 ], [ 85.5159089, 19.6640949 ], [ 85.5160967, 19.6641924 ], [ 85.5165366, 19.6644138 ], [ 85.516943, 19.6646265 ], [ 85.5174237, 19.6648963 ], [ 85.5178823, 19.6651273 ], [ 85.5184251, 19.6653975 ], [ 85.5190694, 19.6656944 ], [ 85.519626, 19.6659566 ], [ 85.5202043, 19.666275 ], [ 85.5213007, 19.6667743 ], [ 85.5224647, 19.6674004 ], [ 85.5234854, 19.6679597 ], [ 85.5243519, 19.6684762 ], [ 85.5249006, 19.6688542 ], [ 85.5251529, 19.6689723 ], [ 85.5257119, 19.6692809 ], [ 85.5268941, 19.6699118 ], [ 85.5275681, 19.6704816 ], [ 85.5280191, 19.6707289 ], [ 85.5286254, 19.671054 ], [ 85.5293085, 19.6714596 ], [ 85.5295787, 19.6716303 ], [ 85.5301529, 19.6719083 ], [ 85.5307527, 19.6722821 ], [ 85.5315923, 19.672726 ], [ 85.5320547, 19.6729673 ], [ 85.5327277, 19.6733583 ], [ 85.5332456, 19.673701 ], [ 85.5338664, 19.674099 ], [ 85.5345355, 19.6744737 ], [ 85.5351707, 19.6748278 ], [ 85.535675, 19.675151 ], [ 85.5362999, 19.6756259 ], [ 85.5369168, 19.6760123 ], [ 85.5377081, 19.6764745 ], [ 85.5379173, 19.6766512 ], [ 85.5381838, 19.6768616 ], [ 85.538648, 19.6771298 ], [ 85.5391762, 19.6774645 ], [ 85.5401445, 19.6779251 ], [ 85.5412273, 19.6785171 ], [ 85.5430026, 19.67956 ], [ 85.5521274, 19.6844858 ], [ 85.5564929, 19.686904 ], [ 85.5596678, 19.6889443 ], [ 85.5600441, 19.6897904 ], [ 85.5595448, 19.69064 ], [ 85.5627702, 19.6924535 ], [ 85.5641116, 19.6927148 ], [ 85.5652743, 19.6933384 ], [ 85.5717379, 19.6977081 ], [ 85.5741917, 19.6977477 ], [ 85.5803559, 19.700064 ], [ 85.5866167, 19.7029159 ], [ 85.5895663, 19.7041165 ], [ 85.5922107, 19.7051825 ], [ 85.5947497, 19.7062391 ], [ 85.597085, 19.7072158 ], [ 85.599069, 19.7080697 ], [ 85.6007394, 19.70892 ], [ 85.6028078, 19.7098266 ], [ 85.6047888, 19.7106433 ], [ 85.6064871, 19.7114723 ], [ 85.6090419, 19.7126212 ], [ 85.6113268, 19.7135652 ], [ 85.613333, 19.7141721 ], [ 85.6151891, 19.7150457 ], [ 85.6169325, 19.7158537 ], [ 85.6189978, 19.7167728 ], [ 85.6208003, 19.7176515 ], [ 85.6225437, 19.7184695 ], [ 85.6235415, 19.7189291 ], [ 85.6242603, 19.7193331 ], [ 85.6267011, 19.7205652 ], [ 85.6284982, 19.721454 ], [ 85.6324893, 19.723383 ], [ 85.6359869, 19.7249736 ], [ 85.638079, 19.7258371 ], [ 85.6389266, 19.7261754 ], [ 85.6405467, 19.7270137 ], [ 85.6420112, 19.7277206 ], [ 85.6435507, 19.7284528 ], [ 85.6459486, 19.7295082 ], [ 85.6481588, 19.7305584 ], [ 85.649457, 19.7310937 ], [ 85.6520534, 19.7323056 ], [ 85.6528902, 19.7326843 ], [ 85.6536305, 19.7330377 ], [ 85.6540972, 19.7332548 ], [ 85.6551647, 19.7336739 ], [ 85.6566238, 19.7343607 ], [ 85.6575948, 19.734805 ], [ 85.6581259, 19.7350171 ], [ 85.6586194, 19.7353099 ], [ 85.6598425, 19.7358755 ], [ 85.6605989, 19.7362845 ], [ 85.6609315, 19.7364157 ], [ 85.661661, 19.7366783 ], [ 85.6627554, 19.7372236 ], [ 85.6632167, 19.7374003 ], [ 85.6642306, 19.737779 ], [ 85.6647509, 19.7379962 ], [ 85.6656414, 19.7383496 ], [ 85.6670684, 19.7389934 ], [ 85.6678757, 19.7393216 ], [ 85.6684872, 19.7396119 ], [ 85.669013, 19.7398543 ], [ 85.6694797, 19.7400335 ], [ 85.6706089, 19.7405637 ], [ 85.6718588, 19.7411393 ], [ 85.6724247, 19.7413816 ], [ 85.6728244, 19.7415104 ], [ 85.673452, 19.7417603 ], [ 85.6745759, 19.7422274 ], [ 85.6757641, 19.7427045 ], [ 85.6767109, 19.7430807 ], [ 85.6775853, 19.7434442 ], [ 85.6785026, 19.7438178 ], [ 85.6797016, 19.7443278 ], [ 85.6807114, 19.7447519 ], [ 85.6811178, 19.7449286 ], [ 85.6816301, 19.7451331 ], [ 85.6822027, 19.745354 ], [ 85.6827593, 19.7455724 ], [ 85.6835532, 19.7458576 ], [ 85.6845188, 19.7461984 ], [ 85.6855917, 19.7465771 ], [ 85.6859913, 19.7467109 ], [ 85.6865063, 19.7469154 ], [ 85.6872573, 19.7472461 ], [ 85.687885, 19.7474859 ], [ 85.6887299, 19.7477762 ], [ 85.6899422, 19.7482332 ], [ 85.6901783, 19.7483417 ], [ 85.6904814, 19.748473 ], [ 85.6909776, 19.7486371 ], [ 85.6913089, 19.7487481 ], [ 85.6916401, 19.7488592 ], [ 85.692029, 19.7489816 ], [ 85.6924179, 19.7491041 ], [ 85.6928739, 19.7492505 ], [ 85.6931192, 19.7493461 ], [ 85.6934052, 19.7494577 ], [ 85.6938183, 19.7496188 ], [ 85.6940582, 19.7497123 ], [ 85.6942981, 19.7498059 ], [ 85.6946482, 19.749946 ], [ 85.6949982, 19.7500861 ], [ 85.6951043, 19.7501286 ], [ 85.6952252, 19.7501769 ], [ 85.6954617, 19.7502716 ], [ 85.6956983, 19.7503663 ], [ 85.6961435, 19.7505355 ], [ 85.6965887, 19.7507046 ], [ 85.6978226, 19.7511085 ], [ 85.698359, 19.75126 ], [ 85.6991851, 19.7515023 ], [ 85.7000756, 19.7518204 ], [ 85.7012612, 19.7522748 ], [ 85.7024789, 19.7526989 ], [ 85.7033372, 19.7530927 ], [ 85.7040718, 19.7533208 ], [ 85.7048065, 19.7535489 ], [ 85.7059389, 19.7539358 ], [ 85.7064523, 19.7541122 ], [ 85.7069045, 19.7542589 ], [ 85.7075214, 19.7544558 ], [ 85.7082349, 19.754731 ], [ 85.7089484, 19.7550061 ], [ 85.7094634, 19.7551526 ], [ 85.7105416, 19.755506 ], [ 85.7113284, 19.7558414 ], [ 85.7121992, 19.7560714 ], [ 85.7133043, 19.7564703 ], [ 85.7143557, 19.7568035 ], [ 85.7150969, 19.7570198 ], [ 85.7167214, 19.7575557 ], [ 85.7179499, 19.757959 ], [ 85.7191254, 19.7583547 ], [ 85.7202244, 19.7587926 ], [ 85.721029, 19.7590804 ], [ 85.7220375, 19.7594186 ], [ 85.7234162, 19.7599033 ], [ 85.7246661, 19.7603021 ], [ 85.7252938, 19.7605344 ], [ 85.7259965, 19.7607616 ], [ 85.7268172, 19.7610493 ], [ 85.727933, 19.761428 ], [ 85.7290468, 19.7618426 ], [ 85.73017, 19.762266 ], [ 85.7309221, 19.7624785 ], [ 85.7318563, 19.7627745 ], [ 85.7328617, 19.7631051 ], [ 85.7341048, 19.7635938 ], [ 85.7345796, 19.7637604 ], [ 85.7353896, 19.7640935 ], [ 85.7364812, 19.7644469 ], [ 85.7370231, 19.7646564 ], [ 85.7376882, 19.7649038 ], [ 85.7379913, 19.7650275 ], [ 85.7385921, 19.7651764 ], [ 85.7391393, 19.7653304 ], [ 85.7398367, 19.7655374 ], [ 85.7403275, 19.7657191 ], [ 85.7405314, 19.7657898 ], [ 85.7411054, 19.7659514 ], [ 85.7416579, 19.7661129 ], [ 85.7423231, 19.7663476 ], [ 85.7432324, 19.7667061 ], [ 85.7437687, 19.7669603 ], [ 85.7445198, 19.7671705 ], [ 85.7459092, 19.7676123 ], [ 85.7463115, 19.7677536 ], [ 85.7466441, 19.7678243 ], [ 85.7470089, 19.7679328 ], [ 85.747945, 19.7682534 ], [ 85.7485431, 19.7684755 ], [ 85.7493297, 19.7687705 ], [ 85.7498413, 19.7689122 ], [ 85.7502249, 19.7689955 ], [ 85.7505092, 19.7691065 ], [ 85.7507305, 19.7692088 ], [ 85.751338, 19.7694523 ], [ 85.7520622, 19.7697098 ], [ 85.7522687, 19.7697552 ], [ 85.7525879, 19.769889 ], [ 85.7537171, 19.7702904 ], [ 85.7547685, 19.770669 ], [ 85.7555383, 19.7708734 ], [ 85.7561338, 19.7710501 ], [ 85.7565093, 19.7711359 ], [ 85.7572174, 19.7714111 ], [ 85.7580677, 19.7717266 ], [ 85.7587972, 19.7719891 ], [ 85.7597977, 19.7723626 ], [ 85.7605487, 19.7726479 ], [ 85.7613802, 19.7729432 ], [ 85.7620776, 19.7732032 ], [ 85.7629278, 19.7734959 ], [ 85.7636735, 19.773708 ], [ 85.7646042, 19.7740336 ], [ 85.7660687, 19.774498 ], [ 85.7664978, 19.7746444 ], [ 85.7674313, 19.7750154 ], [ 85.7685551, 19.7754672 ], [ 85.7693061, 19.7757676 ], [ 85.7703951, 19.7761538 ], [ 85.7712749, 19.776492 ], [ 85.7723746, 19.7768706 ], [ 85.7734421, 19.7772643 ], [ 85.774236, 19.777499 ], [ 85.7746598, 19.7776379 ], [ 85.7776719, 19.778703 ], [ 85.7788682, 19.7791068 ], [ 85.7803112, 19.7796974 ], [ 85.7806653, 19.7798539 ], [ 85.7811052, 19.7800912 ], [ 85.7817489, 19.7803234 ], [ 85.7824141, 19.7806162 ], [ 85.7832777, 19.7807575 ], [ 85.7834709, 19.7808357 ], [ 85.7838866, 19.7811058 ], [ 85.7848097, 19.7815293 ], [ 85.7851875, 19.7817166 ], [ 85.7862121, 19.7822517 ], [ 85.7866359, 19.7824384 ], [ 85.7879931, 19.7828776 ], [ 85.7911902, 19.7840177 ], [ 85.7928693, 19.7846191 ], [ 85.7944626, 19.7851592 ], [ 85.7961041, 19.7856943 ], [ 85.8000845, 19.7869915 ], [ 85.8012271, 19.7873802 ], [ 85.8029598, 19.7879708 ], [ 85.8046228, 19.7884251 ], [ 85.8062696, 19.7889147 ], [ 85.8077609, 19.7893437 ], [ 85.8090055, 19.7897122 ], [ 85.8109903, 19.7903331 ], [ 85.8135331, 19.7911508 ], [ 85.8160275, 19.7919584 ], [ 85.8178031, 19.7924631 ], [ 85.8196324, 19.7929931 ], [ 85.8216762, 19.7936291 ], [ 85.8240205, 19.7943055 ], [ 85.8263111, 19.7949818 ], [ 85.8284783, 19.7956329 ], [ 85.8291167, 19.7958399 ], [ 85.8303398, 19.796178 ], [ 85.8322978, 19.7967635 ], [ 85.8332956, 19.7970815 ], [ 85.8348352, 19.7975206 ], [ 85.8361253, 19.7978967 ], [ 85.8371258, 19.7982134 ], [ 85.8390838, 19.7987774 ], [ 85.8406824, 19.7992468 ], [ 85.8420825, 19.7996052 ], [ 85.8437777, 19.8000998 ], [ 85.8466262, 19.8008771 ], [ 85.851202, 19.8021541 ], [ 85.8537233, 19.8028203 ], [ 85.8564216, 19.8035774 ], [ 85.8581436, 19.8040619 ], [ 85.859254, 19.8044051 ], [ 85.8606595, 19.8048391 ], [ 85.8618075, 19.8051622 ], [ 85.8637816, 19.8056467 ], [ 85.8657932, 19.8061918 ], [ 85.8677781, 19.8067369 ], [ 85.8685854, 19.8069564 ], [ 85.8697951, 19.8072466 ], [ 85.8707526, 19.8075001 ], [ 85.8713776, 19.8076655 ], [ 85.8742636, 19.8084932 ], [ 85.8759105, 19.8089475 ], [ 85.8793491, 19.8098054 ], [ 85.8819026, 19.8105019 ], [ 85.8838499, 19.8109763 ], [ 85.8865964, 19.8116829 ], [ 85.8883077, 19.8121422 ], [ 85.8908611, 19.812768 ], [ 85.8920789, 19.8130708 ], [ 85.8931357, 19.8133029 ], [ 85.8950669, 19.8137975 ], [ 85.8978081, 19.8145192 ], [ 85.8994389, 19.8149482 ], [ 85.9013271, 19.815352 ], [ 85.9025019, 19.8156295 ], [ 85.9049106, 19.8162553 ], [ 85.9070241, 19.8167449 ], [ 85.909642, 19.8173303 ], [ 85.9129654, 19.8180755 ], [ 85.9161436, 19.8188948 ], [ 85.9202528, 19.8201564 ], [ 85.9210884, 19.8205585 ], [ 85.9215594, 19.8207049 ], [ 85.9218713, 19.8208372 ], [ 85.922359, 19.8210286 ], [ 85.9229812, 19.8212326 ], [ 85.9241976, 19.8216597 ], [ 85.9245074, 19.8218248 ], [ 85.925547, 19.8222122 ], [ 85.9269666, 19.8227086 ], [ 85.9287504, 19.8232775 ], [ 85.9296537, 19.8235078 ], [ 85.9305297, 19.8238257 ], [ 85.9312302, 19.8240606 ], [ 85.9317825, 19.8242224 ], [ 85.9321799, 19.8243716 ], [ 85.933429, 19.8247324 ], [ 85.934269, 19.8249572 ], [ 85.9346418, 19.8250759 ], [ 85.9348868, 19.825163 ], [ 85.9357092, 19.8253918 ], [ 85.9363023, 19.8255633 ], [ 85.9367405, 19.8256523 ], [ 85.9380649, 19.8260063 ], [ 85.9394499, 19.8263919 ], [ 85.9403528, 19.8266166 ], [ 85.942488, 19.8271463 ], [ 85.9438214, 19.8274617 ], [ 85.9447171, 19.8276568 ], [ 85.9454745, 19.8278097 ], [ 85.9459894, 19.8279246 ], [ 85.9466441, 19.8280217 ], [ 85.9473257, 19.8282012 ], [ 85.9480275, 19.8283668 ], [ 85.9492248, 19.8285926 ], [ 85.9515434, 19.8290938 ], [ 85.9549069, 19.8296892 ], [ 85.9579056, 19.830315 ], [ 85.9599334, 19.8306935 ], [ 85.9618163, 19.8309761 ], [ 85.9634793, 19.8313394 ], [ 85.9656304, 19.8316977 ], [ 85.9675884, 19.832061 ], [ 85.969305, 19.8323688 ], [ 85.971542, 19.8327927 ], [ 85.9728563, 19.8330299 ], [ 85.9744177, 19.8332945 ], [ 85.9771049, 19.8337767 ], [ 85.9830755, 19.8348364 ], [ 85.9862673, 19.8354117 ], [ 85.9884345, 19.8358507 ], [ 85.9916049, 19.8364663 ], [ 85.9937024, 19.83687 ], [ 85.997479, 19.8375563 ], [ 85.9992707, 19.8379045 ], [ 86.001395, 19.838288 ], [ 86.0038948, 19.8387875 ], [ 86.0090393, 19.839822 ], [ 86.0140121, 19.8408059 ], [ 86.017153, 19.8414745 ], [ 86.019457, 19.8419261 ], [ 86.0225093, 19.8425417 ], [ 86.0267955, 19.843344 ], [ 86.0282332, 19.8436266 ], [ 86.0300517, 19.8439647 ], [ 86.0317361, 19.8443885 ], [ 86.0337424, 19.8447418 ], [ 86.034826, 19.8448729 ], [ 86.0357594, 19.8450899 ], [ 86.0366285, 19.8452968 ], [ 86.0375512, 19.8455088 ], [ 86.0390639, 19.8458317 ], [ 86.0404801, 19.8461193 ], [ 86.0423791, 19.8465683 ], [ 86.0441762, 19.8469569 ], [ 86.0503399, 19.8484857 ], [ 86.0538697, 19.8493839 ], [ 86.0550177, 19.8497068 ], [ 86.0566378, 19.8501206 ], [ 86.0576141, 19.8504535 ], [ 86.0586333, 19.8506857 ], [ 86.0593843, 19.8508673 ], [ 86.0597598, 19.8509279 ], [ 86.0609615, 19.8512306 ], [ 86.0621417, 19.8514022 ], [ 86.0635579, 19.8518159 ], [ 86.0654783, 19.8523305 ], [ 86.0665834, 19.8527342 ], [ 86.0675121, 19.8530576 ], [ 86.0684502, 19.8531681 ], [ 86.0689974, 19.8534103 ], [ 86.0707247, 19.853925 ], [ 86.0716045, 19.8541772 ], [ 86.0724091, 19.8544295 ], [ 86.0739863, 19.8550047 ], [ 86.075916, 19.8551864 ], [ 86.0763838, 19.8556228 ], [ 86.0766578, 19.8556909 ], [ 86.0770318, 19.8561089 ], [ 86.0771647, 19.8560239 ], [ 86.0778942, 19.8558649 ], [ 86.078605, 19.8560819 ], [ 86.0792703, 19.8564048 ], [ 86.0805362, 19.856917 ], [ 86.0812282, 19.8570178 ], [ 86.0823601, 19.8572045 ], [ 86.0834652, 19.8575123 ], [ 86.0853749, 19.8580723 ], [ 86.0864156, 19.8583599 ], [ 86.0872954, 19.8585971 ], [ 86.0898381, 19.8593287 ], [ 86.0903102, 19.8594649 ], [ 86.0908413, 19.8596062 ], [ 86.0914475, 19.8597575 ], [ 86.0926384, 19.8600956 ], [ 86.0959965, 19.8609634 ], [ 86.0991508, 19.8617706 ], [ 86.1016149, 19.8623081 ], [ 86.1089516, 19.8643185 ], [ 86.1122668, 19.8652266 ], [ 86.1155015, 19.8661398 ], [ 86.1168694, 19.8665283 ], [ 86.1209679, 19.8676231 ], [ 86.1263376, 19.869182 ], [ 86.1297494, 19.8701507 ], [ 86.1315036, 19.8706552 ], [ 86.1336493, 19.8712404 ], [ 86.1358005, 19.8719013 ], [ 86.137957, 19.8725571 ], [ 86.1398184, 19.8731272 ], [ 86.141476, 19.8736065 ], [ 86.1441636, 19.8744137 ], [ 86.1453652, 19.8747466 ], [ 86.148203, 19.875579 ], [ 86.1498392, 19.8761138 ], [ 86.1511749, 19.8765325 ], [ 86.152811, 19.8769815 ], [ 86.1556703, 19.8779148 ], [ 86.1576122, 19.8785656 ], [ 86.1601764, 19.8793677 ], [ 86.1623061, 19.8800437 ], [ 86.164425, 19.8806793 ], [ 86.1657929, 19.8811333 ], [ 86.1664581, 19.8812847 ], [ 86.1676651, 19.8816277 ], [ 86.1687219, 19.882001 ], [ 86.1703205, 19.8824803 ], [ 86.1720693, 19.88301 ], [ 86.1739522, 19.883575 ], [ 86.1753738, 19.8840693 ], [ 86.1762106, 19.8843569 ], [ 86.1789519, 19.8851388 ], [ 86.18128, 19.8859257 ], [ 86.1848688, 19.8869952 ], [ 86.1867142, 19.8875854 ], [ 86.1894929, 19.8884934 ], [ 86.1901367, 19.8886498 ], [ 86.1908984, 19.8889323 ], [ 86.1927599, 19.8894771 ], [ 86.1940098, 19.8899311 ], [ 86.195249, 19.8902842 ], [ 86.196928, 19.8908895 ], [ 86.1983603, 19.8914217 ], [ 86.2003183, 19.8920447 ], [ 86.2019786, 19.8926248 ], [ 86.203199, 19.8930182 ], [ 86.2043792, 19.8934495 ], [ 86.2056237, 19.8938757 ], [ 86.2068173, 19.8943247 ], [ 86.2081987, 19.8947787 ], [ 86.2093654, 19.8951192 ], [ 86.2100869, 19.8953663 ], [ 86.2113181, 19.8957951 ], [ 86.2122756, 19.8961885 ], [ 86.2142578, 19.8968443 ], [ 86.2156364, 19.8973966 ], [ 86.2166181, 19.8977346 ], [ 86.2173745, 19.8979893 ], [ 86.2195659, 19.8987106 ], [ 86.2208748, 19.8991923 ], [ 86.2221274, 19.8996261 ], [ 86.2235007, 19.9001356 ], [ 86.2252361, 19.9007207 ], [ 86.2266469, 19.9013411 ], [ 86.2282401, 19.9019666 ], [ 86.2292486, 19.9023701 ], [ 86.2314373, 19.9030611 ], [ 86.232841, 19.9036896 ], [ 86.2331271, 19.9038177 ], [ 86.2342043, 19.9042163 ], [ 86.2360514, 19.9060085 ], [ 86.2363574, 19.9062192 ], [ 86.2366927, 19.9065234 ], [ 86.2372995, 19.9069482 ], [ 86.2378554, 19.907291 ], [ 86.2381105, 19.9074426 ], [ 86.2388802, 19.9078023 ], [ 86.2395067, 19.9081169 ], [ 86.2400601, 19.9083806 ], [ 86.2404545, 19.9085572 ], [ 86.2410347, 19.9088616 ], [ 86.2413942, 19.9090556 ], [ 86.2416994, 19.909224 ], [ 86.2421405, 19.9094478 ], [ 86.242429, 19.909564 ], [ 86.2426729, 19.9097285 ], [ 86.2429485, 19.909876 ], [ 86.2434512, 19.9101581 ], [ 86.2439902, 19.9104231 ], [ 86.2449503, 19.9110809 ], [ 86.2456459, 19.9113918 ], [ 86.2464738, 19.9118072 ], [ 86.2468386, 19.9119989 ], [ 86.2472784, 19.9120846 ], [ 86.2477398, 19.912362 ], [ 86.2482011, 19.9126596 ], [ 86.248582, 19.9127907 ], [ 86.2491935, 19.913058 ], [ 86.2496602, 19.9132144 ], [ 86.250996, 19.9138196 ], [ 86.2529647, 19.9147376 ], [ 86.2548315, 19.9154638 ], [ 86.2574708, 19.9163313 ], [ 86.2590533, 19.9169769 ], [ 86.2600136, 19.9176074 ], [ 86.2609899, 19.9184143 ], [ 86.262331, 19.9194533 ], [ 86.2639081, 19.9204418 ], [ 86.2656033, 19.9212891 ], [ 86.2689507, 19.9227315 ], [ 86.2706995, 19.9236091 ], [ 86.2732261, 19.9248295 ], [ 86.2743097, 19.9254045 ], [ 86.2770778, 19.9267006 ], [ 86.2778449, 19.9270284 ], [ 86.2787914, 19.9274963 ], [ 86.2796742, 19.9278605 ], [ 86.2805486, 19.9282943 ], [ 86.2825388, 19.9291213 ], [ 86.2836837, 19.9295764 ], [ 86.2861866, 19.9307099 ], [ 86.2882197, 19.9315219 ], [ 86.29058, 19.9324851 ], [ 86.2916636, 19.9328936 ], [ 86.292302, 19.9331104 ], [ 86.2935305, 19.9335492 ], [ 86.2940133, 19.9337382 ], [ 86.294952, 19.9341241 ], [ 86.297012, 19.9348402 ], [ 86.2979346, 19.9351831 ], [ 86.2990129, 19.9355815 ], [ 86.3018775, 19.9366002 ], [ 86.3025105, 19.9368574 ], [ 86.3048655, 19.9377046 ], [ 86.3055897, 19.9378811 ], [ 86.3087547, 19.9390006 ], [ 86.309436, 19.9392578 ], [ 86.3102192, 19.9395351 ], [ 86.3115442, 19.9399789 ], [ 86.312499, 19.9403168 ], [ 86.3146341, 19.9409623 ], [ 86.3152242, 19.9411993 ], [ 86.3159054, 19.9414161 ], [ 86.3174075, 19.9418901 ], [ 86.319285, 19.9425306 ], [ 86.3201648, 19.9428432 ], [ 86.3241613, 19.9439879 ], [ 86.3270205, 19.9447292 ], [ 86.3286567, 19.945183 ], [ 86.3314462, 19.9459798 ], [ 86.3338816, 19.9466252 ], [ 86.3373524, 19.9475884 ], [ 86.3394231, 19.9481077 ], [ 86.3402009, 19.9483347 ], [ 86.34166, 19.9486675 ], [ 86.3427812, 19.9490053 ], [ 86.3439774, 19.9492826 ], [ 86.3445944, 19.9494188 ], [ 86.3453025, 19.9495802 ], [ 86.3458496, 19.9497919 ], [ 86.3465416, 19.9499533 ], [ 86.3473463, 19.950155 ], [ 86.3487518, 19.9505584 ], [ 86.3505918, 19.9509668 ], [ 86.3516713, 19.9511649 ], [ 86.352733, 19.9514095 ], [ 86.3530899, 19.9515058 ], [ 86.3535184, 19.9516218 ], [ 86.3540293, 19.9517655 ], [ 86.3543764, 19.9518845 ], [ 86.3546923, 19.9519827 ], [ 86.3550383, 19.9521109 ], [ 86.3553213, 19.9522249 ], [ 86.3556472, 19.9522924 ], [ 86.3560298, 19.9523896 ], [ 86.3562768, 19.952437 ], [ 86.3565366, 19.9525123 ], [ 86.356722, 19.9525739 ], [ 86.3568908, 19.9525695 ], [ 86.3570488, 19.9525599 ], [ 86.3571363, 19.9525653 ], [ 86.357283, 19.9526285 ], [ 86.3573319, 19.952687 ], [ 86.3574656, 19.9528186 ], [ 86.3578508, 19.9529289 ], [ 86.3582789, 19.9531149 ], [ 86.3586215, 19.9532649 ], [ 86.35898, 19.9532143 ], [ 86.3592062, 19.9531015 ], [ 86.3593783, 19.9531939 ], [ 86.3596575, 19.9534141 ], [ 86.3598267, 19.9534981 ], [ 86.3603349, 19.9536166 ], [ 86.3612884, 19.9537835 ], [ 86.3619378, 19.9540279 ], [ 86.362445, 19.9541845 ], [ 86.364963, 19.9554546 ], [ 86.3656121, 19.9557571 ], [ 86.3663793, 19.9561706 ], [ 86.3670713, 19.9565941 ], [ 86.3673931, 19.9567505 ], [ 86.3677311, 19.9568563 ], [ 86.3683373, 19.9570177 ], [ 86.3691902, 19.9573152 ], [ 86.3708103, 19.9580614 ], [ 86.3717008, 19.9585052 ], [ 86.371572, 19.9659473 ], [ 86.3712501, 19.9685086 ], [ 86.3709497, 19.9705254 ], [ 86.3702524, 19.9740647 ], [ 86.3700914, 19.9760007 ], [ 86.3699198, 19.9783098 ], [ 86.3698554, 19.980276 ], [ 86.3696837, 19.9808104 ], [ 86.3678062, 19.9808709 ], [ 86.3659716, 19.9809717 ], [ 86.3648343, 19.9808508 ], [ 86.3636005, 19.9804373 ], [ 86.3603067, 19.97954 ], [ 86.3564229, 19.9796206 ], [ 86.3542127, 19.9796811 ], [ 86.3526034, 19.9798223 ], [ 86.3511872, 19.9801248 ], [ 86.3500285, 19.9808508 ], [ 86.3484835, 19.9819801 ], [ 86.3474107, 19.9831497 ], [ 86.3465738, 19.9844403 ], [ 86.3459301, 19.9851662 ], [ 86.3436556, 19.9852671 ], [ 86.3411236, 19.9853276 ], [ 86.3404584, 19.9859124 ], [ 86.3402009, 19.98684 ], [ 86.3404584, 19.9880499 ], [ 86.3410806, 19.9889976 ], [ 86.341939, 19.9896631 ], [ 86.3422608, 19.9904294 ], [ 86.3415313, 19.9911755 ], [ 86.3384199, 19.9931717 ], [ 86.3370681, 19.9953495 ], [ 86.3362098, 19.9977893 ], [ 86.3362527, 19.9991605 ], [ 86.3353944, 20.0002493 ], [ 86.3331842, 20.0008946 ], [ 86.3307166, 20.0021245 ], [ 86.3293004, 20.0039191 ], [ 86.3280558, 20.0060362 ], [ 86.3267898, 20.0089195 ], [ 86.3235282, 20.0153713 ], [ 86.3223695, 20.0175084 ], [ 86.3210392, 20.0187987 ], [ 86.3182067, 20.0197665 ], [ 86.3164901, 20.0206132 ], [ 86.3140869, 20.0232342 ], [ 86.3121986, 20.0232342 ], [ 86.3090658, 20.0231535 ], [ 86.3066625, 20.023718 ], [ 86.3039588, 20.0245647 ], [ 86.3004398, 20.0263792 ], [ 86.2986373, 20.0270243 ], [ 86.2960624, 20.0282339 ], [ 86.2920713, 20.0316208 ], [ 86.2889814, 20.033798 ], [ 86.2853765, 20.0365799 ], [ 86.2808275, 20.0388377 ], [ 86.2764072, 20.0403698 ], [ 86.273489, 20.0410551 ], [ 86.2719011, 20.0411358 ], [ 86.2698841, 20.0407326 ], [ 86.2691974, 20.0410955 ], [ 86.268897, 20.0425872 ], [ 86.2691974, 20.0439579 ], [ 86.2707853, 20.0447642 ], [ 86.2728452, 20.0456915 ], [ 86.274476, 20.0468203 ], [ 86.2751627, 20.048312 ], [ 86.275978, 20.0502874 ], [ 86.2779951, 20.0542785 ], [ 86.2767505, 20.0543591 ], [ 86.2727165, 20.05448 ], [ 86.2709378, 20.0538374 ], [ 86.2693691, 20.0532706 ], [ 86.2667512, 20.0519 ], [ 86.2651205, 20.0510534 ], [ 86.2635755, 20.0510131 ], [ 86.2620735, 20.0516984 ], [ 86.259756, 20.0523837 ], [ 86.2579536, 20.0525853 ], [ 86.2547779, 20.0524644 ], [ 86.2543487, 20.050368 ], [ 86.2539196, 20.0487554 ], [ 86.2522888, 20.0475863 ], [ 86.2504863, 20.0454899 ], [ 86.2488126, 20.0427081 ], [ 86.245594, 20.0348463 ], [ 86.2429332, 20.035451 ], [ 86.2406587, 20.037225 ], [ 86.2387275, 20.0385152 ], [ 86.2372255, 20.0393618 ], [ 86.2358951, 20.0396844 ], [ 86.2338781, 20.0403698 ], [ 86.232891, 20.0405713 ], [ 86.2306165, 20.0412567 ], [ 86.2304878, 20.0427081 ], [ 86.2291145, 20.0425872 ], [ 86.227827, 20.0416196 ], [ 86.2266683, 20.0408536 ], [ 86.2258958, 20.0392409 ], [ 86.2250804, 20.0377491 ], [ 86.2238359, 20.0367412 ], [ 86.2222909, 20.0358139 ], [ 86.2205314, 20.0356123 ], [ 86.2186002, 20.0356929 ], [ 86.2168836, 20.0366202 ], [ 86.2147378, 20.0373863 ], [ 86.2137508, 20.0375879 ], [ 86.2140512, 20.0387571 ], [ 86.2127208, 20.0391199 ], [ 86.2110042, 20.0404504 ], [ 86.2098455, 20.0403698 ], [ 86.209073, 20.0384749 ], [ 86.2086439, 20.037346 ], [ 86.2072277, 20.037346 ], [ 86.2054252, 20.0376685 ], [ 86.2040948, 20.0388377 ], [ 86.2031078, 20.0404101 ], [ 86.2022066, 20.0415793 ], [ 86.2032365, 20.043071 ], [ 86.2043523, 20.0444014 ], [ 86.2057256, 20.0442804 ], [ 86.2061977, 20.0457318 ], [ 86.2044382, 20.0457721 ], [ 86.2025928, 20.046014 ], [ 86.2016487, 20.0466188 ], [ 86.2013912, 20.0479088 ], [ 86.2012195, 20.0498036 ], [ 86.2008762, 20.0513759 ], [ 86.1997604, 20.0515371 ], [ 86.1987304, 20.0506502 ], [ 86.1972713, 20.0515775 ], [ 86.1961555, 20.0502068 ], [ 86.1952972, 20.0495617 ], [ 86.1939668, 20.0493602 ], [ 86.1929798, 20.0499649 ], [ 86.1925506, 20.0507712 ], [ 86.1913061, 20.0511743 ], [ 86.1900615, 20.0508518 ], [ 86.1888599, 20.0502471 ], [ 86.1874008, 20.0500455 ], [ 86.1860275, 20.0502471 ], [ 86.1833882, 20.0485337 ], [ 86.1786246, 20.0485135 ], [ 86.1750841, 20.0482515 ], [ 86.1734962, 20.0475258 ], [ 86.1719942, 20.0462761 ], [ 86.1711788, 20.0451674 ], [ 86.1709428, 20.0435547 ], [ 86.1709642, 20.0417405 ], [ 86.1711788, 20.0402891 ], [ 86.1705565, 20.0394223 ], [ 86.1693978, 20.0397448 ], [ 86.1668658, 20.0418413 ], [ 86.164484, 20.0428895 ], [ 86.1619091, 20.0431314 ], [ 86.1603641, 20.042567 ], [ 86.1591196, 20.0420429 ], [ 86.1570382, 20.0415994 ], [ 86.1548924, 20.0408132 ], [ 86.1536479, 20.0394223 ], [ 86.1524248, 20.0403496 ], [ 86.1505151, 20.0418413 ], [ 86.1495709, 20.0419622 ], [ 86.1479616, 20.0420429 ], [ 86.1458373, 20.0418816 ], [ 86.1441636, 20.0416397 ], [ 86.1427903, 20.0411761 ], [ 86.1419534, 20.0406318 ], [ 86.1406445, 20.0385756 ], [ 86.1390137, 20.0381725 ], [ 86.1351728, 20.0374871 ], [ 86.1336708, 20.0376282 ], [ 86.1308384, 20.0380313 ], [ 86.1294651, 20.0381926 ], [ 86.1282205, 20.0378902 ], [ 86.1265468, 20.0375475 ], [ 86.1251306, 20.0382128 ], [ 86.1241221, 20.0389385 ], [ 86.1225128, 20.0396239 ], [ 86.1215901, 20.0407931 ], [ 86.1202383, 20.0420026 ], [ 86.1191196, 20.0427732 ], [ 86.1183071, 20.043333 ], [ 86.1169123, 20.0461148 ], [ 86.1167192, 20.0476468 ], [ 86.1170625, 20.0488361 ], [ 86.1179852, 20.0502874 ], [ 86.1203241, 20.0518999 ], [ 86.1236715, 20.0550444 ], [ 86.1252165, 20.0559918 ], [ 86.1263537, 20.0567577 ], [ 86.1263752, 20.0577655 ], [ 86.1257958, 20.0588539 ], [ 86.1232209, 20.0605067 ], [ 86.1210751, 20.060547 ], [ 86.1198306, 20.0609703 ], [ 86.1177921, 20.0623409 ], [ 86.1128354, 20.0652836 ], [ 86.1115479, 20.0662309 ], [ 86.1100673, 20.0664728 ], [ 86.106956, 20.0664123 ], [ 86.1042094, 20.0662914 ], [ 86.1022782, 20.0659689 ], [ 86.1018061, 20.0650417 ], [ 86.1009478, 20.0643766 ], [ 86.0995531, 20.0639735 ], [ 86.0966348, 20.0622804 ], [ 86.0950255, 20.0615951 ], [ 86.0933304, 20.0610106 ], [ 86.0924506, 20.060023 ], [ 86.0921716, 20.0588136 ], [ 86.0918283, 20.0575639 ], [ 86.0907769, 20.0568182 ], [ 86.0896611, 20.0568988 ], [ 86.0889959, 20.0575438 ], [ 86.0875153, 20.0583097 ], [ 86.0865497, 20.0585919 ], [ 86.0862279, 20.0598013 ], [ 86.0857987, 20.061575 ], [ 86.0848546, 20.0649208 ], [ 86.0833525, 20.0667348 ], [ 86.0822797, 20.0676821 ], [ 86.0812282, 20.0684882 ], [ 86.0796189, 20.0692743 ], [ 86.0789537, 20.0698185 ], [ 86.0788893, 20.070806 ], [ 86.0784817, 20.0718339 ], [ 86.0771298, 20.0723579 ], [ 86.0763359, 20.0736881 ], [ 86.0764861, 20.0744338 ], [ 86.0768938, 20.074978 ], [ 86.07728, 20.0757841 ], [ 86.0766792, 20.0764089 ], [ 86.0757351, 20.0780413 ], [ 86.0760784, 20.0786056 ], [ 86.0766148, 20.0793312 ], [ 86.0770225, 20.0799559 ], [ 86.0769367, 20.0808628 ], [ 86.0768294, 20.0820317 ], [ 86.0768294, 20.0831603 ], [ 86.0777306, 20.0839261 ], [ 86.0789966, 20.0843493 ], [ 86.0804987, 20.0848733 ], [ 86.0825372, 20.0853972 ], [ 86.0847902, 20.0855786 ], [ 86.0877943, 20.0856592 ], [ 86.0884166, 20.0865862 ], [ 86.0892749, 20.0885007 ], [ 86.0889745, 20.0928938 ], [ 86.0876972, 20.0957426 ], [ 86.0871155, 20.0970401 ], [ 86.0865712, 20.0982541 ], [ 86.0814213, 20.1029895 ], [ 86.0789966, 20.1030097 ], [ 86.0778594, 20.1033321 ], [ 86.0770869, 20.1040575 ], [ 86.0762501, 20.1047325 ], [ 86.0753381, 20.1055083 ], [ 86.0742545, 20.1060725 ], [ 86.0733855, 20.1063244 ], [ 86.072495, 20.1063244 ], [ 86.0714543, 20.1062337 ], [ 86.0708749, 20.1059617 ], [ 86.0691905, 20.1047426 ], [ 86.067388, 20.1043799 ], [ 86.0657787, 20.1042993 ], [ 86.0644054, 20.1040978 ], [ 86.063354, 20.1037149 ], [ 86.0624957, 20.10305 ], [ 86.0617447, 20.1024052 ], [ 86.0607576, 20.1015387 ], [ 86.059556, 20.1010148 ], [ 86.0584402, 20.1011155 ], [ 86.057496, 20.1014782 ], [ 86.056745, 20.102123 ], [ 86.0561657, 20.102788 ], [ 86.0556721, 20.1034933 ], [ 86.0545349, 20.1050247 ], [ 86.0537839, 20.1054277 ], [ 86.0526037, 20.1044806 ], [ 86.0517239, 20.103997 ], [ 86.0505867, 20.1034328 ], [ 86.0495353, 20.1031306 ], [ 86.0483122, 20.103191 ], [ 86.0466385, 20.1035739 ], [ 86.0453725, 20.1044 ], [ 86.0427332, 20.1049038 ], [ 86.0382056, 20.1049441 ], [ 86.0351801, 20.104803 ], [ 86.0339141, 20.104803 ], [ 86.0324549, 20.1052463 ], [ 86.0315323, 20.1048433 ], [ 86.030674, 20.1040978 ], [ 86.0277772, 20.1030097 ], [ 86.0262537, 20.1025462 ], [ 86.0256099, 20.1018208 ], [ 86.0249233, 20.101176 ], [ 86.0241723, 20.0998863 ], [ 86.0235929, 20.0994229 ], [ 86.02252, 20.1000677 ], [ 86.0203314, 20.1006924 ], [ 86.0191083, 20.1009543 ], [ 86.0184431, 20.1012767 ], [ 86.0162544, 20.1029291 ], [ 86.0149455, 20.1042187 ], [ 86.014409, 20.105206 ], [ 86.0134864, 20.1070397 ], [ 86.0127997, 20.10843 ], [ 86.011877, 20.108833 ], [ 86.0112977, 20.1095181 ], [ 86.0109114, 20.1104651 ], [ 86.0106754, 20.1119159 ], [ 86.0100317, 20.112742 ], [ 86.0093236, 20.1126816 ], [ 86.0071564, 20.1123995 ], [ 86.0062337, 20.1123995 ], [ 86.0057831, 20.1126614 ], [ 86.0055256, 20.1132256 ], [ 86.0054183, 20.1139509 ], [ 86.005032, 20.1143136 ], [ 86.0043025, 20.1141121 ], [ 86.003294, 20.1135681 ], [ 86.0031867, 20.112742 ], [ 86.0030579, 20.1115129 ], [ 86.0030365, 20.1105054 ], [ 86.0023927, 20.1098606 ], [ 86.0016632, 20.1093166 ], [ 86.0011482, 20.1085509 ], [ 86.0008263, 20.1076643 ], [ 85.9996462, 20.1073822 ], [ 85.9988737, 20.1073822 ], [ 85.9976077, 20.1077651 ], [ 85.9965348, 20.1080875 ], [ 85.9943032, 20.1083897 ], [ 85.9920072, 20.1085308 ], [ 85.99087, 20.1091554 ], [ 85.9902262, 20.1104853 ], [ 85.9897327, 20.1112107 ], [ 85.9886169, 20.1115532 ], [ 85.9871578, 20.1120166 ], [ 85.9858918, 20.1123189 ], [ 85.9845185, 20.1126614 ], [ 85.9833812, 20.1126614 ], [ 85.9825659, 20.1121778 ], [ 85.981493, 20.111936 ], [ 85.9805488, 20.1122181 ], [ 85.9797549, 20.1133666 ], [ 85.9785104, 20.1139912 ], [ 85.9770727, 20.1143338 ], [ 85.9757638, 20.1148576 ], [ 85.9744119, 20.1154218 ], [ 85.9737468, 20.1159658 ], [ 85.9732318, 20.1167113 ], [ 85.9721374, 20.1173964 ], [ 85.9710002, 20.1176785 ], [ 85.9694338, 20.1176583 ], [ 85.9667945, 20.1176986 ], [ 85.9652495, 20.1181217 ], [ 85.9638977, 20.118565 ], [ 85.9623742, 20.1186859 ], [ 85.9615803, 20.1199351 ], [ 85.9610009, 20.1206 ], [ 85.9600997, 20.1213253 ], [ 85.9596705, 20.1204589 ], [ 85.9593701, 20.1194515 ], [ 85.9590268, 20.118565 ], [ 85.9580827, 20.1178598 ], [ 85.9575033, 20.1175374 ], [ 85.9572029, 20.1166307 ], [ 85.9569239, 20.1155226 ], [ 85.9564304, 20.1144547 ], [ 85.9546065, 20.1135883 ], [ 85.953598, 20.1127622 ], [ 85.9525895, 20.1124196 ], [ 85.9520745, 20.1126211 ], [ 85.951581, 20.1134875 ], [ 85.9507441, 20.114233 ], [ 85.9504008, 20.1145756 ], [ 85.9506368, 20.1153412 ], [ 85.9509802, 20.1159457 ], [ 85.9498644, 20.1167718 ], [ 85.9493279, 20.1176382 ], [ 85.949285, 20.1186456 ], [ 85.9483194, 20.118968 ], [ 85.9470534, 20.1184844 ], [ 85.9464955, 20.1179605 ], [ 85.9463453, 20.1171747 ], [ 85.9468174, 20.1164897 ], [ 85.9471178, 20.1158046 ], [ 85.9467959, 20.1141121 ], [ 85.9456372, 20.1134674 ], [ 85.9445429, 20.1133062 ], [ 85.9434056, 20.1135883 ], [ 85.9423542, 20.1139711 ], [ 85.9409165, 20.114636 ], [ 85.9388137, 20.11518 ], [ 85.9358525, 20.1151397 ], [ 85.9347582, 20.1160666 ], [ 85.9342432, 20.11653 ], [ 85.9337497, 20.1161673 ], [ 85.933342, 20.1157442 ], [ 85.9327626, 20.1155427 ], [ 85.9319043, 20.1156032 ], [ 85.9311962, 20.1156636 ], [ 85.9302735, 20.1156435 ], [ 85.9298229, 20.1151196 ], [ 85.9299516, 20.1141323 ], [ 85.9299516, 20.1133666 ], [ 85.9296727, 20.1127219 ], [ 85.9289002, 20.1125204 ], [ 85.9276557, 20.1129233 ], [ 85.9263038, 20.1131853 ], [ 85.9249091, 20.1140517 ], [ 85.9232354, 20.1151599 ], [ 85.9221196, 20.115724 ], [ 85.9210467, 20.1162278 ], [ 85.9182572, 20.1181217 ], [ 85.9173131, 20.1190284 ], [ 85.9170556, 20.1204388 ], [ 85.9164977, 20.1212649 ], [ 85.9158325, 20.1207813 ], [ 85.9150171, 20.120197 ], [ 85.9139228, 20.1199149 ], [ 85.912528, 20.1202574 ], [ 85.9113908, 20.1210835 ], [ 85.9107899, 20.1216678 ], [ 85.9097171, 20.1225543 ], [ 85.9088588, 20.123058 ], [ 85.907743, 20.1236222 ], [ 85.9054041, 20.1251131 ], [ 85.9043956, 20.1247504 ], [ 85.9043097, 20.1234005 ], [ 85.9041166, 20.1219297 ], [ 85.9038377, 20.1207612 ], [ 85.9037947, 20.1184441 ], [ 85.902636, 20.117477 ], [ 85.9020138, 20.1166509 ], [ 85.9014559, 20.1156233 ], [ 85.9007907, 20.1139711 ], [ 85.9005332, 20.1125204 ], [ 85.8996749, 20.1113316 ], [ 85.8989239, 20.1105457 ], [ 85.8980655, 20.1106263 ], [ 85.897057, 20.1109286 ], [ 85.8955121, 20.111392 ], [ 85.8938169, 20.1118756 ], [ 85.8925509, 20.1119562 ], [ 85.891757, 20.1115935 ], [ 85.8905554, 20.1112107 ], [ 85.8893323, 20.1106465 ], [ 85.8883023, 20.1093972 ], [ 85.8866715, 20.1098606 ], [ 85.8852553, 20.1102838 ], [ 85.883882, 20.1104853 ], [ 85.8813715, 20.111392 ], [ 85.8802771, 20.1122584 ], [ 85.8791184, 20.1131047 ], [ 85.8784747, 20.1139106 ], [ 85.8783889, 20.1158852 ], [ 85.8782601, 20.1169733 ], [ 85.8779168, 20.1173964 ], [ 85.877037, 20.1175374 ], [ 85.8759641, 20.1176785 ], [ 85.8751273, 20.1179404 ], [ 85.8750844, 20.1194515 ], [ 85.8751488, 20.1202172 ], [ 85.8747411, 20.120882 ], [ 85.8739257, 20.1211037 ], [ 85.8732176, 20.1213052 ], [ 85.872488, 20.1216074 ], [ 85.8725738, 20.1228968 ], [ 85.8730674, 20.1241661 ], [ 85.8736896, 20.1250929 ], [ 85.8745479, 20.1261406 ], [ 85.8752131, 20.1270674 ], [ 85.8768225, 20.1277927 ], [ 85.8789038, 20.1278733 ], [ 85.8797192, 20.1271278 ], [ 85.8799553, 20.1261003 ], [ 85.8812642, 20.1261003 ], [ 85.8826589, 20.1261809 ], [ 85.883882, 20.126201 ], [ 85.8846545, 20.1269868 ], [ 85.8845258, 20.1275509 ], [ 85.8838606, 20.1287396 ], [ 85.8842897, 20.1297872 ], [ 85.8850837, 20.1305125 ], [ 85.8860492, 20.1313184 ], [ 85.8861565, 20.1321847 ], [ 85.8857488, 20.133595 ], [ 85.8869076, 20.1348642 ], [ 85.8900189, 20.1380876 ], [ 85.8907699, 20.1398201 ], [ 85.8920145, 20.141049 ], [ 85.8932376, 20.1404446 ], [ 85.8941173, 20.1400417 ], [ 85.8948684, 20.1402432 ], [ 85.8963275, 20.1417339 ], [ 85.9005976, 20.1463069 ], [ 85.9028506, 20.1486034 ], [ 85.9035373, 20.1501343 ], [ 85.9036445, 20.151061 ], [ 85.9029364, 20.1518869 ], [ 85.9020781, 20.1519272 ], [ 85.9014559, 20.1515243 ], [ 85.9009194, 20.1510408 ], [ 85.9003186, 20.1507588 ], [ 85.8995676, 20.1508595 ], [ 85.8990097, 20.1514034 ], [ 85.8988595, 20.15233 ], [ 85.8988595, 20.1533977 ], [ 85.8987307, 20.1553516 ], [ 85.8981085, 20.1568825 ], [ 85.8968639, 20.1577084 ], [ 85.8958125, 20.158353 ], [ 85.8947825, 20.1593199 ], [ 85.89401, 20.1605083 ], [ 85.893538, 20.1617773 ], [ 85.8930659, 20.1631067 ], [ 85.8930874, 20.1643959 ], [ 85.8929801, 20.1671755 ], [ 85.8920359, 20.1682229 ], [ 85.8907056, 20.1689681 ], [ 85.8895254, 20.1694717 ], [ 85.8891821, 20.1705593 ], [ 85.8892035, 20.1718887 ], [ 85.8892035, 20.172936 ], [ 85.8898043, 20.1736611 ], [ 85.8907485, 20.1745272 ], [ 85.8911133, 20.175494 ], [ 85.8924007, 20.1759371 ], [ 85.8929157, 20.1770851 ], [ 85.891757, 20.1782935 ], [ 85.8899116, 20.1797638 ], [ 85.8869934, 20.1836106 ], [ 85.885148, 20.1850808 ], [ 85.8832598, 20.1854433 ], [ 85.8816719, 20.1863697 ], [ 85.8799982, 20.1874774 ], [ 85.8783245, 20.1885851 ], [ 85.8771229, 20.1893101 ], [ 85.8762431, 20.1899344 ], [ 85.8757818, 20.190312 ], [ 85.8752775, 20.1908205 ], [ 85.8744836, 20.1915657 ], [ 85.8735823, 20.1916865 ], [ 85.8726811, 20.191606 ], [ 85.8721447, 20.1909011 ], [ 85.8715439, 20.190015 ], [ 85.8706212, 20.1897532 ], [ 85.8701706, 20.1897532 ], [ 85.8690762, 20.1897532 ], [ 85.8673596, 20.1906393 ], [ 85.8657717, 20.1917469 ], [ 85.8644414, 20.193358 ], [ 85.8636904, 20.1945462 ], [ 85.8629393, 20.1955129 ], [ 85.8624673, 20.1971642 ], [ 85.8619523, 20.1983725 ], [ 85.8604288, 20.198292 ], [ 85.8598923, 20.1979295 ], [ 85.859034, 20.197567 ], [ 85.858283, 20.197567 ], [ 85.8571887, 20.1982114 ], [ 85.8568239, 20.1992989 ], [ 85.8562231, 20.2005675 ], [ 85.855, 20.201212 ], [ 85.8528757, 20.2017959 ], [ 85.8513522, 20.2018564 ], [ 85.8499574, 20.201655 ], [ 85.8475542, 20.2015744 ], [ 85.8465028, 20.2011515 ], [ 85.8458376, 20.2006481 ], [ 85.8459019, 20.1996009 ], [ 85.8456874, 20.1986746 ], [ 85.8446789, 20.1984531 ], [ 85.8431983, 20.1983725 ], [ 85.8429193, 20.197567 ], [ 85.8430052, 20.1963385 ], [ 85.8437133, 20.1954122 ], [ 85.8448076, 20.19509 ], [ 85.8462024, 20.1954726 ], [ 85.8466744, 20.1944053 ], [ 85.8470607, 20.19364 ], [ 85.848906, 20.1934185 ], [ 85.8502579, 20.1934185 ], [ 85.8519959, 20.1934386 ], [ 85.8530044, 20.193358 ], [ 85.854249, 20.1927942 ], [ 85.8550858, 20.1918879 ], [ 85.8561587, 20.1914851 ], [ 85.8567595, 20.1909615 ], [ 85.8570385, 20.1897934 ], [ 85.8568668, 20.184537 ], [ 85.8568024, 20.1784949 ], [ 85.8568239, 20.1749502 ], [ 85.8541417, 20.1746883 ], [ 85.8525109, 20.1746883 ], [ 85.851438, 20.1744869 ], [ 85.8503437, 20.1745675 ], [ 85.8485627, 20.1748494 ], [ 85.8478546, 20.1758364 ], [ 85.8470177, 20.1762996 ], [ 85.8465457, 20.1756148 ], [ 85.8454513, 20.1751918 ], [ 85.8446145, 20.1754738 ], [ 85.843842, 20.1766017 ], [ 85.8431339, 20.1779511 ], [ 85.8431124, 20.1796631 ], [ 85.8431983, 20.1826237 ], [ 85.8429622, 20.1853023 ], [ 85.8428979, 20.1869739 ], [ 85.8427906, 20.1878802 ], [ 85.8411383, 20.1878601 ], [ 85.8400869, 20.1878601 ], [ 85.839293, 20.1884844 ], [ 85.8387565, 20.1897934 ], [ 85.8380914, 20.1900754 ], [ 85.8374905, 20.1893101 ], [ 85.8371043, 20.1886254 ], [ 85.8365035, 20.1882629 ], [ 85.835731, 20.1881219 ], [ 85.8348083, 20.187699 ], [ 85.8343363, 20.1864906 ], [ 85.8344865, 20.1852218 ], [ 85.8347654, 20.1838724 ], [ 85.8343577, 20.1827244 ], [ 85.833714, 20.181375 ], [ 85.8331132, 20.1802472 ], [ 85.8318686, 20.1779511 ], [ 85.8305383, 20.1758162 ], [ 85.8298516, 20.1745272 ], [ 85.8294225, 20.1728555 ], [ 85.8283067, 20.1699954 ], [ 85.8271694, 20.1654835 ], [ 85.8267402, 20.1633484 ], [ 85.8263111, 20.1619586 ], [ 85.8262253, 20.1600249 ], [ 85.825324, 20.1593199 ], [ 85.8239722, 20.1594206 ], [ 85.8229422, 20.1595817 ], [ 85.821805, 20.1598637 ], [ 85.8209038, 20.159199 ], [ 85.8200669, 20.1586753 ], [ 85.8191442, 20.1584537 ], [ 85.8180928, 20.1587357 ], [ 85.8171701, 20.1590781 ], [ 85.8159685, 20.159199 ], [ 85.8147239, 20.1591789 ], [ 85.8130717, 20.1591789 ], [ 85.8106684, 20.1597832 ], [ 85.8085012, 20.1600853 ], [ 85.807085, 20.160468 ], [ 85.8063555, 20.1606896 ], [ 85.8057332, 20.1605889 ], [ 85.805583, 20.159904 ], [ 85.8058405, 20.1592393 ], [ 85.8059263, 20.1583933 ], [ 85.8054542, 20.1573055 ], [ 85.8048963, 20.1562178 ], [ 85.8042097, 20.1549286 ], [ 85.8035874, 20.1536797 ], [ 85.8020425, 20.1518264 ], [ 85.8004975, 20.1510811 ], [ 85.799253, 20.1507588 ], [ 85.7980299, 20.1509804 ], [ 85.7963776, 20.1515444 ], [ 85.7947683, 20.1522293 ], [ 85.7929873, 20.1532164 ], [ 85.7917642, 20.1541833 ], [ 85.7909918, 20.1547675 ], [ 85.7902407, 20.155271 ], [ 85.7888245, 20.1563588 ], [ 85.7882023, 20.1558351 ], [ 85.7875371, 20.1552912 ], [ 85.7863998, 20.1554725 ], [ 85.7845974, 20.1559156 ], [ 85.7831597, 20.1564192 ], [ 85.7816362, 20.1568422 ], [ 85.780499, 20.1571645 ], [ 85.7797479, 20.1583731 ], [ 85.7803058, 20.1595213 ], [ 85.7811427, 20.1602062 ], [ 85.7820654, 20.1609313 ], [ 85.7826876, 20.1620593 ], [ 85.7831383, 20.1629456 ], [ 85.7832241, 20.1641541 ], [ 85.7829237, 20.1653828 ], [ 85.7810569, 20.1669338 ], [ 85.7792759, 20.1674373 ], [ 85.7776665, 20.1677395 ], [ 85.7762933, 20.1679812 ], [ 85.7746196, 20.1680215 ], [ 85.7730746, 20.1677798 ], [ 85.771594, 20.1676186 ], [ 85.770092, 20.167538 ], [ 85.7669163, 20.1676186 ], [ 85.7650494, 20.1677596 ], [ 85.7635474, 20.1680618 ], [ 85.7632041, 20.1673568 ], [ 85.7631397, 20.1658058 ], [ 85.7630753, 20.1643757 ], [ 85.7626247, 20.1630866 ], [ 85.7623243, 20.1618579 ], [ 85.761981, 20.160609 ], [ 85.7620024, 20.1593602 ], [ 85.762496, 20.1580911 ], [ 85.7630539, 20.1573257 ], [ 85.7635903, 20.1564595 ], [ 85.7641697, 20.1555531 ], [ 85.764513, 20.154566 ], [ 85.764234, 20.1536394 ], [ 85.7635045, 20.1533372 ], [ 85.7620239, 20.1537804 ], [ 85.7612729, 20.1538811 ], [ 85.7598996, 20.1537401 ], [ 85.7585907, 20.1534178 ], [ 85.7573461, 20.1530149 ], [ 85.7561016, 20.1526322 ], [ 85.7552433, 20.1522293 ], [ 85.7550072, 20.1513228 ], [ 85.7549, 20.150094 ], [ 85.7544493, 20.148966 ], [ 85.7539987, 20.1483213 ], [ 85.7534194, 20.1477371 ], [ 85.7532263, 20.1469313 ], [ 85.7533765, 20.1463069 ], [ 85.7543421, 20.1462464 ], [ 85.7552433, 20.1463471 ], [ 85.756166, 20.1460047 ], [ 85.7574963, 20.1454809 ], [ 85.7587409, 20.1448161 ], [ 85.7597708, 20.1442924 ], [ 85.7605862, 20.1440909 ], [ 85.7605648, 20.1429426 ], [ 85.7604575, 20.1418145 ], [ 85.7601142, 20.1410691 ], [ 85.7589555, 20.1396388 ], [ 85.7582474, 20.1390143 ], [ 85.757153, 20.1386114 ], [ 85.7556939, 20.13843 ], [ 85.754621, 20.1384703 ], [ 85.754385, 20.1388531 ], [ 85.7542133, 20.1397395 ], [ 85.7540417, 20.1404245 ], [ 85.7533765, 20.1405856 ], [ 85.7523894, 20.141049 ], [ 85.7515096, 20.141472 ], [ 85.7510161, 20.1408878 ], [ 85.7506728, 20.1403842 ], [ 85.7496428, 20.1400618 ], [ 85.7489133, 20.1407871 ], [ 85.7488704, 20.1421368 ], [ 85.7491278, 20.1431441 ], [ 85.7494497, 20.1443125 ], [ 85.7492351, 20.1455212 ], [ 85.7482052, 20.1461457 ], [ 85.7471752, 20.1469112 ], [ 85.7456732, 20.1476163 ], [ 85.7445144, 20.1479789 ], [ 85.7427549, 20.1483616 ], [ 85.741961, 20.1486638 ], [ 85.7404589, 20.1490062 ], [ 85.7371545, 20.1498523 ], [ 85.7349229, 20.1501142 ], [ 85.7323909, 20.150094 ], [ 85.7309103, 20.149953 ], [ 85.7295584, 20.1497516 ], [ 85.7285929, 20.1494696 ], [ 85.7275843, 20.1489861 ], [ 85.7270264, 20.1484825 ], [ 85.7265329, 20.1477774 ], [ 85.7259536, 20.1470724 ], [ 85.7252884, 20.1465083 ], [ 85.7244944, 20.1463069 ], [ 85.723443, 20.1461054 ], [ 85.7231426, 20.1455816 ], [ 85.7230568, 20.1443125 ], [ 85.7217693, 20.1417339 ], [ 85.721941, 20.1403238 ], [ 85.7223701, 20.1394776 ], [ 85.7233142, 20.1384704 ], [ 85.7249021, 20.1378257 ], [ 85.7264041, 20.1368587 ], [ 85.7272195, 20.135932 ], [ 85.7280349, 20.1348441 ], [ 85.7279491, 20.1321444 ], [ 85.727477, 20.1310968 ], [ 85.7270908, 20.1301701 ], [ 85.7265329, 20.1289209 ], [ 85.7248592, 20.1283165 ], [ 85.723958, 20.1286389 ], [ 85.7222843, 20.1296865 ], [ 85.7206964, 20.1304118 ], [ 85.7194089, 20.1314594 ], [ 85.7179069, 20.1334338 ], [ 85.7167911, 20.134562 ], [ 85.7155466, 20.135932 ], [ 85.7150316, 20.1372213 ], [ 85.7156753, 20.1383898 ], [ 85.7170915, 20.1392762 ], [ 85.7181215, 20.1399208 ], [ 85.7194519, 20.1406058 ], [ 85.7199668, 20.1418548 ], [ 85.7196664, 20.1424592 ], [ 85.7184648, 20.1428218 ], [ 85.7162332, 20.1428621 ], [ 85.7147741, 20.1427815 ], [ 85.7131004, 20.1429024 ], [ 85.7111263, 20.143265 ], [ 85.7088089, 20.1436679 ], [ 85.7068777, 20.1436679 ], [ 85.7056331, 20.1430635 ], [ 85.7039594, 20.1428621 ], [ 85.7025861, 20.1434664 ], [ 85.7013845, 20.144514 ], [ 85.7005691, 20.1464882 ], [ 85.7009124, 20.1481803 ], [ 85.7010412, 20.149389 ], [ 85.7002687, 20.1507991 ], [ 85.6991958, 20.1510408 ], [ 85.6958055, 20.1521689 ], [ 85.6937456, 20.1530552 ], [ 85.6932735, 20.1543445 ], [ 85.6936168, 20.1560365 ], [ 85.6933164, 20.1577689 ], [ 85.6912994, 20.1583732 ], [ 85.6903982, 20.157084 ], [ 85.6898832, 20.1559559 ], [ 85.6890678, 20.1545459 ], [ 85.6885528, 20.1539416 ], [ 85.6882095, 20.1526121 ], [ 85.68542, 20.1525315 ], [ 85.684905, 20.1511617 ], [ 85.6848621, 20.1490264 ], [ 85.6847333, 20.1469314 ], [ 85.6843471, 20.1447154 ], [ 85.6831455, 20.1436276 ], [ 85.6818151, 20.1434261 ], [ 85.6806135, 20.1423383 ], [ 85.6806564, 20.1408878 ], [ 85.6810426, 20.139115 ], [ 85.6806135, 20.1358111 ], [ 85.6816434, 20.1341188 ], [ 85.6826734, 20.132628 ], [ 85.6831884, 20.1312983 ], [ 85.6815576, 20.1295254 ], [ 85.6802702, 20.1290418 ], [ 85.6773519, 20.127148 ], [ 85.676279, 20.1261003 ], [ 85.6753778, 20.1250527 ], [ 85.6758499, 20.1239647 ], [ 85.6761503, 20.1192501 ], [ 85.6762361, 20.1168322 ], [ 85.6761932, 20.1154621 ], [ 85.6758928, 20.1139711 ], [ 85.6755065, 20.1129637 ], [ 85.6761503, 20.1120368 ], [ 85.6772661, 20.1114323 ], [ 85.6790685, 20.1102637 ], [ 85.6809568, 20.1091353 ], [ 85.6819009, 20.1082084 ], [ 85.6833171, 20.1061531 ], [ 85.6837463, 20.1051859 ], [ 85.68542, 20.1043799 ], [ 85.6845188, 20.1013976 ], [ 85.6843471, 20.1000274 ], [ 85.6841325, 20.0990602 ], [ 85.6855058, 20.097972 ], [ 85.6859779, 20.0970854 ], [ 85.6872654, 20.0965614 ], [ 85.688982, 20.0966823 ], [ 85.6901836, 20.0968838 ], [ 85.6913423, 20.0964405 ], [ 85.6911277, 20.0954733 ], [ 85.6901836, 20.0945463 ], [ 85.688467, 20.0932163 ], [ 85.687437, 20.092773 ], [ 85.6852483, 20.0921684 ], [ 85.6837034, 20.092249 ], [ 85.6817293, 20.0925714 ], [ 85.6794118, 20.0923699 ], [ 85.6789398, 20.0909996 ], [ 85.6784677, 20.0898308 ], [ 85.6764507, 20.0893471 ], [ 85.6736183, 20.0889844 ], [ 85.6721592, 20.0882186 ], [ 85.6716013, 20.0877349 ], [ 85.6713438, 20.0864452 ], [ 85.6728887, 20.0822131 ], [ 85.6746053, 20.0787467 ], [ 85.6752491, 20.0775375 ], [ 85.6764507, 20.0766911 ], [ 85.6779098, 20.0762074 ], [ 85.6803989, 20.0759655 ], [ 85.6824588, 20.0751191 ], [ 85.682888, 20.0738695 ], [ 85.6828022, 20.0725393 ], [ 85.681858, 20.0705239 ], [ 85.6809568, 20.069234 ], [ 85.6799912, 20.0681456 ], [ 85.6786823, 20.0670976 ], [ 85.6767082, 20.0672991 ], [ 85.6754207, 20.0679038 ], [ 85.6739187, 20.0682263 ], [ 85.6719875, 20.0679844 ], [ 85.6702709, 20.066896 ], [ 85.6694126, 20.065848 ], [ 85.6675672, 20.0646386 ], [ 85.6660223, 20.0641549 ], [ 85.6642627, 20.0645983 ], [ 85.6621599, 20.0648805 ], [ 85.6605291, 20.0643565 ], [ 85.6589841, 20.0642355 ], [ 85.6585121, 20.0662914 ], [ 85.6566667, 20.0658883 ], [ 85.6539201, 20.0661301 ], [ 85.6519031, 20.0666139 ], [ 85.6504011, 20.0674201 ], [ 85.649929, 20.0691534 ], [ 85.6491994, 20.0715719 ], [ 85.6487274, 20.0739501 ], [ 85.6483411, 20.0769329 ], [ 85.6480407, 20.0793513 ], [ 85.6476545, 20.0834223 ], [ 85.6479549, 20.0859615 ], [ 85.6478691, 20.0884201 ], [ 85.6477403, 20.090395 ], [ 85.6479549, 20.0926117 ], [ 85.6486415, 20.0939014 ], [ 85.6494569, 20.095433 ], [ 85.6496286, 20.0967226 ], [ 85.648427, 20.0975287 ], [ 85.645895, 20.0989393 ], [ 85.6422042, 20.0993423 ], [ 85.639801, 20.1002289 ], [ 85.6376552, 20.1010349 ], [ 85.6357669, 20.1018813 ], [ 85.6345224, 20.1020828 ], [ 85.6329774, 20.1019619 ], [ 85.6327629, 20.1007528 ], [ 85.6331062, 20.0995841 ], [ 85.6344366, 20.0977302 ], [ 85.6351661, 20.0965211 ], [ 85.6355094, 20.0955942 ], [ 85.6357669, 20.0940224 ], [ 85.6364107, 20.0928133 ], [ 85.6374836, 20.0918057 ], [ 85.6391573, 20.0911608 ], [ 85.6405735, 20.0905159 ], [ 85.6419038, 20.0897905 ], [ 85.6437063, 20.0891456 ], [ 85.6443929, 20.0882992 ], [ 85.6444788, 20.0864855 ], [ 85.6447362, 20.0840672 ], [ 85.6437921, 20.0821325 ], [ 85.6410026, 20.081931 ], [ 85.6398439, 20.0820116 ], [ 85.637741, 20.0820519 ], [ 85.6388998, 20.0798753 ], [ 85.6389856, 20.0784646 ], [ 85.6385135, 20.0758043 ], [ 85.6366682, 20.0747966 ], [ 85.6340503, 20.0736277 ], [ 85.6272268, 20.0702417 ], [ 85.6248664, 20.069234 ], [ 85.6233644, 20.0689518 ], [ 85.6233644, 20.0679844 ], [ 85.6232357, 20.0670573 ], [ 85.6221628, 20.0666945 ], [ 85.6213474, 20.0669766 ], [ 85.620017, 20.0677828 ], [ 85.6186437, 20.065203 ], [ 85.6183004, 20.0631068 ], [ 85.6179571, 20.0610913 ], [ 85.6173133, 20.0573423 ], [ 85.6167984, 20.0549235 ], [ 85.6161546, 20.0519403 ], [ 85.6157255, 20.0491183 ], [ 85.6151676, 20.0460543 ], [ 85.6141376, 20.04295 ], [ 85.6138801, 20.0408939 ], [ 85.6136226, 20.0395634 ], [ 85.6132364, 20.038112 ], [ 85.6132793, 20.037225 ], [ 85.6141805, 20.0368218 ], [ 85.6161117, 20.0368622 ], [ 85.6178712, 20.0369025 ], [ 85.6191587, 20.0367009 ], [ 85.6206607, 20.0362977 ], [ 85.620532, 20.0346043 ], [ 85.6201028, 20.0334754 ], [ 85.620017, 20.0320643 ], [ 85.6213474, 20.0304515 ], [ 85.6240511, 20.0296048 ], [ 85.6259822, 20.0283952 ], [ 85.6275272, 20.0273065 ], [ 85.6295013, 20.0244841 ], [ 85.6305742, 20.0230325 ], [ 85.6311321, 20.0215003 ], [ 85.630145, 20.0196455 ], [ 85.628128, 20.0182342 ], [ 85.626111, 20.0172665 ], [ 85.6237077, 20.0172665 ], [ 85.6231069, 20.0158955 ], [ 85.6221628, 20.0144842 ], [ 85.6206607, 20.0102098 ], [ 85.6204891, 20.0081533 ], [ 85.61903, 20.0060967 ], [ 85.6172704, 19.9988782 ], [ 85.6155967, 19.9961359 ], [ 85.6144809, 19.9942002 ], [ 85.6132364, 19.9927483 ], [ 85.6112623, 19.9930709 ], [ 85.6099748, 19.9937565 ], [ 85.6080436, 19.9948454 ], [ 85.6075286, 19.9960553 ], [ 85.6075716, 19.9990395 ], [ 85.6077432, 20.0012978 ], [ 85.6086015, 20.0037174 ], [ 85.6102752, 20.0072661 ], [ 85.6114339, 20.0098469 ], [ 85.6128072, 20.0121857 ], [ 85.614953, 20.0174681 ], [ 85.6143951, 20.0193633 ], [ 85.6125068, 20.0198068 ], [ 85.6095886, 20.0191617 ], [ 85.6077432, 20.0186375 ], [ 85.6060695, 20.0168229 ], [ 85.6049108, 20.0158552 ], [ 85.6034088, 20.0154923 ], [ 85.6025075, 20.0147261 ], [ 85.6020355, 20.0131535 ], [ 85.6015634, 20.011097 ], [ 85.6008338, 20.0091614 ], [ 85.5983018, 20.0086372 ], [ 85.5961132, 20.0079113 ], [ 85.5975723, 20.0066612 ], [ 85.5989456, 20.0053305 ], [ 85.5986452, 20.0045643 ], [ 85.5966711, 20.0000074 ], [ 85.5944627, 19.9986841 ], [ 85.5937099, 19.998233 ], [ 85.5920362, 19.9980313 ], [ 85.5899334, 19.9987976 ], [ 85.5887317, 19.9993218 ], [ 85.587058, 20.0016608 ], [ 85.5867147, 20.0036771 ], [ 85.5868005, 20.0053305 ], [ 85.5851697, 20.006137 ], [ 85.5834961, 20.0069435 ], [ 85.5812645, 20.0082339 ], [ 85.5809211, 20.0109357 ], [ 85.5811357, 20.0137584 ], [ 85.5807924, 20.0169036 ], [ 85.5801057, 20.0196052 ], [ 85.5790758, 20.021581 ], [ 85.5768442, 20.0221455 ], [ 85.5756425, 20.0223874 ], [ 85.5748272, 20.0227503 ], [ 85.5737972, 20.0250889 ], [ 85.572381, 20.0252905 ], [ 85.5714368, 20.0240003 ], [ 85.5710935, 20.0223471 ], [ 85.5707502, 20.0207745 ], [ 85.570321, 20.0191213 ], [ 85.5700635, 20.0177504 ], [ 85.5696773, 20.0166213 ], [ 85.5693984, 20.0158652 ], [ 85.5687547, 20.0153007 ], [ 85.568186, 20.0147967 ], [ 85.5677569, 20.0143632 ], [ 85.5676067, 20.0139499 ], [ 85.5675208, 20.0129015 ], [ 85.567435, 20.0121756 ], [ 85.5671346, 20.0116212 ], [ 85.5667591, 20.0102501 ], [ 85.5666733, 20.0091614 ], [ 85.5672097, 20.0082137 ], [ 85.5684113, 20.0076693 ], [ 85.5697846, 20.0076895 ], [ 85.571351, 20.0074476 ], [ 85.5722952, 20.006883 ], [ 85.5722737, 20.0060362 ], [ 85.5717158, 20.0048466 ], [ 85.5713939, 20.0009349 ], [ 85.5709219, 19.9989185 ], [ 85.5707073, 19.99787 ], [ 85.5699134, 19.9971038 ], [ 85.5687547, 19.9970634 ], [ 85.5676389, 19.9976482 ], [ 85.5668878, 19.9982128 ], [ 85.5662012, 19.9994025 ], [ 85.5655145, 19.9997049 ], [ 85.5644417, 19.9997856 ], [ 85.563755, 19.9993823 ], [ 85.5632186, 19.9985354 ], [ 85.5628323, 19.9978095 ], [ 85.5625105, 19.9970433 ], [ 85.5625963, 19.9962972 ], [ 85.5628967, 19.9955713 ], [ 85.56324, 19.9946639 ], [ 85.5631542, 19.9937565 ], [ 85.5627894, 19.9917401 ], [ 85.5631757, 19.9912964 ], [ 85.5648064, 19.9910746 ], [ 85.566051, 19.990752 ], [ 85.5669307, 19.9898446 ], [ 85.5666518, 19.9886548 ], [ 85.5661797, 19.9879087 ], [ 85.5653214, 19.9874046 ], [ 85.5646992, 19.98684 ], [ 85.564785, 19.9860334 ], [ 85.5652356, 19.9853477 ], [ 85.5666947, 19.9847226 ], [ 85.5697202, 19.9822624 ], [ 85.5705571, 19.9805886 ], [ 85.5704069, 19.9793786 ], [ 85.5697846, 19.9778863 ], [ 85.5688619, 19.976999 ], [ 85.5672955, 19.9768377 ], [ 85.5662441, 19.9773418 ], [ 85.5652356, 19.977967 ], [ 85.5642271, 19.9786325 ], [ 85.5632186, 19.9787333 ], [ 85.5626392, 19.9784106 ], [ 85.5618667, 19.9780477 ], [ 85.5609226, 19.978088 ], [ 85.5603862, 19.9783501 ], [ 85.5590343, 19.978693 ], [ 85.5580687, 19.978451 ], [ 85.5573821, 19.9780073 ], [ 85.5569315, 19.9775032 ], [ 85.5568027, 19.9767772 ], [ 85.5562019, 19.9753655 ], [ 85.5560946, 19.9742362 ], [ 85.5566096, 19.973611 ], [ 85.5569744, 19.9731068 ], [ 85.5579829, 19.9724211 ], [ 85.5589056, 19.9719976 ], [ 85.560236, 19.9716346 ], [ 85.5617165, 19.9713926 ], [ 85.5630469, 19.9713926 ], [ 85.5641627, 19.9715539 ], [ 85.5657935, 19.9720178 ], [ 85.5665016, 19.9720783 ], [ 85.5663943, 19.9711909 ], [ 85.5659652, 19.9704246 ], [ 85.5653643, 19.9694767 ], [ 85.5650425, 19.9686095 ], [ 85.5643987, 19.9665927 ], [ 85.5648494, 19.9595741 ], [ 85.5647206, 19.9570933 ], [ 85.5644631, 19.9554193 ], [ 85.5639052, 19.9543907 ], [ 85.5634331, 19.953483 ], [ 85.5614161, 19.9521518 ], [ 85.559721, 19.9515266 ], [ 85.5580687, 19.9515064 ], [ 85.5559659, 19.9517484 ], [ 85.5540776, 19.9517686 ], [ 85.5526614, 19.9519703 ], [ 85.5517816, 19.9521518 ], [ 85.5512881, 19.9528174 ], [ 85.5513525, 19.9541285 ], [ 85.5516529, 19.9554798 ], [ 85.5519748, 19.9567303 ], [ 85.5522108, 19.9594934 ], [ 85.5529189, 19.9608448 ], [ 85.5530906, 19.9622162 ], [ 85.5519104, 19.9629221 ], [ 85.5507087, 19.9627003 ], [ 85.5498719, 19.9622566 ], [ 85.5494213, 19.9612885 ], [ 85.5491423, 19.960159 ], [ 85.5489707, 19.9584648 ], [ 85.5486917, 19.9574967 ], [ 85.547533, 19.9567706 ], [ 85.5461168, 19.9567303 ], [ 85.5443787, 19.9571337 ], [ 85.5426192, 19.9577186 ], [ 85.5410957, 19.9577388 ], [ 85.5397224, 19.9576177 ], [ 85.5383062, 19.9574766 ], [ 85.5370402, 19.9574564 ], [ 85.535903, 19.9574766 ], [ 85.5346155, 19.958001 ], [ 85.5335641, 19.9582026 ], [ 85.5324697, 19.9586262 ], [ 85.5324483, 19.9601388 ], [ 85.5331993, 19.9608448 ], [ 85.5342507, 19.9624381 ], [ 85.5345297, 19.9633053 ], [ 85.5340147, 19.9644751 ], [ 85.533092, 19.965544 ], [ 85.5316329, 19.966633 ], [ 85.5309677, 19.9676213 ], [ 85.5310964, 19.9688112 ], [ 85.5310964, 19.9696985 ], [ 85.5303883, 19.9702027 ], [ 85.5297017, 19.9705052 ], [ 85.5292082, 19.9711103 ], [ 85.52953, 19.972764 ], [ 85.5304742, 19.9740345 ], [ 85.5310321, 19.9758495 ], [ 85.5297875, 19.9773217 ], [ 85.5285859, 19.9776645 ], [ 85.5277061, 19.9775233 ], [ 85.527277, 19.97712 ], [ 85.5269336, 19.9764142 ], [ 85.5260968, 19.9763738 ], [ 85.5247235, 19.9764545 ], [ 85.5234575, 19.9764948 ], [ 85.5223846, 19.9764545 ], [ 85.5215478, 19.976273 ], [ 85.5213547, 19.975547 ], [ 85.5217194, 19.9750832 ], [ 85.5218267, 19.9743975 ], [ 85.5210972, 19.9738933 ], [ 85.5197882, 19.9739538 ], [ 85.5186295, 19.9740547 ], [ 85.5175781, 19.9741757 ], [ 85.5172562, 19.9737925 ], [ 85.5172777, 19.9728245 ], [ 85.5174708, 19.9719169 ], [ 85.518415, 19.9711708 ], [ 85.5182004, 19.9703036 ], [ 85.5170202, 19.9705052 ], [ 85.515604, 19.9702229 ], [ 85.5151105, 19.9696582 ], [ 85.5152178, 19.9687305 ], [ 85.5154109, 19.9678633 ], [ 85.5156469, 19.9669356 ], [ 85.5154753, 19.9660885 ], [ 85.5153894, 19.9648784 ], [ 85.5156469, 19.9634868 ], [ 85.5151748, 19.9623776 ], [ 85.51494, 19.9618743 ], [ 85.5146384, 19.961228 ], [ 85.514059, 19.9601187 ], [ 85.5129862, 19.9591304 ], [ 85.512793, 19.9576782 ], [ 85.5122781, 19.9561454 ], [ 85.5120849, 19.9552176 ], [ 85.5119133, 19.9538461 ], [ 85.5113339, 19.9528376 ], [ 85.5097031, 19.9526359 ], [ 85.5083942, 19.9525552 ], [ 85.5074072, 19.9524746 ], [ 85.5076647, 19.9516274 ], [ 85.5079865, 19.9508206 ], [ 85.5081153, 19.9498525 ], [ 85.5074501, 19.9489852 ], [ 85.5065703, 19.9484204 ], [ 85.5055618, 19.9477346 ], [ 85.5059695, 19.9469681 ], [ 85.5068064, 19.9463428 ], [ 85.5081582, 19.9457377 ], [ 85.5095529, 19.9449107 ], [ 85.5145526, 19.9429945 ], [ 85.5167842, 19.9420666 ], [ 85.5183506, 19.9411791 ], [ 85.5198312, 19.9398276 ], [ 85.5205822, 19.9388594 ], [ 85.5203032, 19.9373869 ], [ 85.5191231, 19.935995 ], [ 85.5180931, 19.9351882 ], [ 85.5171919, 19.9343208 ], [ 85.5162477, 19.9337156 ], [ 85.5153894, 19.9333727 ], [ 85.5146169, 19.9332718 ], [ 85.5135011, 19.9336753 ], [ 85.5120849, 19.9340989 ], [ 85.5107546, 19.9343208 ], [ 85.5095744, 19.934341 ], [ 85.5083942, 19.9344418 ], [ 85.5082869, 19.9334937 ], [ 85.5078149, 19.9316782 ], [ 85.5067634, 19.9311941 ], [ 85.5068493, 19.9302056 ], [ 85.507257, 19.9287129 ], [ 85.5076003, 19.9273815 ], [ 85.5086732, 19.9267763 ], [ 85.5107116, 19.9270183 ], [ 85.5126214, 19.927563 ], [ 85.514574, 19.9281682 ], [ 85.516119, 19.9284708 ], [ 85.518415, 19.9292172 ], [ 85.5210113, 19.9309117 ], [ 85.5218911, 19.9323439 ], [ 85.5227065, 19.9337761 ], [ 85.5236077, 19.9353092 ], [ 85.5255389, 19.9391418 ], [ 85.526762, 19.9414817 ], [ 85.5270409, 19.9428937 ], [ 85.5279207, 19.943519 ], [ 85.5297446, 19.9424297 ], [ 85.5312252, 19.941522 ], [ 85.5326414, 19.9407152 ], [ 85.5339718, 19.9396663 ], [ 85.5351949, 19.9387384 ], [ 85.5357957, 19.9380324 ], [ 85.5362248, 19.9368826 ], [ 85.5361819, 19.9355714 ], [ 85.5358171, 19.9343813 ], [ 85.5348944, 19.9316782 ], [ 85.5342936, 19.9289751 ], [ 85.5339074, 19.9274016 ], [ 85.5341005, 19.9265544 ], [ 85.5357957, 19.9260702 ], [ 85.5378127, 19.9254247 ], [ 85.5477046, 19.9217128 ], [ 85.5588197, 19.9184043 ], [ 85.5616951, 19.9176377 ], [ 85.5642271, 19.9188481 ], [ 85.5662012, 19.917678 ], [ 85.5685186, 19.9164272 ], [ 85.569334, 19.9152571 ], [ 85.5683469, 19.9136835 ], [ 85.5671882, 19.9128361 ], [ 85.5660724, 19.9115853 ], [ 85.564742, 19.9099713 ], [ 85.5636692, 19.9079134 ], [ 85.5636477, 19.9073989 ], [ 85.5650747, 19.9072173 ], [ 85.5659008, 19.906834 ], [ 85.56692, 19.9062489 ], [ 85.5687761, 19.9053108 ], [ 85.5704069, 19.9038177 ], [ 85.5715656, 19.9028695 ], [ 85.5720806, 19.9022037 ], [ 85.571866, 19.9012756 ], [ 85.5710292, 19.9002062 ], [ 85.570364, 19.8995202 ], [ 85.569613, 19.8987737 ], [ 85.5695486, 19.8980272 ], [ 85.5699134, 19.8973815 ], [ 85.5707931, 19.8958279 ], [ 85.5705786, 19.8938909 ], [ 85.569849, 19.8924987 ], [ 85.5685615, 19.8913082 ], [ 85.5675316, 19.8904204 ], [ 85.5675745, 19.8890887 ], [ 85.5682611, 19.8872121 ], [ 85.5689263, 19.8853759 ], [ 85.5697846, 19.8839231 ], [ 85.5702996, 19.8823693 ], [ 85.5700636, 19.8791205 ], [ 85.5694198, 19.8774255 ], [ 85.5677461, 19.8748223 ], [ 85.5670595, 19.8734299 ], [ 85.5663943, 19.8703626 ], [ 85.5664158, 19.8675575 ], [ 85.5667162, 19.865943 ], [ 85.5662656, 19.864934 ], [ 85.5657291, 19.864046 ], [ 85.565536, 19.8627948 ], [ 85.5658579, 19.8576889 ], [ 85.5654502, 19.8557514 ], [ 85.5650854, 19.8543387 ], [ 85.5646348, 19.8530067 ], [ 85.5630684, 19.852603 ], [ 85.5619311, 19.852825 ], [ 85.560472, 19.8533296 ], [ 85.5563736, 19.8544396 ], [ 85.5537987, 19.8551056 ], [ 85.5512452, 19.8558322 ], [ 85.5458379, 19.8569825 ], [ 85.5415034, 19.8577898 ], [ 85.5357742, 19.8593842 ], [ 85.5274057, 19.8617252 ], [ 85.5203891, 19.8634406 ], [ 85.50848, 19.8664274 ], [ 85.5012702, 19.8681226 ], [ 85.5007552, 19.8719165 ], [ 85.5020427, 19.8756296 ], [ 85.5044459, 19.882894 ], [ 85.5035876, 19.8848311 ], [ 85.4915713, 19.8842661 ], [ 85.480585, 19.8841854 ], [ 85.4747485, 19.8838626 ], [ 85.4614448, 19.8837819 ], [ 85.45372, 19.883459 ], [ 85.4428195, 19.883459 ], [ 85.4387855, 19.8831362 ], [ 85.4335498, 19.8770825 ], [ 85.4300307, 19.8712707 ], [ 85.4222201, 19.8644094 ], [ 85.4068565, 19.8502014 ], [ 85.3978442, 19.8421281 ], [ 85.3876304, 19.8311477 ], [ 85.3826522, 19.8292907 ], [ 85.3744983, 19.8269491 ], [ 85.3676318, 19.8248498 ], [ 85.3627395, 19.8233964 ], [ 85.360422, 19.8226697 ], [ 85.3587913, 19.8208126 ], [ 85.3578471, 19.8195206 ], [ 85.3569888, 19.8175827 ], [ 85.357933, 19.8146758 ], [ 85.3562163, 19.8120918 ], [ 85.3505515, 19.8056316 ], [ 85.3483199, 19.8003826 ], [ 85.3461742, 19.799898 ], [ 85.3444575, 19.8011094 ], [ 85.3427409, 19.7974753 ], [ 85.3389644, 19.7920644 ], [ 85.3321838, 19.7866534 ], [ 85.3296088, 19.7849574 ], [ 85.3231715, 19.7833421 ], [ 85.3191375, 19.7824537 ], [ 85.3102969, 19.7813229 ], [ 85.3042888, 19.7826152 ], [ 85.3040313, 19.780596 ], [ 85.2921008, 19.7811614 ], [ 85.2876376, 19.7814845 ], [ 85.2788829, 19.7763154 ], [ 85.2702998, 19.7730038 ], [ 85.2667808, 19.7705807 ], [ 85.2624892, 19.7700153 ], [ 85.2587127, 19.7699345 ], [ 85.2527045, 19.7671075 ], [ 85.2527045, 19.7632303 ], [ 85.2509021, 19.7434392 ], [ 85.2477264, 19.742389 ], [ 85.2269553, 19.7431969 ], [ 85.2204322, 19.7397231 ], [ 85.2153682, 19.7342295 ], [ 85.2143382, 19.7314018 ], [ 85.2131366, 19.7275238 ], [ 85.2109908, 19.724292 ], [ 85.2084159, 19.7225953 ], [ 85.2048968, 19.7206562 ], [ 85.2027511, 19.7175051 ], [ 85.1991462, 19.7072434 ], [ 85.1986312, 19.7057889 ], [ 85.1990604, 19.7021527 ], [ 85.2004336, 19.6997285 ], [ 85.2032661, 19.6981932 ], [ 85.2066993, 19.6967386 ], [ 85.2106475, 19.6960113 ], [ 85.2115058, 19.69189 ], [ 85.2121924, 19.6886575 ], [ 85.2127074, 19.6861523 ], [ 85.2120208, 19.6838895 ], [ 85.2094459, 19.6802528 ], [ 85.205841, 19.6777474 ], [ 85.2021503, 19.6756461 ], [ 85.1982879, 19.6742722 ], [ 85.194168, 19.6733832 ], [ 85.1916789, 19.6726558 ], [ 85.1839971, 19.6719284 ], [ 85.1814651, 19.6365248 ], [ 85.1789546, 19.6042465 ], [ 85.1774954, 19.5858711 ], [ 85.1743411, 19.5578087 ], [ 85.1360177, 19.5206811 ] ] ] } }
]
}
