{
"type": "FeatureCollection",
"name": "hazard_zones",
"crs": { "type": "name", "properties": { "name": "urn:ogc:def:crs:OGC:1.3:CRS84" } },
"features": [
{ "type": "Feature", "properties": { "name": "Puri Fani landfall zone", "hazard_type": "cyclone", "year": 2019, "buffer_km": 8.0, "source": "Cyclone Fani made landfall at Puri, 3 May 2019, 200kmph winds, 1.5m storm surge; 21 deaths and 189,095 houses damaged in Puri district", "confidence": "historical_incident_buffer" }, "geometry": { "type": "Polygon", "coordinates": [ [ [ 85.901624643098941, 19.808093936753917 ], [ 85.901305533247211, 19.801006826393362 ], [ 85.900254071265479, 19.793983440394413 ], [ 85.898480478133024, 19.787091409703095 ], [ 85.896001923099291, 19.780397091689625 ], [ 85.892842354948328, 19.773964931743649 ], [ 85.889032268347847, 19.767856843582535 ], [ 85.884608407647235, 19.762131614203497 ], [ 85.879613411071361, 19.756844339162992 ], [ 85.874095398809274, 19.752045893567004 ], [ 85.868107509011594, 19.747782443806383 ], [ 85.8617073861855, 19.744095004675106 ], [ 85.85495662690758, 19.741019046071809 ], [ 85.847920188158383, 19.738584153008169 ], [ 85.840665763917599, 19.736813742138509 ], [ 85.833263135940527, 19.735724837486245 ], [ 85.825783504865484, 19.735327907480649 ], [ 85.818298807974912, 19.735626764836386 ], [ 85.810881030049259, 19.736618530213992 ], [ 85.803601513812822, 19.738293659996941 ], [ 85.796530276472339, 19.740636037915706 ], [ 85.789735338793875, 19.743623129647016 ], [ 85.783282073051481, 19.747226198921613 ], [ 85.777232576011812, 19.751410583093278 ], [ 85.771645072895964, 19.756136025558874 ], [ 85.766573357982168, 19.76135706188041 ], [ 85.762066277184289, 19.767023455949584 ], [ 85.758167257562988, 19.773080682057639 ], [ 85.754913888301928, 19.77947044829374 ], [ 85.752337557212513, 19.786131256296404 ], [ 85.750463146323355, 19.792998992030011 ], [ 85.749308789564992, 19.800007541954258 ], [ 85.748885694985333, 19.807089428702533 ], [ 85.749198033326863, 19.814176460188094 ], [ 85.750242894171564, 19.821200385916317 ], [ 85.75201031021713, 19.828093554199899 ], [ 85.75448334959539, 19.834789563951922 ], [ 85.75763827548549, 19.841223904770604 ], [ 85.761444771619352, 19.84733457912931 ], [ 85.765866231627768, 19.853062700645083 ], [ 85.770860109544046, 19.858353062618576 ], [ 85.77637832816967, 19.863154671314817 ], [ 85.782367741424792, 19.867421238786775 ], [ 85.788770646257603, 19.871111630428356 ], [ 85.795525339181324, 19.874190262877278 ], [ 85.802566712047863, 19.876627448367053 ], [ 85.809826881262083, 19.878399682146263 ], [ 85.817235844292, 19.879489870137707 ], [ 85.824722157045869, 19.879887494593817 ], [ 85.832213625466949, 19.879588716112451 ], [ 85.83963800454751, 19.878596411002011 ], [ 85.846923697883568, 19.876920143620854 ], [ 85.854000450885209, 19.874576073956103 ], [ 85.860800030822233, 19.871586801344311 ], [ 85.867256887021355, 19.867981145865187 ], [ 85.873308784737233, 19.863793869551728 ], [ 85.878897406493053, 19.859065340150757 ], [ 85.883968915022976, 19.853841140729596 ], [ 85.888474472345536, 19.848171628952645 ], [ 85.892370709947372, 19.842111450340223 ], [ 85.895620145557004, 19.835719010265926 ], [ 85.898191542531336, 19.829055909844904 ], [ 85.900060208456949, 19.822186351208682 ], [ 85.901208230178469, 19.81517651795032 ], [ 85.901624643098941, 19.808093936753917 ] ] ] } },
{ "type": "Feature", "properties": { "name": "Astaranga-Kakatpur 1999 super cyclone surge zone", "hazard_type": "storm_surge", "year": 1999, "buffer_km": 6.0, "source": "1999 Odisha Super Cyclone; storm surge devastated Astaranga block coastal villages, ~10,000 deaths statewide, triggered first forced relocation of Udayakani residents", "confidence": "historical_incident_buffer" }, "geometry": { "type": "Polygon", "coordinates": [ [ [ 86.326715894399612, 19.979706368473817 ], [ 86.326462328049431, 19.974391173229876 ], [ 86.325658966978892, 19.969125065307527 ], [ 86.324313601535337, 19.963958754483127 ], [ 86.322439238072533, 19.958941984656292 ], [ 86.32005397178807, 19.954123055197858 ], [ 86.317180810773507, 19.94954835637553 ], [ 86.313847453035692, 19.945261923309168 ], [ 86.310086018689248, 19.94130501272334 ], [ 86.30593273993928, 19.937715706541237 ], [ 86.30142761186508, 19.934528546102577 ], [ 86.296614007378309, 19.93177420049123 ], [ 86.29153826005755, 19.929479172129593 ], [ 86.286249218856256, 19.927665542439087 ], [ 86.28079777893646, 19.926350759982174 ], [ 86.275236393098012, 19.925547473096529 ], [ 86.269618568448294, 19.925263408607488 ], [ 86.263998353090486, 19.925501297767461 ], [ 86.258429817698627, 19.926258850122046 ], [ 86.25296653689233, 19.927528775548257 ], [ 86.247661075326434, 19.929298854253236 ], [ 86.24256448336692, 19.931552054067168 ], [ 86.237725807137679, 19.934266693915273 ], [ 86.233191617592468, 19.937416651915672 ], [ 86.229005563092855, 19.940971616125054 ], [ 86.225207949760104, 19.944897375548763 ], [ 86.221835353614239, 19.949156148646701 ], [ 86.218920268223584, 19.953706946208214 ], [ 86.216490791261066, 19.958505965138453 ], [ 86.214570353004916, 19.963507009400697 ], [ 86.213177489431857, 19.968661934095437 ], [ 86.212325662135868, 19.973921108430947 ], [ 86.212023126866001, 19.979233893153477 ], [ 86.212272852018657, 19.984549127860536 ], [ 86.213072487945666, 19.989815623518879 ], [ 86.214414387454497, 19.994982655451757 ], [ 86.216285677385116, 20.00000045204786 ], [ 86.218668380653966, 20.004820674478331 ], [ 86.221539587664779, 20.009396882787406 ], [ 86.224871675502143, 20.013684983846613 ], [ 86.228632572853343, 20.017643656831449 ], [ 86.232786068150048, 20.021234752090766 ], [ 86.237292157991547, 20.024423659531578 ], [ 86.24210743250633, 20.027179642933643 ], [ 86.247185493937792, 20.029476136935056 ], [ 86.252477404402626, 20.031291003790574 ], [ 86.257932158474503, 20.032606747394006 ], [ 86.263497175992413, 20.03341068247126 ], [ 86.269118810285278, 20.03369505728725 ], [ 86.274742866847063, 20.033457128663851 ], [ 86.280315127388093, 20.032699188572028 ], [ 86.285781874133036, 20.031428542035375 ], [ 86.291090409232723, 20.029657436558725 ], [ 86.296189564206912, 20.027402943770298 ], [ 86.301030194436549, 20.024686794433279 ], [ 86.305565653876954, 20.021535168438515 ], [ 86.309752245365473, 20.017978441829452 ], [ 86.313549642145006, 20.01405089332885 ], [ 86.316921276517945, 20.009790373229979 ], [ 86.319834691876679, 20.005237937879716 ], [ 86.322261854726861, 20.000437453312095 ], [ 86.324179423720437, 19.995435171887323 ], [ 86.325568973144769, 19.990279286048214 ], [ 86.32641716876654, 19.985019463522637 ], [ 86.326715894399612, 19.979706368473817 ] ] ] } },
{ "type": "Feature", "properties": { "name": "Astaranga block ongoing coastal erosion zone", "hazard_type": "coastal_erosion", "year": 2026, "buffer_km": 1.5, "source": "Ongoing coastal erosion since 1999 super cyclone; Udayakani village relocated three times, sea now ~100m from village (was several km); Tandahara household water access also affected. Documented in Down To Earth, The Statesman, Mongabay-India, ICSF coverage 2019-2022", "confidence": "historical_incident_buffer" }, "geometry": { "type": "Polygon", "coordinates": [ [ [ 86.300975424360232, 19.97471985464346 ], [ 86.301826552315205, 19.973660725810799 ], [ 86.302563767449456, 19.972527819626574 ], [ 86.303179971440869, 19.971332048077681 ], [ 86.303669231954672, 19.970084928426868 ], [ 86.304026839696292, 19.968798472244149 ], [ 86.304249353666066, 19.967485069685576 ], [ 86.304334634184272, 19.966157370135591 ], [ 86.304281863372324, 19.964828160363542 ], [ 86.304091552897944, 19.963510241368812 ], [ 86.303765538914774, 19.962216305101002 ], [ 86.303306964250098, 19.960958812242286 ], [ 86.302720248017394, 19.959749872228635 ], [ 86.302011042950895, 19.958601126664249 ], [ 86.301186180876982, 19.957523637250723 ], [ 86.300253606851172, 19.956527779308555 ], [ 86.299222302597755, 19.955623141914415 ], [ 86.298102199990652, 19.95481843561377 ], [ 86.296904085409906, 19.954121408595181 ], [ 86.295639495894676, 19.953538772131431 ], [ 86.294320608091184, 19.953076136002924 ], [ 86.292960121063501, 19.9527379545234 ], [ 86.291571134092322, 19.95252748368555 ], [ 86.29016702063511, 19.952446749837783 ], [ 86.288761299657025, 19.952496530192388 ], [ 86.28736750556692, 19.95267634535206 ], [ 86.28599905800607, 19.952984463926164 ], [ 86.284669132738628, 19.95341791919245 ], [ 86.283390534882059, 19.953972537644155 ], [ 86.282175575693955, 19.95464297914846 ], [ 86.281035954097817, 19.955422788330999 ], [ 86.279982644084967, 19.956304456693061 ], [ 86.279025789074836, 19.957279494865436 ], [ 86.271025640459186, 19.966279003202938 ], [ 86.270174353193511, 19.967337980037314 ], [ 86.269436936708431, 19.968470745916118 ], [ 86.268820494182364, 19.969666393166627 ], [ 86.26833096433289, 19.970913408383698 ], [ 86.267973064145409, 19.97219978325894 ], [ 86.267750243348317, 19.97351313018385 ], [ 86.267664651076956, 19.974840801515114 ], [ 86.267717115051354, 19.976170011355041 ], [ 86.267907133473486, 19.97748795867491 ], [ 86.268232879726966, 19.97878195059624 ], [ 86.268691219838971, 19.980039524642546 ], [ 86.269277742541163, 19.981248568783787 ], [ 86.26998680164516, 19.98239743811655 ], [ 86.270811570327908, 19.98347506705489 ], [ 86.271744106808299, 19.984471075949731 ], [ 86.272775430784861, 19.985375871107905 ], [ 86.273895609900308, 19.986180737245689 ], [ 86.275093855400954, 19.986877921483654 ], [ 86.276358626069623, 19.987460708071975 ], [ 86.277677739429862, 19.987923483123922 ], [ 86.279038489148462, 19.988261788731965 ], [ 86.280427767502459, 19.988472365943476 ], [ 86.281832191727545, 19.988553186180258 ], [ 86.283238233026623, 19.988503470798161 ], [ 86.284632346991259, 19.988323698597455 ], [ 86.286001104174971, 19.988015601211146 ], [ 86.287331319555733, 19.987582146415772 ], [ 86.288610179635754, 19.987027509525742 ], [ 86.289825365950136, 19.986357033147875 ], [ 86.290965173790426, 19.985577175684767 ], [ 86.292018624996572, 19.984695449085013 ], [ 86.292975573728185, 19.983720346441352 ], [ 86.300975424360232, 19.97471985464346 ] ] ] } }
]
}
