{
"type": "FeatureCollection",
"name": "relocation_sites",
"crs": { "type": "name", "properties": { "name": "urn:ogc:def:crs:OGC:1.3:CRS84" } },
"features": [
{ "type": "Feature", "properties": { "name": "Puri", "full_query": "Puri, Odisha, India", "lat": 19.8076083, "lon": 85.8252538, "coord_source": "osm_geocoded", "baseline_hazard_score_x": 74.2, "hazard_note_x": "Inside cyclone buffer zone 'Puri Fani landfall zone' (2019, 7yr ago): Cyclone Fani made landfall at Puri, 3 May 2019, 200kmph winds, 1.5m storm surge; 21 deaths and 189,095 houses damaged in Puri district", "safety_assessment_x": "High hazard exposure - reconsider as primary site", "baseline_hazard_score_y": 74.2, "hazard_note_y": "Inside cyclone buffer zone 'Puri Fani landfall zone' (2019, 7yr ago): Cyclone Fani made landfall at Puri, 3 May 2019, 200kmph winds, 1.5m storm surge; 21 deaths and 189,095 houses damaged in Puri district", "safety_assessment_y": "High hazard exposure - reconsider as primary site", "baseline_hazard_score": 74.2, "hazard_note": "Inside cyclone buffer zone 'Puri Fani landfall zone' (2019, 7yr ago): Cyclone Fani made landfall at Puri, 3 May 2019, 200kmph winds, 1.5m storm surge; 21 deaths and 189,095 houses damaged in Puri district", "safety_assessment": "High hazard exposure - reconsider as primary site" }, "geometry": { "type": "Point", "coordinates": [ 85.8252538, 19.8076083 ] } },
{ "type": "Feature", "properties": { "name": "Bhubaneswar", "full_query": "Bhubaneswar, Odisha, India", "lat": 20.2602964, "lon": 85.8394521, "coord_source": "osm_geocoded", "baseline_hazard_score_x": 0.0, "hazard_note_x": "No significant hazard proximity detected.", "safety_assessment_x": "Low baseline hazard exposure - viable candidate", "baseline_hazard_score_y": 0.0, "hazard_note_y": "No significant hazard proximity detected.", "safety_assessment_y": "Low baseline hazard exposure - viable candidate", "baseline_hazard_score": 0.0, "hazard_note": "No significant hazard proximity detected.", "safety_assessment": "Low baseline hazard exposure - viable candidate" }, "geometry": { "type": "Point", "coordinates": [ 85.8394521, 20.2602964 ] } },
{ "type": "Feature", "properties": { "name": "Nimapada", "full_query": "Nimapada, Puri, Odisha, India", "lat": 20.07, "lon": 86.02, "coord_source": "wikipedia_verified", "baseline_hazard_score_x": null, "hazard_note_x": null, "safety_assessment_x": null, "baseline_hazard_score_y": 0.0, "hazard_note_y": "No significant hazard proximity detected.", "safety_assessment_y": "Low baseline hazard exposure - viable candidate", "baseline_hazard_score": 0.0, "hazard_note": "No significant hazard proximity detected.", "safety_assessment": "Low baseline hazard exposure - viable candidate" }, "geometry": { "type": "Point", "coordinates": [ 86.02, 20.07 ] } },
{ "type": "Feature", "properties": { "name": "Pipili", "full_query": "Pipili, Puri, Odisha, India", "lat": 20.12, "lon": 85.83, "coord_source": "wikipedia_verified", "baseline_hazard_score_x": null, "hazard_note_x": null, "safety_assessment_x": null, "baseline_hazard_score_y": 0.0, "hazard_note_y": "No significant hazard proximity detected.", "safety_assessment_y": "Low baseline hazard exposure - viable candidate", "baseline_hazard_score": 0.0, "hazard_note": "No significant hazard proximity detected.", "safety_assessment": "Low baseline hazard exposure - viable candidate" }, "geometry": { "type": "Point", "coordinates": [ 85.83, 20.12 ] } },
{ "type": "Feature", "properties": { "name": "Berhampur", "full_query": "Berhampur, Ganjam, Odisha, India", "lat": 19.315, "lon": 84.7941, "coord_source": "wikipedia_verified", "baseline_hazard_score_x": null, "hazard_note_x": null, "safety_assessment_x": null, "baseline_hazard_score_y": 0.0, "hazard_note_y": "No significant hazard proximity detected.", "safety_assessment_y": "Low baseline hazard exposure - viable candidate", "baseline_hazard_score": 0.0, "hazard_note": "No significant hazard proximity detected.", "safety_assessment": "Low baseline hazard exposure - viable candidate" }, "geometry": { "type": "Point", "coordinates": [ 84.7941, 19.315 ] } },
{ "type": "Feature", "properties": { "name": "Bhadrak", "full_query": "Bhadrak, Odisha, India", "lat": 21.06, "lon": 86.5, "coord_source": "wikipedia_verified", "baseline_hazard_score_x": null, "hazard_note_x": null, "safety_assessment_x": null, "baseline_hazard_score_y": 0.0, "hazard_note_y": "No significant hazard proximity detected.", "safety_assessment_y": "Low baseline hazard exposure - viable candidate", "baseline_hazard_score": 0.0, "hazard_note": "No significant hazard proximity detected.", "safety_assessment": "Low baseline hazard exposure - viable candidate" }, "geometry": { "type": "Point", "coordinates": [ 86.5, 21.06 ] } }
]
}
