{
"type": "FeatureCollection",
"name": "site_boundaries",
"crs": { "type": "name", "properties": { "name": "urn:ogc:def:crs:OGC:1.3:CRS84" } },
"features": [
{ "type": "Feature", "properties": { "name": "Puri", "boundary_source": "estimated_buffer" }, "geometry": { "type": "Polygon", "coordinates": [ [ [ 85.8276323418456, 19.807543885885757 ], [ 85.827614216046868, 19.807323543494217 ], [ 85.827573358376526, 19.807105943580201 ], [ 85.82751016239834, 19.806893181715875 ], [ 85.827425236794411, 19.806687306874185 ], [ 85.827319399500468, 19.806490301697654 ], [ 85.827193669826627, 19.80630406340617 ], [ 85.827049258639306, 19.806130385527577 ], [ 85.826887556699205, 19.805970940626882 ], [ 85.826710121267311, 19.805827264200357 ], [ 85.826518661108437, 19.80570073988963 ], [ 85.826315020036091, 19.805592586158053 ], [ 85.826101159157702, 19.805503844557535 ], [ 85.825879137990555, 19.805435369698909 ], [ 85.825651094630686, 19.805387821022315 ], [ 85.825419225165149, 19.805361656446788 ], [ 85.825185762526317, 19.80535712796031 ], [ 85.824952954991105, 19.805374279192684 ], [ 85.824723044532618, 19.805412944994625 ], [ 85.824498245232164, 19.805472753027278 ], [ 85.824280721959653, 19.805553127346698 ], [ 85.824072569527317, 19.805653293948978 ], [ 85.823875792517768, 19.805772288222624 ], [ 85.823692285980187, 19.805908964236437 ], [ 85.823523817180856, 19.80606200577359 ], [ 85.823372008583419, 19.8062299390057 ], [ 85.823238322223077, 19.806411146684844 ], [ 85.823124045624965, 19.806603883716953 ], [ 85.823030279402658, 19.806806293966698 ], [ 85.82295792665596, 19.807016428132034 ], [ 85.822907684270589, 19.80723226251628 ], [ 85.822880036203301, 19.807451718517047 ], [ 85.822875248817482, 19.807672682644274 ], [ 85.822893368314183, 19.807893026874655 ], [ 85.8229342202835, 19.808110629146324 ], [ 85.82299741138074, 19.808323393796517 ], [ 85.823082333111373, 19.808529271745233 ], [ 85.823188167688542, 19.808726280230545 ], [ 85.823313895906495, 19.808912521905405 ], [ 85.823458306954791, 19.809086203111949 ], [ 85.823620010078074, 19.809245651157287 ], [ 85.823797447969866, 19.809389330424302 ], [ 85.823988911770854, 19.809515857162189 ], [ 85.824192557527525, 19.809624012814336 ], [ 85.824406423952468, 19.809712755755026 ], [ 85.82462845131522, 19.809781231321924 ], [ 85.824856501281715, 19.80982878004767 ], [ 85.825088377510909, 19.809854944011342 ], [ 85.825321846810581, 19.809859471248458 ], [ 85.825554660647825, 19.809842318177253 ], [ 85.825784576807351, 19.809803650017656 ], [ 85.826009380988737, 19.809743839199125 ], [ 85.826226908134544, 19.809663461772683 ], [ 85.826435063283668, 19.809563291861618 ], [ 85.826631841749105, 19.809444294204596 ], [ 85.826815348425697, 19.809307614862835 ], [ 85.82698381604186, 19.809154570181033 ], [ 85.827135622179398, 19.80898663410844 ], [ 85.827269304897641, 19.808805424002134 ], [ 85.827383576811386, 19.808612685049457 ], [ 85.827477337487153, 19.808410273459536 ], [ 85.827549684038232, 19.808200138585935 ], [ 85.827599919817004, 19.807984304152534 ], [ 85.827627561120622, 19.807764848763629 ], [ 85.8276323418456, 19.807543885885757 ] ] ] } },
{ "type": "Feature", "properties": { "name": "Bhubaneswar", "boundary_source": "estimated_buffer" }, "geometry": { "type": "Polygon", "coordinates": [ [ [ 85.841837413928019, 20.260230385046903 ], [ 85.841819069729695, 20.260010066245925 ], [ 85.841777930548545, 20.259792505115566 ], [ 85.841714392661785, 20.259579796854062 ], [ 85.841629068046458, 20.259373989917503 ], [ 85.841522778482755, 20.25917706629367 ], [ 85.841396547637785, 20.258990922416164 ], [ 85.84125159120542, 20.258817350902547 ], [ 85.841089305197798, 20.258658023292398 ], [ 85.840911252500703, 20.258514473951358 ], [ 85.840719147822938, 20.258388085296097 ], [ 85.840514841184017, 20.258280074482528 ], [ 85.840300300099585, 20.258191481685294 ], [ 85.840077590635786, 20.258123160081425 ], [ 85.839848857515079, 20.258075767634541 ], [ 85.839616303464851, 20.258049760758709 ], [ 85.839382168007802, 20.258045389922994 ], [ 85.839148705897856, 20.258062697238937 ], [ 85.838918165409481, 20.258101516054335 ], [ 85.838692766689135, 20.258161472557138 ], [ 85.838474680377317, 20.258241989374188 ], [ 85.83826600670686, 20.25834229113001 ], [ 85.838068755278812, 20.258461411912425 ], [ 85.837884825710361, 20.258598204572881 ], [ 85.837715989341362, 20.258751351772272 ], [ 85.837563872175437, 20.258919378665684 ], [ 85.837429939220101, 20.259100667104253 ], [ 85.837315480376418, 20.25929347121712 ], [ 85.837221598014608, 20.259495934223867 ], [ 85.837149196354886, 20.259706106315083 ], [ 85.837098972756223, 20.259921963429438 ], [ 85.837071410996941, 20.260141426746035 ], [ 85.837066776611806, 20.26036238270455 ], [ 85.837085114331003, 20.260582703360321 ], [ 85.8371262476456, 20.260800266878299 ], [ 85.837189780503735, 20.261012977968498 ], [ 85.837275101121719, 20.261218788066117 ], [ 85.837381387872909, 20.261415715061897 ], [ 85.837507617198312, 20.261601862392663 ], [ 85.837652573462407, 20.261775437308135 ], [ 85.837814860659591, 20.261934768137998 ], [ 85.837992915858308, 20.262078320392895 ], [ 85.838185024253647, 20.262204711544179 ], [ 85.838389335683217, 20.262312724340003 ], [ 85.838603882447288, 20.262401318529555 ], [ 85.838826598261434, 20.262469640882301 ], [ 85.83905533815917, 20.262517033405828 ], [ 85.839287899152637, 20.262543039683134 ], [ 85.839522041452355, 20.262547409268159 ], [ 85.839755510041414, 20.262530100097422 ], [ 85.83998605639637, 20.262491278894405 ], [ 85.840211460145326, 20.262431319562907 ], [ 85.840429550454502, 20.262350799584802 ], [ 85.840638226937457, 20.262250494457028 ], [ 85.840835479885087, 20.262131370221358 ], [ 85.841019409621794, 20.261994574159047 ], [ 85.841188244801259, 20.261841423739934 ], [ 85.841340359465534, 20.261673393932664 ], [ 85.84147428870331, 20.261492102998091 ], [ 85.841588742756329, 20.261299296902951 ], [ 85.841682619438515, 20.261096832503895 ], [ 85.841755014747903, 20.260886659663804 ], [ 85.841805231569538, 20.260670802472799 ], [ 85.841832786385567, 20.260451339754724 ], [ 85.841837413928019, 20.260230385046903 ] ] ] } }
]
}
