{
"type": "FeatureCollection",
"name": "villages",
"crs": { "type": "name", "properties": { "name": "urn:ogc:def:crs:OGC:1.3:CRS84" } },
"features": [
{ "type": "Feature", "properties": { "name": "Astaranga", "full_query": "Astaranga, Puri, Odisha, India", "lat": 19.9783703, "lon": 86.3098519, "coord_source": "osm_geocoded", "population": 3092, "households": 727, "population_source": "census_2011_verified", "zone_x": "Warning", "vulnerability_score_x": 57.1, "vulnerability_reason_x": "Warning (57.1/100). Hazard: Inside storm_surge buffer zone 'Astaranga-Kakatpur 1999 super cyclone surge zone' (1999, 27yr ago): 1999 Odisha Super Cyclone; storm surge devastated Astaranga block coastal villages, ~10,000 deaths statewide, triggered first forced relocation of Udayakani residents Population: 3092 (census_2011_verified), est. 315 children under 6 (Puri district Census 2011 rate: 10.18%). No amenity data available for Puri yet - using neutral default score.", "zone_y": "Warning", "vulnerability_score_y": 57.1, "vulnerability_reason_y": "Warning (57.1/100). Hazard: Inside storm_surge buffer zone 'Astaranga-Kakatpur 1999 super cyclone surge zone' (1999, 27yr ago): 1999 Odisha Super Cyclone; storm surge devastated Astaranga block coastal villages, ~10,000 deaths statewide, triggered first forced relocation of Udayakani residents Population: 3092 (census_2011_verified), est. 315 children under 6 (Puri district Census 2011 rate: 10.18%). No amenity data available for Puri yet - using neutral default score.", "zone": "Warning", "vulnerability_score": 57.1, "vulnerability_reason": "Warning (57.1/100). Hazard: Inside storm_surge buffer zone 'Astaranga-Kakatpur 1999 super cyclone surge zone' (1999, 27yr ago): 1999 Odisha Super Cyclone; storm surge devastated Astaranga block coastal villages, ~10,000 deaths statewide, triggered first forced relocation of Udayakani residents Population: 3092 (census_2011_verified), est. 315 children under 6 (Puri district Census 2011 rate: 10.18%). No amenity data available for Puri yet - using neutral default score." }, "geometry": { "type": "Point", "coordinates": [ 86.3098519, 19.9783703 ] } },
{ "type": "Feature", "properties": { "name": "Kakatpur", "full_query": "Kakatpur, Puri, Odisha, India", "lat": 19.9773519, "lon": 86.2048856, "coord_source": "osm_geocoded", "population": 3722, "households": 819, "population_source": "census_2011_verified", "zone_x": "Warning", "vulnerability_score_x": 50.7, "vulnerability_reason_x": "Warning (50.7/100). Hazard: 0.76km from storm_surge zone 'Astaranga-Kakatpur 1999 super cyclone surge zone' (1999) Population: 3722 (census_2011_verified), est. 379 children under 6 (Puri district Census 2011 rate: 10.18%). No amenity data available for Puri yet - using neutral default score.", "zone_y": "Warning", "vulnerability_score_y": 50.7, "vulnerability_reason_y": "Warning (50.7/100). Hazard: 0.76km from storm_surge zone 'Astaranga-Kakatpur 1999 super cyclone surge zone' (1999) Population: 3722 (census_2011_verified), est. 379 children under 6 (Puri district Census 2011 rate: 10.18%). No amenity data available for Puri yet - using neutral default score.", "zone": "Warning", "vulnerability_score": 50.7, "vulnerability_reason": "Warning (50.7/100). Hazard: 0.76km from storm_surge zone 'Astaranga-Kakatpur 1999 super cyclone surge zone' (1999) Population: 3722 (census_2011_verified), est. 379 children under 6 (Puri district Census 2011 rate: 10.18%). No amenity data available for Puri yet - using neutral default score." }, "geometry": { "type": "Point", "coordinates": [ 86.2048856, 19.9773519 ] } },
{ "type": "Feature", "properties": { "name": "Udayakani", "full_query": "manual", "lat": 19.972, "lon": 86.285, "coord_source": "manual_estimate", "population": 220, "households": 44, "population_source": "journalistic_estimate_household_count_verified", "zone_x": "Warning", "vulnerability_score_x": 48.9, "vulnerability_reason_x": "Warning (48.9/100). Hazard: Inside coastal_erosion buffer zone 'Astaranga block ongoing coastal erosion zone' (2026, 0yr ago): Ongoing coastal erosion since 1999 super cyclone; Udayakani village relocated three times, sea now ~100m from village (was several km); Tandahara household water access also affected. Documented in Down To Earth, The Statesman, Mongabay-India, ICSF coverage 2019-2022 Population: 220 (journalistic_estimate_household_count_verified), est. 22 children under 6 (Puri district Census 2011 rate: 10.18%). No amenity data available for Puri yet - using neutral default score.", "zone_y": "Warning", "vulnerability_score_y": 48.9, "vulnerability_reason_y": "Warning (48.9/100). Hazard: Inside coastal_erosion buffer zone 'Astaranga block ongoing coastal erosion zone' (2026, 0yr ago): Ongoing coastal erosion since 1999 super cyclone; Udayakani village relocated three times, sea now ~100m from village (was several km); Tandahara household water access also affected. Documented in Down To Earth, The Statesman, Mongabay-India, ICSF coverage 2019-2022 Population: 220 (journalistic_estimate_household_count_verified), est. 22 children under 6 (Puri district Census 2011 rate: 10.18%). No amenity data available for Puri yet - using neutral default score.", "zone": "Warning", "vulnerability_score": 48.9, "vulnerability_reason": "Warning (48.9/100). Hazard: Inside coastal_erosion buffer zone 'Astaranga block ongoing coastal erosion zone' (2026, 0yr ago): Ongoing coastal erosion since 1999 super cyclone; Udayakani village relocated three times, sea now ~100m from village (was several km); Tandahara household water access also affected. Documented in Down To Earth, The Statesman, Mongabay-India, ICSF coverage 2019-2022 Population: 220 (journalistic_estimate_household_count_verified), est. 22 children under 6 (Puri district Census 2011 rate: 10.18%). No amenity data available for Puri yet - using neutral default score." }, "geometry": { "type": "Point", "coordinates": [ 86.285, 19.972 ] } },
{ "type": "Feature", "properties": { "name": "Tandahara", "full_query": "manual", "lat": 19.968, "lon": 86.29, "coord_source": "manual_estimate", "population": 1000, "households": 222, "population_source": "journalistic_estimate_population_stated", "zone_x": "Red Zone", "vulnerability_score_x": 64.6, "vulnerability_reason_x": "Red Zone (64.6/100). Hazard: Inside coastal_erosion buffer zone 'Astaranga block ongoing coastal erosion zone' (2026, 0yr ago): Ongoing coastal erosion since 1999 super cyclone; Udayakani village relocated three times, sea now ~100m from village (was several km); Tandahara household water access also affected. Documented in Down To Earth, The Statesman, Mongabay-India, ICSF coverage 2019-2022 Population: 1000 (journalistic_estimate_population_stated), est. 102 children under 6 (Puri district Census 2011 rate: 10.18%). No amenity data available for Puri yet - using neutral default score.", "zone_y": "Red Zone", "vulnerability_score_y": 64.6, "vulnerability_reason_y": "Red Zone (64.6/100). Hazard: Inside coastal_erosion buffer zone 'Astaranga block ongoing coastal erosion zone' (2026, 0yr ago): Ongoing coastal erosion since 1999 super cyclone; Udayakani village relocated three times, sea now ~100m from village (was several km); Tandahara household water access also affected. Documented in Down To Earth, The Statesman, Mongabay-India, ICSF coverage 2019-2022 Population: 1000 (journalistic_estimate_population_stated), est. 102 children under 6 (Puri district Census 2011 rate: 10.18%). No amenity data available for Puri yet - using neutral default score.", "zone": "Red Zone", "vulnerability_score": 64.6, "vulnerability_reason": "Red Zone (64.6/100). Hazard: Inside coastal_erosion buffer zone 'Astaranga block ongoing coastal erosion zone' (2026, 0yr ago): Ongoing coastal erosion since 1999 super cyclone; Udayakani village relocated three times, sea now ~100m from village (was several km); Tandahara household water access also affected. Documented in Down To Earth, The Statesman, Mongabay-India, ICSF coverage 2019-2022 Population: 1000 (journalistic_estimate_population_stated), est. 102 children under 6 (Puri district Census 2011 rate: 10.18%). No amenity data available for Puri yet - using neutral default score." }, "geometry": { "type": "Point", "coordinates": [ 86.29, 19.968 ] } }
]
}
