{
"type": "FeatureCollection",
"name": "village_boundaries",
"crs": { "type": "name", "properties": { "name": "urn:ogc:def:crs:OGC:1.3:CRS84" } },
"features": [
{ "type": "Feature", "properties": { "name": "Astaranga", "boundary_source": "estimated_buffer" }, "geometry": { "type": "Polygon", "coordinates": [ [ [ 86.315562198517696, 19.978198769451652 ], [ 86.31551690931866, 19.977670441786788 ], [ 86.31541706436353, 19.977148854800969 ], [ 86.315263625685759, 19.97663903145359 ], [ 86.315058071384485, 19.976145881379047 ], [ 86.314802381374093, 19.97567415361361 ], [ 86.314499018304673, 19.975228390869948 ], [ 86.314150903836932, 19.974812885799164 ], [ 86.313761390500943, 19.974431639661368 ], [ 86.313334229409506, 19.974088323802047 ], [ 86.312873534137253, 19.973786244305202 ], [ 86.312383741113194, 19.973528310162926 ], [ 86.311869566907632, 19.973317005267869 ], [ 86.311335962824643, 19.973154364497937 ], [ 86.31078806723643, 19.973041954123207 ], [ 86.310231156118377, 19.972980856723886 ], [ 86.30967059225982, 19.972971660764134 ], [ 86.309111773639444, 19.973014454922446 ], [ 86.308560081461138, 19.97310882723313 ], [ 86.308020828350251, 19.973253869047443 ], [ 86.307499207208267, 19.973448183776352 ], [ 86.307000241217622, 19.973689900331124 ], [ 86.306528735477912, 19.973976691132645 ], [ 86.306089230738337, 19.974305794516351 ], [ 86.305685959672033, 19.974674041317591 ], [ 86.30532280611304, 19.975077885381538 ], [ 86.305003267648502, 19.975513437704581 ], [ 86.304730421926564, 19.975976503878446 ], [ 86.304506897004686, 19.976462624477044 ], [ 86.304334846024588, 19.976967117997216 ], [ 86.304215926457957, 19.977485125940206 ], [ 86.304151284124032, 19.97801165959973 ], [ 86.304141542133095, 19.978541648106201 ], [ 86.304186794863796, 19.979069987264356 ], [ 86.304286607032822, 19.979591588713941 ], [ 86.304440017866625, 19.980101428939697 ], [ 86.304645550336161, 19.980594597658619 ], [ 86.304901225365953, 19.981066345117952 ], [ 86.305204580881679, 19.981512127848195 ], [ 86.305552695512873, 19.981927652430155 ], [ 86.305942216723167, 19.982308916853949 ], [ 86.306369393097214, 19.982652249071339 ], [ 86.30683011047303, 19.982954342369716 ], [ 86.307319931572181, 19.983212287226593 ], [ 86.307834138745477, 19.983423599337552 ], [ 86.3083677794219, 19.983586243547421 ], [ 86.308915713822969, 19.983698653453875 ], [ 86.30947266448176, 19.983759746494744 ], [ 86.310033267089409, 19.983768934373341 ], [ 86.310592122178122, 19.983726128721745 ], [ 86.311143847142546, 19.983631741947296 ], [ 86.311683128097371, 19.983486683254601 ], [ 86.312204771071123, 19.983292349881303 ], [ 86.312703752042339, 19.983050613632631 ], [ 86.313175265335744, 19.982763802844545 ], [ 86.313614769911879, 19.982434679949652 ], [ 86.314018033103864, 19.982066414862423 ], [ 86.314381171380248, 19.981662554440398 ], [ 86.314700687741237, 19.981226988315825 ], [ 86.314973505388082, 19.98076391142736 ], [ 86.315196997342213, 19.980277783612856 ], [ 86.315369011728905, 19.979773286652762 ], [ 86.315487892482651, 19.979255279178037 ], [ 86.315552495275838, 19.978728749876968 ], [ 86.315562198517696, 19.978198769451652 ] ] ] } },
{ "type": "Feature", "properties": { "name": "Kakatpur", "boundary_source": "estimated_buffer" }, "geometry": { "type": "Polygon", "coordinates": [ [ [ 86.210596830207407, 19.977183757374579 ], [ 86.210551887868377, 19.976655323557484 ], [ 86.210452377444042, 19.976133598818009 ], [ 86.210299257747437, 19.975623607444792 ], [ 86.210094003807555, 19.975130260692723 ], [ 86.209838592648509, 19.974658309494185 ], [ 86.20953548423762, 19.974212298715184 ], [ 86.209187597786155, 19.973796523396665 ], [ 86.208798283631481, 19.973414987401913 ], [ 86.208371290971499, 19.973071364867987 ], [ 86.207910731761956, 19.972768964831765 ], [ 86.207421041124562, 19.972510699371316 ], [ 86.206906934646312, 19.972299055568545 ], [ 86.206373362981324, 19.972136071563266 ], [ 86.205825464191477, 19.972023316928844 ], [ 86.205268514284157, 19.971961877558325 ], [ 86.204707876422972, 19.971952345206514 ], [ 86.20414894929921, 19.971994811788772 ], [ 86.203597115161102, 19.972088868491412 ], [ 86.203057687999831, 19.972233609702599 ], [ 86.202535862391272, 19.972427641725925 ], [ 86.202036663484648, 19.972669096193286 ], [ 86.201564898619893, 19.972955648048025 ], [ 86.201125111038692, 19.973284537925686 ], [ 86.200721536134836, 19.973652598717205 ], [ 86.200358060665238, 19.974056286059113 ], [ 86.200038185313957, 19.974491712457599 ], [ 86.199764990970493, 19.97495468471816 ], [ 86.199541109047018, 19.975440744320647 ], [ 86.199368696121027, 19.97594521035127 ], [ 86.199249413148152, 19.976463224578303 ], [ 86.199184409446147, 19.976989798237494 ], [ 86.19917431160485, 19.97751986007675 ], [ 86.199219217429999, 19.97804830519738 ], [ 86.199318694979738, 19.978570044221339 ], [ 86.199471786704436, 19.97908005231108 ], [ 86.199677018650064, 19.979573417569284 ], [ 86.199932414637686, 19.980045388352394 ], [ 86.200235515283055, 19.98049141904178 ], [ 86.200583401673285, 19.980907213831351 ], [ 86.200972723473399, 19.981288768109557 ], [ 86.201399731191671, 19.981632407036738 ], [ 86.201860312293661, 19.981934820945998 ], [ 86.202350030816376, 19.982193097226158 ], [ 86.202864170101179, 19.982404748379516 ], [ 86.20339777823321, 19.982567735983768 ], [ 86.203945715749214, 19.982680490327251 ], [ 86.20450270515353, 19.982741925528099 ], [ 86.205063381764759, 19.982751449991742 ], [ 86.205622345402418, 19.982708972105957 ], [ 86.206174212415121, 19.982614901118826 ], [ 86.206713667548257, 19.982470143191122 ], [ 86.207235515151098, 19.982276092661667 ], [ 86.207734729229145, 19.982034618609735 ], [ 86.208206501859436, 19.981748046844604 ], [ 86.208646289501871, 19.981419137495887 ], [ 86.209049856760259, 19.981051058420913 ], [ 86.209413317171595, 19.980647354685761 ], [ 86.209733170630415, 19.98021191441423 ], [ 86.210006337088558, 19.979748931333958 ], [ 86.210230186205479, 19.979262864380892 ], [ 86.210402562664427, 19.978758394751289 ], [ 86.21052180691116, 19.978240380815194 ], [ 86.210586771116155, 19.977713811325671 ], [ 86.210596830207407, 19.977183757374579 ] ] ] } },
{ "type": "Feature", "properties": { "name": "Udayakani", "boundary_source": "estimated_buffer" }, "geometry": { "type": "Polygon", "coordinates": [ [ [ 86.287379298893143, 19.971928906201342 ], [ 86.287360469938065, 19.971708757490994 ], [ 86.287318908606011, 19.971491413720262 ], [ 86.287255015237264, 19.971278967992404 ], [ 86.287169405229548, 19.971073466233825 ], [ 86.287062903108691, 19.970876887492263 ], [ 86.286936534585834, 19.97069112487932 ], [ 86.286791516677937, 19.970517967340598 ], [ 86.28662924598639, 19.970359082429102 ], [ 86.286451285247139, 19.970216000247717 ], [ 86.28625934828132, 19.970090098715158 ], [ 86.286055283491663, 19.969982590297501 ], [ 86.285841056063632, 19.969894510332757 ], [ 86.285618729042184, 19.969826707061017 ], [ 86.285390443466682, 19.969779833456197 ], [ 86.285158397755097, 19.969754340937797 ], [ 86.284924826535715, 19.969750475023506 ], [ 86.28469197913023, 19.969768272964277 ], [ 86.284462097895315, 19.96980756338483 ], [ 86.284237396630942, 19.969867967932974 ], [ 86.284020039263496, 19.969948904921978 ], [ 86.283812119008601, 19.970049594930884 ], [ 86.283615638214414, 19.970169068309037 ], [ 86.283432489079402, 19.970306174512373 ], [ 86.283264435430127, 19.970459593181928 ], [ 86.283113095734649, 19.970627846857745 ], [ 86.282979927515001, 19.970809315205845 ], [ 86.282866213309035, 19.971002250621357 ], [ 86.282773048316756, 19.971204795057609 ], [ 86.282701329850269, 19.971414997919055 ], [ 86.282651748688934, 19.971630834845918 ], [ 86.282624782423412, 19.971850227209565 ], [ 86.28262069085234, 19.972071062130802 ], [ 86.28263951347661, 19.972291212828551 ], [ 86.282681069115256, 19.972508559102639 ], [ 86.282744957646713, 19.972721007753591 ], [ 86.282830563859207, 19.972926512742674 ], [ 86.282937063372771, 19.973123094898007 ], [ 86.283063430576419, 19.97330886097679 ], [ 86.283208448503913, 19.973482021900256 ], [ 86.283370720553066, 19.973640909985281 ], [ 86.28354868393582, 19.973783995007064 ], [ 86.283740624729433, 19.973909898937713 ], [ 86.283944694384047, 19.974017409219009 ], [ 86.284158927527258, 19.974105490441318 ], [ 86.284381260894492, 19.974173294316213 ], [ 86.284609553202486, 19.97422016784661 ], [ 86.284841605774574, 19.974245659615853 ], [ 86.285075183718831, 19.974249524135057 ], [ 86.285308037455096, 19.974231724206877 ], [ 86.285537924383448, 19.974192431282972 ], [ 86.285762630485081, 19.97413202381173 ], [ 86.28597999164775, 19.974051083592226 ], [ 86.286187914509952, 19.973950390169538 ], [ 86.286384396623347, 19.973830913325543 ], [ 86.286567545738777, 19.973693803737483 ], [ 86.286735598030418, 19.973540381894384 ], [ 86.286886935082407, 19.973372125378173 ], [ 86.287020099474262, 19.973190654631981 ], [ 86.28713380881527, 19.972997717352836 ], [ 86.287226968092355, 19.972795171659026 ], [ 86.287298680213084, 19.972584968194429 ], [ 86.287348254641913, 19.972369131341985 ], [ 86.287375214046932, 19.972149739727488 ], [ 86.287379298893143, 19.971928906201342 ] ] ] } },
{ "type": "Feature", "properties": { "name": "Tandahara", "boundary_source": "estimated_buffer" }, "geometry": { "type": "Polygon", "coordinates": [ [ [ 86.295710109704785, 19.967829193492403 ], [ 86.295664897662249, 19.967300844609397 ], [ 86.295565130935373, 19.966779229637151 ], [ 86.295411770804151, 19.966269371805129 ], [ 86.295206294611347, 19.965776181080347 ], [ 86.294950681519353, 19.965304406891025 ], [ 86.294647393437785, 19.964858592397324 ], [ 86.294299351305668, 19.964443030749084 ], [ 86.293909906956955, 19.964061723751495 ], [ 86.293482810840715, 19.963718343336339 ], [ 86.293022175906529, 19.963416196209351 ], [ 86.292532438002993, 19.963158192013871 ], [ 86.292018313170288, 19.962946815317039 ], [ 86.291484752237693, 19.962784101687973 ], [ 86.290936893162481, 19.962671618098099 ], [ 86.290380011568928, 19.962610447832279 ], [ 86.289819469962481, 19.962601180055945 ], [ 86.289260666107879, 19.962643904138684 ], [ 86.288708981067003, 19.962738208789165 ], [ 86.28816972739655, 19.962883186009687 ], [ 86.287648098003288, 19.963077439832794 ], [ 86.287149116148953, 19.963319099755832 ], [ 86.286677587085535, 19.963605838744666 ], [ 86.286238051786427, 19.96393489563339 ], [ 86.28583474321853, 19.964303101704864 ], [ 86.285471545576371, 19.964706911196402 ], [ 86.285151956871019, 19.965142435437262 ], [ 86.284879055233716, 19.965605480289707 ], [ 86.284655469259732, 19.966091586533132 ], [ 86.284483352678038, 19.966596072802918 ], [ 86.284364363591521, 19.967114080670459 ], [ 86.284299648488343, 19.967640621430647 ], [ 86.284289831179166, 19.968170624145969 ], [ 86.284335006767648, 19.96869898448486 ], [ 86.284434740713195, 19.969220613883611 ], [ 86.284588072995533, 19.969730488558351 ], [ 86.284793527342174, 19.970223697894813 ], [ 86.285049125430234, 19.970695491749527 ], [ 86.285352405926673, 19.971141326206624 ], [ 86.285700448183974, 19.971556907349079 ], [ 86.286089900363379, 19.971938232622531 ], [ 86.286517011714864, 19.972281629392878 ], [ 86.286977668703429, 19.972583790325867 ], [ 86.287467434632873, 19.972841805247604 ], [ 86.287981592386004, 19.973053189178732 ], [ 86.288515189868463, 19.973215906272131 ], [ 86.289063087718361, 19.973328389423244 ], [ 86.289620008821345, 19.973389555364069 ], [ 86.290180589153621, 19.973398815095383 ], [ 86.290739429462263, 19.973356079556751 ], [ 86.291291147284483, 19.973261760479769 ], [ 86.291830428803806, 19.973116766416524 ], [ 86.292352080043244, 19.972922493981745 ], [ 86.292851076901528, 19.972680814393303 ], [ 86.29332261355006, 19.972394055441072 ], [ 86.293762148723985, 19.972064979058143 ], [ 86.294165449461204, 19.971696754710795 ], [ 86.294528631868062, 19.971292928864074 ], [ 86.294848198519091, 19.970857390817212 ], [ 86.295121072130485, 19.97039433523851 ], [ 86.295344625184029, 19.96990822176079 ], [ 86.29551670521586, 19.969403732026667 ], [ 86.295635655527676, 19.968885724597886 ], [ 86.295700331121438, 19.968359188162697 ], [ 86.295710109704785, 19.967829193492403 ] ] ] } }
]
}
